<?xml version="1.0" encoding="utf-8"?>
<kml xmlns="http://www.opengis.net/kml/2.2">
  <Document>
    <name>Pixel6 pro_gnss_log_2022_05_06_12_57_40_rawKfPr.kml</name>
    <Placemark>
      <Snippet maxLines="0"> </Snippet>
      <description> </description>
      <name>Line 1</name>
      <Style>
        <LineStyle>
          <color>80ffffff</color>
        </LineStyle>
      </Style>
      <LineString>
        <altitudeMode>clampToGround</altitudeMode>
        <coordinates> -122.087457802064,37.4244019820942,0 -122.087456088177,37.4244034036615,0 -122.087457834669,37.4244035251104,0 -122.087460109554,37.4244017007538,0 -122.087461545177,37.4244046373015,0 -122.087460513735,37.4244028411521,0 -122.087458425655,37.4244022886426,0 -122.087457792665,37.424404405553,0 -122.087457215526,37.4244037553869,0 -122.087455561738,37.4244043208034,0 -122.087458729959,37.4244049750645,0 -122.087459478486,37.4244046946842,0 -122.087459445433,37.4244062894589,0 -122.087457610796,37.4244055186935,0 -122.087459875756,37.4244038822826,0 -122.087460972569,37.4244051563934,0 -122.087462404628,37.4244027274568,0 -122.087464053103,37.4244015944192,0 -122.087463746606,37.4244008360017,0 -122.087462431533,37.4244021467053,0 -122.087458953457,37.4244044446576,0 -122.087456253401,37.4244027219107,0 -122.087455268549,37.4244026364336,0 -122.087455582548,37.4244023379543,0 -122.08745516764,37.4244025330077,0 -122.087454198362,37.4244036912131,0 -122.087456935476,37.4244029405549,0 -122.087455877336,37.4244007682807,0 -122.087456453678,37.424398312968,0 -122.087457642876,37.4244005118335,0 -122.087456538483,37.4243999627792,0 -122.087457084473,37.4243991981448,0 -122.087456228358,37.424399351804,0 -122.087456793438,37.4244004965148,0 -122.087456755639,37.4244023941179,0 -122.087456326528,37.4244031709918,0 -122.087455433375,37.424404309228,0 -122.087455824955,37.4244038547375,0 -122.087456483779,37.4244004744368,0 -122.087455911614,37.4244003354011,0 -122.087454029124,37.4243994713584,0 -122.087453987375,37.4243987792859,0 -122.087455321653,37.4243974520606,0 -122.087455362481,37.4243967169562,0 -122.087456279497,37.4243979436747,0 -122.087455735803,37.4244004791577,0 -122.087455608104,37.4244019619864,0 -122.087454887514,37.4244036336824,0 -122.087455297624,37.4244040449606,0 -122.087457655199,37.4244031096781,0 -122.087460410497,37.4244026229306,0 -122.087462648028,37.4244008159989,0 -122.087464704836,37.4244037660374,0 -122.087463456688,37.424402945238,0 -122.08746611335,37.4244018107066,0 -122.087468712735,37.4244032293593,0 -122.087465746703,37.4244058540306,0 -122.0874659816,37.424404224345,0 -122.087464297749,37.4244035937655,0 -122.087464277184,37.42440371852,0 -122.0874646841,37.424402783957,0 -122.087463671652,37.4244038848662,0 -122.08746366026,37.4244042751134,0 -122.087462142773,37.4244049574759,0 -122.087462520603,37.4244047591874,0 -122.087459179068,37.4244043249375,0 -122.08746013799,37.4244008818521,0 -122.087460360152,37.4244005976774,0 -122.087460497367,37.42440065984,0 -122.087460801507,37.424401026262,0 -122.087460535129,37.4244004313604,0 -122.087459822886,37.4244020159641,0 -122.087458518802,37.4243999910713,0 -122.087458916567,37.4243972121771,0 -122.087460092472,37.4243953212304,0 -122.087459603106,37.4243973665219,0 -122.087464591872,37.4243964527301,0 -122.087472621526,37.4243980755907,0 -122.087474970011,37.4243963437622,0 -122.087466860522,37.4243914456607,0 -122.087465711614,37.4243896186001,0 -122.087458932049,37.4243891792313,0 -122.087461550216,37.4243929587561,0 -122.087462597515,37.4243942759784,0 -122.087466841702,37.4243958710357,0 -122.087460475534,37.4243937001447,0 -122.087455383781,37.4243952106579,0 -122.087456855475,37.4243960373266,0 -122.087457151972,37.4243942023175,0 -122.087460644829,37.4243941642718,0 -122.087460719343,37.4243968995197,0 -122.087459631565,37.4243974111349,0 -122.087462396948,37.4243990230829,0 -122.087466903611,37.4243991268312,0 -122.087467552887,37.4244006915049,0 -122.087468146121,37.4244007239666,0 -122.087474977261,37.4244007086866,0 -122.087470603546,37.4243986563088,0 -122.087464771586,37.4243990343773,0 -122.08746060223,37.4244007254645,0</coordinates>
      </LineString>
    </Placemark>
    <Placemark>
      <Snippet maxLines="0"> </Snippet>
      <description>1
UTC 06-05-2022 19:57:43.00
GpsMilliseconds 1335902281000
37.4244020,-122.0874578, EA(2m)
AltWgs84 -26.6 m, EA(5m)
Hdg 8 deg, Spd 0.2 m/s
EA(43.0 deg, 2.0 m/s)</description>
      <Style>
        <IconStyle>
          <Icon>
            <href>http://maps.google.com/mapfiles/kml/shapes/shaded_dot.png</href>
          </Icon>
          <scale>0.6</scale>
          <color>bf00a0f4</color>
        </IconStyle>
      </Style>
      <Point>
        <altitudeMode>clampToGround</altitudeMode>
        <coordinates>-122.087457802064,37.4244019820942,0</coordinates>
      </Point>
    </Placemark>
    <Placemark>
      <Snippet maxLines="0"> </Snippet>
      <description>2
UTC 06-05-2022 19:57:44.00
GpsMilliseconds 1335902282000
37.4244034,-122.0874561, EA(2m)
AltWgs84 -26.9 m, EA(4m)
Hdg 23 deg, Spd 0.2 m/s
EA(42.9 deg, 1.5 m/s)</description>
      <Style>
        <IconStyle>
          <Icon>
            <href>http://maps.google.com/mapfiles/kml/shapes/shaded_dot.png</href>
          </Icon>
          <scale>0.6</scale>
          <color>bf00a0f4</color>
        </IconStyle>
      </Style>
      <Point>
        <altitudeMode>clampToGround</altitudeMode>
        <coordinates>-122.087456088177,37.4244034036615,0</coordinates>
      </Point>
    </Placemark>
    <Placemark>
      <Snippet maxLines="0"> </Snippet>
      <description>3
UTC 06-05-2022 19:57:45.00
GpsMilliseconds 1335902283000
37.4244035,-122.0874578, EA(2m)
AltWgs84 -26.5 m, EA(4m)
Hdg 355 deg, Spd 0.1 m/s
EA(43.4 deg, 1.1 m/s)</description>
      <Style>
        <IconStyle>
          <Icon>
            <href>http://maps.google.com/mapfiles/kml/shapes/shaded_dot.png</href>
          </Icon>
          <scale>0.6</scale>
          <color>bf00a0f4</color>
        </IconStyle>
      </Style>
      <Point>
        <altitudeMode>clampToGround</altitudeMode>
        <coordinates>-122.087457834669,37.4244035251104,0</coordinates>
      </Point>
    </Placemark>
    <Placemark>
      <Snippet maxLines="0"> </Snippet>
      <description>4
UTC 06-05-2022 19:57:46.00
GpsMilliseconds 1335902284000
37.4244017,-122.0874601, EA(2m)
AltWgs84 -26.6 m, EA(4m)
Hdg 278 deg, Spd 0.1 m/s
EA(43.3 deg, 0.9 m/s)</description>
      <Style>
        <IconStyle>
          <Icon>
            <href>http://maps.google.com/mapfiles/kml/shapes/shaded_dot.png</href>
          </Icon>
          <scale>0.6</scale>
          <color>bf00a0f4</color>
        </IconStyle>
      </Style>
      <Point>
        <altitudeMode>clampToGround</altitudeMode>
        <coordinates>-122.087460109554,37.4244017007538,0</coordinates>
      </Point>
    </Placemark>
    <Placemark>
      <Snippet maxLines="0"> </Snippet>
      <description>5
UTC 06-05-2022 19:57:47.00
GpsMilliseconds 1335902285000
37.4244046,-122.0874615, EA(2m)
AltWgs84 -26.6 m, EA(4m)
Hdg 320 deg, Spd 0.1 m/s
EA(43.6 deg, 0.8 m/s)</description>
      <Style>
        <IconStyle>
          <Icon>
            <href>http://maps.google.com/mapfiles/kml/shapes/shaded_dot.png</href>
          </Icon>
          <scale>0.6</scale>
          <color>bf00a0f4</color>
        </IconStyle>
      </Style>
      <Point>
        <altitudeMode>clampToGround</altitudeMode>
        <coordinates>-122.087461545177,37.4244046373015,0</coordinates>
      </Point>
    </Placemark>
    <Placemark>
      <Snippet maxLines="0"> </Snippet>
      <description>6
UTC 06-05-2022 19:57:48.00
GpsMilliseconds 1335902286000
37.4244028,-122.0874605, EA(2m)
AltWgs84 -27.1 m, EA(4m)
Hdg 299 deg, Spd 0.0 m/s
EA(43.9 deg, 0.8 m/s)</description>
      <Style>
        <IconStyle>
          <Icon>
            <href>http://maps.google.com/mapfiles/kml/shapes/shaded_dot.png</href>
          </Icon>
          <scale>0.6</scale>
          <color>bf00a0f4</color>
        </IconStyle>
      </Style>
      <Point>
        <altitudeMode>clampToGround</altitudeMode>
        <coordinates>-122.087460513735,37.4244028411521,0</coordinates>
      </Point>
    </Placemark>
    <Placemark>
      <Snippet maxLines="0"> </Snippet>
      <description>7
UTC 06-05-2022 19:57:49.00
GpsMilliseconds 1335902287000
37.4244023,-122.0874584, EA(2m)
AltWgs84 -27.5 m, EA(3m)
Hdg 88 deg, Spd 0.0 m/s
EA(44.0 deg, 0.7 m/s)</description>
      <Style>
        <IconStyle>
          <Icon>
            <href>http://maps.google.com/mapfiles/kml/shapes/shaded_dot.png</href>
          </Icon>
          <scale>0.6</scale>
          <color>bf00a0f4</color>
        </IconStyle>
      </Style>
      <Point>
        <altitudeMode>clampToGround</altitudeMode>
        <coordinates>-122.087458425655,37.4244022886426,0</coordinates>
      </Point>
    </Placemark>
    <Placemark>
      <Snippet maxLines="0"> </Snippet>
      <description>8
UTC 06-05-2022 19:57:50.00
GpsMilliseconds 1335902288000
37.4244044,-122.0874578, EA(2m)
AltWgs84 -27.4 m, EA(3m)
Hdg 26 deg, Spd 0.1 m/s
EA(44.6 deg, 0.7 m/s)</description>
      <Style>
        <IconStyle>
          <Icon>
            <href>http://maps.google.com/mapfiles/kml/shapes/shaded_dot.png</href>
          </Icon>
          <scale>0.6</scale>
          <color>bf00a0f4</color>
        </IconStyle>
      </Style>
      <Point>
        <altitudeMode>clampToGround</altitudeMode>
        <coordinates>-122.087457792665,37.424404405553,0</coordinates>
      </Point>
    </Placemark>
    <Placemark>
      <Snippet maxLines="0"> </Snippet>
      <description>9
UTC 06-05-2022 19:57:51.00
GpsMilliseconds 1335902289000
37.4244038,-122.0874572, EA(2m)
AltWgs84 -27.6 m, EA(3m)
Hdg 52 deg, Spd 0.0 m/s
EA(44.6 deg, 0.7 m/s)</description>
      <Style>
        <IconStyle>
          <Icon>
            <href>http://maps.google.com/mapfiles/kml/shapes/shaded_dot.png</href>
          </Icon>
          <scale>0.6</scale>
          <color>bf00a0f4</color>
        </IconStyle>
      </Style>
      <Point>
        <altitudeMode>clampToGround</altitudeMode>
        <coordinates>-122.087457215526,37.4244037553869,0</coordinates>
      </Point>
    </Placemark>
    <Placemark>
      <Snippet maxLines="0"> </Snippet>
      <description>10
UTC 06-05-2022 19:57:52.00
GpsMilliseconds 1335902290000
37.4244043,-122.0874556, EA(2m)
AltWgs84 -27.8 m, EA(3m)
Hdg 59 deg, Spd 0.1 m/s
EA(44.9 deg, 0.7 m/s)</description>
      <Style>
        <IconStyle>
          <Icon>
            <href>http://maps.google.com/mapfiles/kml/shapes/shaded_dot.png</href>
          </Icon>
          <scale>0.6</scale>
          <color>bf00a0f4</color>
        </IconStyle>
      </Style>
      <Point>
        <altitudeMode>clampToGround</altitudeMode>
        <coordinates>-122.087455561738,37.4244043208034,0</coordinates>
      </Point>
    </Placemark>
    <Placemark>
      <Snippet maxLines="0"> </Snippet>
      <description>11
UTC 06-05-2022 19:57:53.00
GpsMilliseconds 1335902291000
37.4244050,-122.0874587, EA(2m)
AltWgs84 -27.2 m, EA(3m)
Hdg 334 deg, Spd 0.0 m/s
EA(44.9 deg, 0.7 m/s)</description>
      <Style>
        <IconStyle>
          <Icon>
            <href>http://maps.google.com/mapfiles/kml/shapes/shaded_dot.png</href>
          </Icon>
          <scale>0.6</scale>
          <color>bf00a0f4</color>
        </IconStyle>
      </Style>
      <Point>
        <altitudeMode>clampToGround</altitudeMode>
        <coordinates>-122.087458729959,37.4244049750645,0</coordinates>
      </Point>
    </Placemark>
    <Placemark>
      <Snippet maxLines="0"> </Snippet>
      <description>12
UTC 06-05-2022 19:57:54.00
GpsMilliseconds 1335902292000
37.4244047,-122.0874595, EA(2m)
AltWgs84 -26.9 m, EA(3m)
Hdg 309 deg, Spd 0.0 m/s
EA(44.8 deg, 0.7 m/s)</description>
      <Style>
        <IconStyle>
          <Icon>
            <href>http://maps.google.com/mapfiles/kml/shapes/shaded_dot.png</href>
          </Icon>
          <scale>0.6</scale>
          <color>bf00a0f4</color>
        </IconStyle>
      </Style>
      <Point>
        <altitudeMode>clampToGround</altitudeMode>
        <coordinates>-122.087459478486,37.4244046946842,0</coordinates>
      </Point>
    </Placemark>
    <Placemark>
      <Snippet maxLines="0"> </Snippet>
      <description>13
UTC 06-05-2022 19:57:55.00
GpsMilliseconds 1335902293000
37.4244063,-122.0874594, EA(2m)
AltWgs84 -26.8 m, EA(3m)
Hdg 339 deg, Spd 0.1 m/s
EA(44.7 deg, 0.7 m/s)</description>
      <Style>
        <IconStyle>
          <Icon>
            <href>http://maps.google.com/mapfiles/kml/shapes/shaded_dot.png</href>
          </Icon>
          <scale>0.6</scale>
          <color>bf00a0f4</color>
        </IconStyle>
      </Style>
      <Point>
        <altitudeMode>clampToGround</altitudeMode>
        <coordinates>-122.087459445433,37.4244062894589,0</coordinates>
      </Point>
    </Placemark>
    <Placemark>
      <Snippet maxLines="0"> </Snippet>
      <description>14
UTC 06-05-2022 19:57:56.00
GpsMilliseconds 1335902294000
37.4244055,-122.0874576, EA(2m)
AltWgs84 -26.8 m, EA(3m)
Hdg 36 deg, Spd 0.0 m/s
EA(44.3 deg, 0.7 m/s)</description>
      <Style>
        <IconStyle>
          <Icon>
            <href>http://maps.google.com/mapfiles/kml/shapes/shaded_dot.png</href>
          </Icon>
          <scale>0.6</scale>
          <color>bf00a0f4</color>
        </IconStyle>
      </Style>
      <Point>
        <altitudeMode>clampToGround</altitudeMode>
        <coordinates>-122.087457610796,37.4244055186935,0</coordinates>
      </Point>
    </Placemark>
    <Placemark>
      <Snippet maxLines="0"> </Snippet>
      <description>15
UTC 06-05-2022 19:57:57.00
GpsMilliseconds 1335902295000
37.4244039,-122.0874599, EA(2m)
AltWgs84 -26.8 m, EA(3m)
Hdg 236 deg, Spd 0.0 m/s
EA(44.2 deg, 0.7 m/s)</description>
      <Style>
        <IconStyle>
          <Icon>
            <href>http://maps.google.com/mapfiles/kml/shapes/shaded_dot.png</href>
          </Icon>
          <scale>0.6</scale>
          <color>bf00a0f4</color>
        </IconStyle>
      </Style>
      <Point>
        <altitudeMode>clampToGround</altitudeMode>
        <coordinates>-122.087459875756,37.4244038822826,0</coordinates>
      </Point>
    </Placemark>
    <Placemark>
      <Snippet maxLines="0"> </Snippet>
      <description>16
UTC 06-05-2022 19:57:58.00
GpsMilliseconds 1335902296000
37.4244052,-122.0874610, EA(2m)
AltWgs84 -26.6 m, EA(3m)
Hdg 286 deg, Spd 0.0 m/s
EA(44.2 deg, 0.7 m/s)</description>
      <Style>
        <IconStyle>
          <Icon>
            <href>http://maps.google.com/mapfiles/kml/shapes/shaded_dot.png</href>
          </Icon>
          <scale>0.6</scale>
          <color>bf00a0f4</color>
        </IconStyle>
      </Style>
      <Point>
        <altitudeMode>clampToGround</altitudeMode>
        <coordinates>-122.087460972569,37.4244051563934,0</coordinates>
      </Point>
    </Placemark>
    <Placemark>
      <Snippet maxLines="0"> </Snippet>
      <description>17
UTC 06-05-2022 19:57:59.00
GpsMilliseconds 1335902297000
37.4244027,-122.0874624, EA(2m)
AltWgs84 -26.6 m, EA(3m)
Hdg 231 deg, Spd 0.1 m/s
EA(44.3 deg, 0.7 m/s)</description>
      <Style>
        <IconStyle>
          <Icon>
            <href>http://maps.google.com/mapfiles/kml/shapes/shaded_dot.png</href>
          </Icon>
          <scale>0.6</scale>
          <color>bf00a0f4</color>
        </IconStyle>
      </Style>
      <Point>
        <altitudeMode>clampToGround</altitudeMode>
        <coordinates>-122.087462404628,37.4244027274568,0</coordinates>
      </Point>
    </Placemark>
    <Placemark>
      <Snippet maxLines="0"> </Snippet>
      <description>18
UTC 06-05-2022 19:58:00.00
GpsMilliseconds 1335902298000
37.4244016,-122.0874641, EA(2m)
AltWgs84 -26.3 m, EA(3m)
Hdg 231 deg, Spd 0.1 m/s
EA(44.6 deg, 0.7 m/s)</description>
      <Style>
        <IconStyle>
          <Icon>
            <href>http://maps.google.com/mapfiles/kml/shapes/shaded_dot.png</href>
          </Icon>
          <scale>0.6</scale>
          <color>bf00a0f4</color>
        </IconStyle>
      </Style>
      <Point>
        <altitudeMode>clampToGround</altitudeMode>
        <coordinates>-122.087464053103,37.4244015944192,0</coordinates>
      </Point>
    </Placemark>
    <Placemark>
      <Snippet maxLines="0"> </Snippet>
      <description>19
UTC 06-05-2022 19:58:01.00
GpsMilliseconds 1335902299000
37.4244008,-122.0874637, EA(2m)
AltWgs84 -26.1 m, EA(2m)
Hdg 218 deg, Spd 0.1 m/s
EA(44.8 deg, 0.7 m/s)</description>
      <Style>
        <IconStyle>
          <Icon>
            <href>http://maps.google.com/mapfiles/kml/shapes/shaded_dot.png</href>
          </Icon>
          <scale>0.6</scale>
          <color>bf00a0f4</color>
        </IconStyle>
      </Style>
      <Point>
        <altitudeMode>clampToGround</altitudeMode>
        <coordinates>-122.087463746606,37.4244008360017,0</coordinates>
      </Point>
    </Placemark>
    <Placemark>
      <Snippet maxLines="0"> </Snippet>
      <description>20
UTC 06-05-2022 19:58:02.00
GpsMilliseconds 1335902300000
37.4244021,-122.0874624, EA(2m)
AltWgs84 -26.1 m, EA(2m)
Hdg 218 deg, Spd 0.0 m/s
EA(44.6 deg, 0.7 m/s)</description>
      <Style>
        <IconStyle>
          <Icon>
            <href>http://maps.google.com/mapfiles/kml/shapes/shaded_dot.png</href>
          </Icon>
          <scale>0.6</scale>
          <color>bf00a0f4</color>
        </IconStyle>
      </Style>
      <Point>
        <altitudeMode>clampToGround</altitudeMode>
        <coordinates>-122.087462431533,37.4244021467053,0</coordinates>
      </Point>
    </Placemark>
    <Placemark>
      <Snippet maxLines="0"> </Snippet>
      <description>21
UTC 06-05-2022 19:58:03.00
GpsMilliseconds 1335902301000
37.4244044,-122.0874590, EA(2m)
AltWgs84 -26.0 m, EA(2m)
Hdg 54 deg, Spd 0.1 m/s
EA(44.5 deg, 0.7 m/s)</description>
      <Style>
        <IconStyle>
          <Icon>
            <href>http://maps.google.com/mapfiles/kml/shapes/shaded_dot.png</href>
          </Icon>
          <scale>0.6</scale>
          <color>bf00a0f4</color>
        </IconStyle>
      </Style>
      <Point>
        <altitudeMode>clampToGround</altitudeMode>
        <coordinates>-122.087458953457,37.4244044446576,0</coordinates>
      </Point>
    </Placemark>
    <Placemark>
      <Snippet maxLines="0"> </Snippet>
      <description>22
UTC 06-05-2022 19:58:04.00
GpsMilliseconds 1335902302000
37.4244027,-122.0874563, EA(2m)
AltWgs84 -26.0 m, EA(2m)
Hdg 96 deg, Spd 0.1 m/s
EA(44.8 deg, 0.7 m/s)</description>
      <Style>
        <IconStyle>
          <Icon>
            <href>http://maps.google.com/mapfiles/kml/shapes/shaded_dot.png</href>
          </Icon>
          <scale>0.6</scale>
          <color>bf00a0f4</color>
        </IconStyle>
      </Style>
      <Point>
        <altitudeMode>clampToGround</altitudeMode>
        <coordinates>-122.087456253401,37.4244027219107,0</coordinates>
      </Point>
    </Placemark>
    <Placemark>
      <Snippet maxLines="0"> </Snippet>
      <description>23
UTC 06-05-2022 19:58:05.00
GpsMilliseconds 1335902303000
37.4244026,-122.0874553, EA(2m)
AltWgs84 -26.2 m, EA(2m)
Hdg 96 deg, Spd 0.1 m/s
EA(44.7 deg, 0.7 m/s)</description>
      <Style>
        <IconStyle>
          <Icon>
            <href>http://maps.google.com/mapfiles/kml/shapes/shaded_dot.png</href>
          </Icon>
          <scale>0.6</scale>
          <color>bf00a0f4</color>
        </IconStyle>
      </Style>
      <Point>
        <altitudeMode>clampToGround</altitudeMode>
        <coordinates>-122.087455268549,37.4244026364336,0</coordinates>
      </Point>
    </Placemark>
    <Placemark>
      <Snippet maxLines="0"> </Snippet>
      <description>24
UTC 06-05-2022 19:58:06.00
GpsMilliseconds 1335902304000
37.4244023,-122.0874556, EA(2m)
AltWgs84 -26.0 m, EA(2m)
Hdg 103 deg, Spd 0.1 m/s
EA(44.4 deg, 0.7 m/s)</description>
      <Style>
        <IconStyle>
          <Icon>
            <href>http://maps.google.com/mapfiles/kml/shapes/shaded_dot.png</href>
          </Icon>
          <scale>0.6</scale>
          <color>bf00a0f4</color>
        </IconStyle>
      </Style>
      <Point>
        <altitudeMode>clampToGround</altitudeMode>
        <coordinates>-122.087455582548,37.4244023379543,0</coordinates>
      </Point>
    </Placemark>
    <Placemark>
      <Snippet maxLines="0"> </Snippet>
      <description>25
UTC 06-05-2022 19:58:07.00
GpsMilliseconds 1335902305000
37.4244025,-122.0874552, EA(2m)
AltWgs84 -26.3 m, EA(2m)
Hdg 96 deg, Spd 0.1 m/s
EA(44.3 deg, 0.7 m/s)</description>
      <Style>
        <IconStyle>
          <Icon>
            <href>http://maps.google.com/mapfiles/kml/shapes/shaded_dot.png</href>
          </Icon>
          <scale>0.6</scale>
          <color>bf00a0f4</color>
        </IconStyle>
      </Style>
      <Point>
        <altitudeMode>clampToGround</altitudeMode>
        <coordinates>-122.08745516764,37.4244025330077,0</coordinates>
      </Point>
    </Placemark>
    <Placemark>
      <Snippet maxLines="0"> </Snippet>
      <description>26
UTC 06-05-2022 19:58:08.00
GpsMilliseconds 1335902306000
37.4244037,-122.0874542, EA(2m)
AltWgs84 -26.5 m, EA(2m)
Hdg 69 deg, Spd 0.1 m/s
EA(44.9 deg, 0.7 m/s)</description>
      <Style>
        <IconStyle>
          <Icon>
            <href>http://maps.google.com/mapfiles/kml/shapes/shaded_dot.png</href>
          </Icon>
          <scale>0.6</scale>
          <color>bf00a0f4</color>
        </IconStyle>
      </Style>
      <Point>
        <altitudeMode>clampToGround</altitudeMode>
        <coordinates>-122.087454198362,37.4244036912131,0</coordinates>
      </Point>
    </Placemark>
    <Placemark>
      <Snippet maxLines="0"> </Snippet>
      <description>27
UTC 06-05-2022 19:58:09.00
GpsMilliseconds 1335902307000
37.4244029,-122.0874569, EA(2m)
AltWgs84 -26.5 m, EA(2m)
Hdg 262 deg, Spd 0.0 m/s
EA(45.3 deg, 0.7 m/s)</description>
      <Style>
        <IconStyle>
          <Icon>
            <href>http://maps.google.com/mapfiles/kml/shapes/shaded_dot.png</href>
          </Icon>
          <scale>0.6</scale>
          <color>bf00a0f4</color>
        </IconStyle>
      </Style>
      <Point>
        <altitudeMode>clampToGround</altitudeMode>
        <coordinates>-122.087456935476,37.4244029405549,0</coordinates>
      </Point>
    </Placemark>
    <Placemark>
      <Snippet maxLines="0"> </Snippet>
      <description>28
UTC 06-05-2022 19:58:10.00
GpsMilliseconds 1335902308000
37.4244008,-122.0874559, EA(2m)
AltWgs84 -26.6 m, EA(2m)
Hdg 164 deg, Spd 0.1 m/s
EA(45.6 deg, 0.7 m/s)</description>
      <Style>
        <IconStyle>
          <Icon>
            <href>http://maps.google.com/mapfiles/kml/shapes/shaded_dot.png</href>
          </Icon>
          <scale>0.6</scale>
          <color>bf00a0f4</color>
        </IconStyle>
      </Style>
      <Point>
        <altitudeMode>clampToGround</altitudeMode>
        <coordinates>-122.087455877336,37.4244007682807,0</coordinates>
      </Point>
    </Placemark>
    <Placemark>
      <Snippet maxLines="0"> </Snippet>
      <description>29
UTC 06-05-2022 19:58:11.00
GpsMilliseconds 1335902309000
37.4243983,-122.0874565, EA(2m)
AltWgs84 -26.6 m, EA(2m)
Hdg 179 deg, Spd 0.1 m/s
EA(45.2 deg, 0.7 m/s)</description>
      <Style>
        <IconStyle>
          <Icon>
            <href>http://maps.google.com/mapfiles/kml/shapes/shaded_dot.png</href>
          </Icon>
          <scale>0.6</scale>
          <color>bf00a0f4</color>
        </IconStyle>
      </Style>
      <Point>
        <altitudeMode>clampToGround</altitudeMode>
        <coordinates>-122.087456453678,37.424398312968,0</coordinates>
      </Point>
    </Placemark>
    <Placemark>
      <Snippet maxLines="0"> </Snippet>
      <description>30
UTC 06-05-2022 19:58:12.00
GpsMilliseconds 1335902310000
37.4244005,-122.0874576, EA(2m)
AltWgs84 -26.7 m, EA(2m)
Hdg 222 deg, Spd 0.0 m/s
EA(45.1 deg, 0.7 m/s)</description>
      <Style>
        <IconStyle>
          <Icon>
            <href>http://maps.google.com/mapfiles/kml/shapes/shaded_dot.png</href>
          </Icon>
          <scale>0.6</scale>
          <color>bf00a0f4</color>
        </IconStyle>
      </Style>
      <Point>
        <altitudeMode>clampToGround</altitudeMode>
        <coordinates>-122.087457642876,37.4244005118335,0</coordinates>
      </Point>
    </Placemark>
    <Placemark>
      <Snippet maxLines="0"> </Snippet>
      <description>31
UTC 06-05-2022 19:58:13.00
GpsMilliseconds 1335902311000
37.4244000,-122.0874565, EA(2m)
AltWgs84 -26.8 m, EA(2m)
Hdg 172 deg, Spd 0.0 m/s
EA(45.0 deg, 0.7 m/s)</description>
      <Style>
        <IconStyle>
          <Icon>
            <href>http://maps.google.com/mapfiles/kml/shapes/shaded_dot.png</href>
          </Icon>
          <scale>0.6</scale>
          <color>bf00a0f4</color>
        </IconStyle>
      </Style>
      <Point>
        <altitudeMode>clampToGround</altitudeMode>
        <coordinates>-122.087456538483,37.4243999627792,0</coordinates>
      </Point>
    </Placemark>
    <Placemark>
      <Snippet maxLines="0"> </Snippet>
      <description>32
UTC 06-05-2022 19:58:14.00
GpsMilliseconds 1335902312000
37.4243992,-122.0874571, EA(2m)
AltWgs84 -26.8 m, EA(2m)
Hdg 188 deg, Spd 0.0 m/s
EA(44.6 deg, 0.7 m/s)</description>
      <Style>
        <IconStyle>
          <Icon>
            <href>http://maps.google.com/mapfiles/kml/shapes/shaded_dot.png</href>
          </Icon>
          <scale>0.6</scale>
          <color>bf00a0f4</color>
        </IconStyle>
      </Style>
      <Point>
        <altitudeMode>clampToGround</altitudeMode>
        <coordinates>-122.087457084473,37.4243991981448,0</coordinates>
      </Point>
    </Placemark>
    <Placemark>
      <Snippet maxLines="0"> </Snippet>
      <description>33
UTC 06-05-2022 19:58:15.00
GpsMilliseconds 1335902313000
37.4243994,-122.0874562, EA(2m)
AltWgs84 -26.8 m, EA(2m)
Hdg 157 deg, Spd 0.0 m/s
EA(44.6 deg, 0.7 m/s)</description>
      <Style>
        <IconStyle>
          <Icon>
            <href>http://maps.google.com/mapfiles/kml/shapes/shaded_dot.png</href>
          </Icon>
          <scale>0.6</scale>
          <color>bf00a0f4</color>
        </IconStyle>
      </Style>
      <Point>
        <altitudeMode>clampToGround</altitudeMode>
        <coordinates>-122.087456228358,37.424399351804,0</coordinates>
      </Point>
    </Placemark>
    <Placemark>
      <Snippet maxLines="0"> </Snippet>
      <description>34
UTC 06-05-2022 19:58:16.00
GpsMilliseconds 1335902314000
37.4244005,-122.0874568, EA(2m)
AltWgs84 -27.0 m, EA(2m)
Hdg 344 deg, Spd 0.0 m/s
EA(44.4 deg, 0.7 m/s)</description>
      <Style>
        <IconStyle>
          <Icon>
            <href>http://maps.google.com/mapfiles/kml/shapes/shaded_dot.png</href>
          </Icon>
          <scale>0.6</scale>
          <color>bf00a0f4</color>
        </IconStyle>
      </Style>
      <Point>
        <altitudeMode>clampToGround</altitudeMode>
        <coordinates>-122.087456793438,37.4244004965148,0</coordinates>
      </Point>
    </Placemark>
    <Placemark>
      <Snippet maxLines="0"> </Snippet>
      <description>35
UTC 06-05-2022 19:58:17.00
GpsMilliseconds 1335902315000
37.4244024,-122.0874568, EA(2m)
AltWgs84 -26.7 m, EA(2m)
Hdg 358 deg, Spd 0.1 m/s
EA(44.5 deg, 0.7 m/s)</description>
      <Style>
        <IconStyle>
          <Icon>
            <href>http://maps.google.com/mapfiles/kml/shapes/shaded_dot.png</href>
          </Icon>
          <scale>0.6</scale>
          <color>bf00a0f4</color>
        </IconStyle>
      </Style>
      <Point>
        <altitudeMode>clampToGround</altitudeMode>
        <coordinates>-122.087456755639,37.4244023941179,0</coordinates>
      </Point>
    </Placemark>
    <Placemark>
      <Snippet maxLines="0"> </Snippet>
      <description>36
UTC 06-05-2022 19:58:18.00
GpsMilliseconds 1335902316000
37.4244032,-122.0874563, EA(2m)
AltWgs84 -26.7 m, EA(2m)
Hdg 7 deg, Spd 0.1 m/s
EA(44.6 deg, 0.7 m/s)</description>
      <Style>
        <IconStyle>
          <Icon>
            <href>http://maps.google.com/mapfiles/kml/shapes/shaded_dot.png</href>
          </Icon>
          <scale>0.6</scale>
          <color>bf00a0f4</color>
        </IconStyle>
      </Style>
      <Point>
        <altitudeMode>clampToGround</altitudeMode>
        <coordinates>-122.087456326528,37.4244031709918,0</coordinates>
      </Point>
    </Placemark>
    <Placemark>
      <Snippet maxLines="0"> </Snippet>
      <description>37
UTC 06-05-2022 19:58:19.00
GpsMilliseconds 1335902317000
37.4244043,-122.0874554, EA(2m)
AltWgs84 -26.6 m, EA(2m)
Hdg 17 deg, Spd 0.1 m/s
EA(44.6 deg, 0.7 m/s)</description>
      <Style>
        <IconStyle>
          <Icon>
            <href>http://maps.google.com/mapfiles/kml/shapes/shaded_dot.png</href>
          </Icon>
          <scale>0.6</scale>
          <color>bf00a0f4</color>
        </IconStyle>
      </Style>
      <Point>
        <altitudeMode>clampToGround</altitudeMode>
        <coordinates>-122.087455433375,37.424404309228,0</coordinates>
      </Point>
    </Placemark>
    <Placemark>
      <Snippet maxLines="0"> </Snippet>
      <description>38
UTC 06-05-2022 19:58:20.00
GpsMilliseconds 1335902318000
37.4244039,-122.0874558, EA(2m)
AltWgs84 -26.6 m, EA(2m)
Hdg 12 deg, Spd 0.0 m/s
EA(44.4 deg, 0.7 m/s)</description>
      <Style>
        <IconStyle>
          <Icon>
            <href>http://maps.google.com/mapfiles/kml/shapes/shaded_dot.png</href>
          </Icon>
          <scale>0.6</scale>
          <color>bf00a0f4</color>
        </IconStyle>
      </Style>
      <Point>
        <altitudeMode>clampToGround</altitudeMode>
        <coordinates>-122.087455824955,37.4244038547375,0</coordinates>
      </Point>
    </Placemark>
    <Placemark>
      <Snippet maxLines="0"> </Snippet>
      <description>39
UTC 06-05-2022 19:58:21.00
GpsMilliseconds 1335902319000
37.4244005,-122.0874565, EA(2m)
AltWgs84 -26.6 m, EA(2m)
Hdg 187 deg, Spd 0.1 m/s
EA(44.3 deg, 0.7 m/s)</description>
      <Style>
        <IconStyle>
          <Icon>
            <href>http://maps.google.com/mapfiles/kml/shapes/shaded_dot.png</href>
          </Icon>
          <scale>0.6</scale>
          <color>bf00a0f4</color>
        </IconStyle>
      </Style>
      <Point>
        <altitudeMode>clampToGround</altitudeMode>
        <coordinates>-122.087456483779,37.4244004744368,0</coordinates>
      </Point>
    </Placemark>
    <Placemark>
      <Snippet maxLines="0"> </Snippet>
      <description>40
UTC 06-05-2022 19:58:22.00
GpsMilliseconds 1335902320000
37.4244003,-122.0874559, EA(2m)
AltWgs84 -26.5 m, EA(2m)
Hdg 172 deg, Spd 0.0 m/s
EA(44.3 deg, 0.7 m/s)</description>
      <Style>
        <IconStyle>
          <Icon>
            <href>http://maps.google.com/mapfiles/kml/shapes/shaded_dot.png</href>
          </Icon>
          <scale>0.6</scale>
          <color>bf00a0f4</color>
        </IconStyle>
      </Style>
      <Point>
        <altitudeMode>clampToGround</altitudeMode>
        <coordinates>-122.087455911614,37.4244003354011,0</coordinates>
      </Point>
    </Placemark>
    <Placemark>
      <Snippet maxLines="0"> </Snippet>
      <description>41
UTC 06-05-2022 19:58:23.00
GpsMilliseconds 1335902321000
37.4243995,-122.0874540, EA(2m)
AltWgs84 -26.7 m, EA(2m)
Hdg 143 deg, Spd 0.1 m/s
EA(44.5 deg, 0.7 m/s)</description>
      <Style>
        <IconStyle>
          <Icon>
            <href>http://maps.google.com/mapfiles/kml/shapes/shaded_dot.png</href>
          </Icon>
          <scale>0.6</scale>
          <color>bf00a0f4</color>
        </IconStyle>
      </Style>
      <Point>
        <altitudeMode>clampToGround</altitudeMode>
        <coordinates>-122.087454029124,37.4243994713584,0</coordinates>
      </Point>
    </Placemark>
    <Placemark>
      <Snippet maxLines="0"> </Snippet>
      <description>42
UTC 06-05-2022 19:58:24.00
GpsMilliseconds 1335902322000
37.4243988,-122.0874540, EA(2m)
AltWgs84 -26.7 m, EA(2m)
Hdg 151 deg, Spd 0.1 m/s
EA(44.4 deg, 0.7 m/s)</description>
      <Style>
        <IconStyle>
          <Icon>
            <href>http://maps.google.com/mapfiles/kml/shapes/shaded_dot.png</href>
          </Icon>
          <scale>0.6</scale>
          <color>bf00a0f4</color>
        </IconStyle>
      </Style>
      <Point>
        <altitudeMode>clampToGround</altitudeMode>
        <coordinates>-122.087453987375,37.4243987792859,0</coordinates>
      </Point>
    </Placemark>
    <Placemark>
      <Snippet maxLines="0"> </Snippet>
      <description>43
UTC 06-05-2022 19:58:25.00
GpsMilliseconds 1335902323000
37.4243975,-122.0874553, EA(2m)
AltWgs84 -26.7 m, EA(2m)
Hdg 183 deg, Spd 0.1 m/s
EA(44.2 deg, 0.7 m/s)</description>
      <Style>
        <IconStyle>
          <Icon>
            <href>http://maps.google.com/mapfiles/kml/shapes/shaded_dot.png</href>
          </Icon>
          <scale>0.6</scale>
          <color>bf00a0f4</color>
        </IconStyle>
      </Style>
      <Point>
        <altitudeMode>clampToGround</altitudeMode>
        <coordinates>-122.087455321653,37.4243974520606,0</coordinates>
      </Point>
    </Placemark>
    <Placemark>
      <Snippet maxLines="0"> </Snippet>
      <description>44
UTC 06-05-2022 19:58:26.00
GpsMilliseconds 1335902324000
37.4243967,-122.0874554, EA(2m)
AltWgs84 -26.8 m, EA(2m)
Hdg 182 deg, Spd 0.1 m/s
EA(44.3 deg, 0.7 m/s)</description>
      <Style>
        <IconStyle>
          <Icon>
            <href>http://maps.google.com/mapfiles/kml/shapes/shaded_dot.png</href>
          </Icon>
          <scale>0.6</scale>
          <color>bf00a0f4</color>
        </IconStyle>
      </Style>
      <Point>
        <altitudeMode>clampToGround</altitudeMode>
        <coordinates>-122.087455362481,37.4243967169562,0</coordinates>
      </Point>
    </Placemark>
    <Placemark>
      <Snippet maxLines="0"> </Snippet>
      <description>45
UTC 06-05-2022 19:58:27.00
GpsMilliseconds 1335902325000
37.4243979,-122.0874563, EA(2m)
AltWgs84 -26.7 m, EA(2m)
Hdg 221 deg, Spd 0.0 m/s
EA(44.3 deg, 0.7 m/s)</description>
      <Style>
        <IconStyle>
          <Icon>
            <href>http://maps.google.com/mapfiles/kml/shapes/shaded_dot.png</href>
          </Icon>
          <scale>0.6</scale>
          <color>bf00a0f4</color>
        </IconStyle>
      </Style>
      <Point>
        <altitudeMode>clampToGround</altitudeMode>
        <coordinates>-122.087456279497,37.4243979436747,0</coordinates>
      </Point>
    </Placemark>
    <Placemark>
      <Snippet maxLines="0"> </Snippet>
      <description>46
UTC 06-05-2022 19:58:28.00
GpsMilliseconds 1335902326000
37.4244005,-122.0874557, EA(2m)
AltWgs84 -26.6 m, EA(2m)
Hdg 353 deg, Spd 0.0 m/s
EA(44.3 deg, 0.7 m/s)</description>
      <Style>
        <IconStyle>
          <Icon>
            <href>http://maps.google.com/mapfiles/kml/shapes/shaded_dot.png</href>
          </Icon>
          <scale>0.6</scale>
          <color>bf00a0f4</color>
        </IconStyle>
      </Style>
      <Point>
        <altitudeMode>clampToGround</altitudeMode>
        <coordinates>-122.087455735803,37.4244004791577,0</coordinates>
      </Point>
    </Placemark>
    <Placemark>
      <Snippet maxLines="0"> </Snippet>
      <description>47
UTC 06-05-2022 19:58:29.00
GpsMilliseconds 1335902327000
37.4244020,-122.0874556, EA(2m)
AltWgs84 -26.5 m, EA(2m)
Hdg 359 deg, Spd 0.1 m/s
EA(44.5 deg, 0.7 m/s)</description>
      <Style>
        <IconStyle>
          <Icon>
            <href>http://maps.google.com/mapfiles/kml/shapes/shaded_dot.png</href>
          </Icon>
          <scale>0.6</scale>
          <color>bf00a0f4</color>
        </IconStyle>
      </Style>
      <Point>
        <altitudeMode>clampToGround</altitudeMode>
        <coordinates>-122.087455608104,37.4244019619864,0</coordinates>
      </Point>
    </Placemark>
    <Placemark>
      <Snippet maxLines="0"> </Snippet>
      <description>48
UTC 06-05-2022 19:58:30.00
GpsMilliseconds 1335902328000
37.4244036,-122.0874549, EA(2m)
AltWgs84 -26.4 m, EA(2m)
Hdg 7 deg, Spd 0.1 m/s
EA(44.6 deg, 0.7 m/s)</description>
      <Style>
        <IconStyle>
          <Icon>
            <href>http://maps.google.com/mapfiles/kml/shapes/shaded_dot.png</href>
          </Icon>
          <scale>0.6</scale>
          <color>bf00a0f4</color>
        </IconStyle>
      </Style>
      <Point>
        <altitudeMode>clampToGround</altitudeMode>
        <coordinates>-122.087454887514,37.4244036336824,0</coordinates>
      </Point>
    </Placemark>
    <Placemark>
      <Snippet maxLines="0"> </Snippet>
      <description>49
UTC 06-05-2022 19:58:31.00
GpsMilliseconds 1335902329000
37.4244040,-122.0874553, EA(2m)
AltWgs84 -26.4 m, EA(2m)
Hdg 359 deg, Spd 0.1 m/s
EA(44.6 deg, 0.7 m/s)</description>
      <Style>
        <IconStyle>
          <Icon>
            <href>http://maps.google.com/mapfiles/kml/shapes/shaded_dot.png</href>
          </Icon>
          <scale>0.6</scale>
          <color>bf00a0f4</color>
        </IconStyle>
      </Style>
      <Point>
        <altitudeMode>clampToGround</altitudeMode>
        <coordinates>-122.087455297624,37.4244040449606,0</coordinates>
      </Point>
    </Placemark>
    <Placemark>
      <Snippet maxLines="0"> </Snippet>
      <description>50
UTC 06-05-2022 19:58:32.00
GpsMilliseconds 1335902330000
37.4244031,-122.0874577, EA(2m)
AltWgs84 -26.3 m, EA(2m)
Hdg 310 deg, Spd 0.1 m/s
EA(44.0 deg, 0.7 m/s)</description>
      <Style>
        <IconStyle>
          <Icon>
            <href>http://maps.google.com/mapfiles/kml/shapes/shaded_dot.png</href>
          </Icon>
          <scale>0.6</scale>
          <color>bf00a0f4</color>
        </IconStyle>
      </Style>
      <Point>
        <altitudeMode>clampToGround</altitudeMode>
        <coordinates>-122.087457655199,37.4244031096781,0</coordinates>
      </Point>
    </Placemark>
    <Placemark>
      <Snippet maxLines="0"> </Snippet>
      <description>51
UTC 06-05-2022 19:58:33.00
GpsMilliseconds 1335902331000
37.4244026,-122.0874604, EA(2m)
AltWgs84 -26.2 m, EA(2m)
Hdg 281 deg, Spd 0.1 m/s
EA(44.3 deg, 0.7 m/s)</description>
      <Style>
        <IconStyle>
          <Icon>
            <href>http://maps.google.com/mapfiles/kml/shapes/shaded_dot.png</href>
          </Icon>
          <scale>0.6</scale>
          <color>bf00a0f4</color>
        </IconStyle>
      </Style>
      <Point>
        <altitudeMode>clampToGround</altitudeMode>
        <coordinates>-122.087460410497,37.4244026229306,0</coordinates>
      </Point>
    </Placemark>
    <Placemark>
      <Snippet maxLines="0"> </Snippet>
      <description>52
UTC 06-05-2022 19:58:34.00
GpsMilliseconds 1335902332000
37.4244008,-122.0874626, EA(2m)
AltWgs84 -26.1 m, EA(2m)
Hdg 253 deg, Spd 0.1 m/s
EA(44.5 deg, 0.7 m/s)</description>
      <Style>
        <IconStyle>
          <Icon>
            <href>http://maps.google.com/mapfiles/kml/shapes/shaded_dot.png</href>
          </Icon>
          <scale>0.6</scale>
          <color>bf00a0f4</color>
        </IconStyle>
      </Style>
      <Point>
        <altitudeMode>clampToGround</altitudeMode>
        <coordinates>-122.087462648028,37.4244008159989,0</coordinates>
      </Point>
    </Placemark>
    <Placemark>
      <Snippet maxLines="0"> </Snippet>
      <description>53
UTC 06-05-2022 19:58:35.00
GpsMilliseconds 1335902333000
37.4244038,-122.0874647, EA(2m)
AltWgs84 -25.9 m, EA(2m)
Hdg 292 deg, Spd 0.1 m/s
EA(44.4 deg, 0.7 m/s)</description>
      <Style>
        <IconStyle>
          <Icon>
            <href>http://maps.google.com/mapfiles/kml/shapes/shaded_dot.png</href>
          </Icon>
          <scale>0.6</scale>
          <color>bf00a0f4</color>
        </IconStyle>
      </Style>
      <Point>
        <altitudeMode>clampToGround</altitudeMode>
        <coordinates>-122.087464704836,37.4244037660374,0</coordinates>
      </Point>
    </Placemark>
    <Placemark>
      <Snippet maxLines="0"> </Snippet>
      <description>54
UTC 06-05-2022 19:58:36.00
GpsMilliseconds 1335902334000
37.4244029,-122.0874635, EA(2m)
AltWgs84 -25.9 m, EA(2m)
Hdg 284 deg, Spd 0.1 m/s
EA(44.5 deg, 0.7 m/s)</description>
      <Style>
        <IconStyle>
          <Icon>
            <href>http://maps.google.com/mapfiles/kml/shapes/shaded_dot.png</href>
          </Icon>
          <scale>0.6</scale>
          <color>bf00a0f4</color>
        </IconStyle>
      </Style>
      <Point>
        <altitudeMode>clampToGround</altitudeMode>
        <coordinates>-122.087463456688,37.424402945238,0</coordinates>
      </Point>
    </Placemark>
    <Placemark>
      <Snippet maxLines="0"> </Snippet>
      <description>55
UTC 06-05-2022 19:58:37.00
GpsMilliseconds 1335902335000
37.4244018,-122.0874661, EA(2m)
AltWgs84 -25.8 m, EA(2m)
Hdg 262 deg, Spd 0.1 m/s
EA(44.8 deg, 0.7 m/s)</description>
      <Style>
        <IconStyle>
          <Icon>
            <href>http://maps.google.com/mapfiles/kml/shapes/shaded_dot.png</href>
          </Icon>
          <scale>0.6</scale>
          <color>bf00a0f4</color>
        </IconStyle>
      </Style>
      <Point>
        <altitudeMode>clampToGround</altitudeMode>
        <coordinates>-122.08746611335,37.4244018107066,0</coordinates>
      </Point>
    </Placemark>
    <Placemark>
      <Snippet maxLines="0"> </Snippet>
      <description>56
UTC 06-05-2022 19:58:38.00
GpsMilliseconds 1335902336000
37.4244032,-122.0874687, EA(2m)
AltWgs84 -25.6 m, EA(2m)
Hdg 281 deg, Spd 0.1 m/s
EA(44.6 deg, 0.7 m/s)</description>
      <Style>
        <IconStyle>
          <Icon>
            <href>http://maps.google.com/mapfiles/kml/shapes/shaded_dot.png</href>
          </Icon>
          <scale>0.6</scale>
          <color>bf00a0f4</color>
        </IconStyle>
      </Style>
      <Point>
        <altitudeMode>clampToGround</altitudeMode>
        <coordinates>-122.087468712735,37.4244032293593,0</coordinates>
      </Point>
    </Placemark>
    <Placemark>
      <Snippet maxLines="0"> </Snippet>
      <description>57
UTC 06-05-2022 19:58:39.00
GpsMilliseconds 1335902337000
37.4244059,-122.0874657, EA(2m)
AltWgs84 -25.5 m, EA(2m)
Hdg 333 deg, Spd 0.1 m/s
EA(44.5 deg, 0.7 m/s)</description>
      <Style>
        <IconStyle>
          <Icon>
            <href>http://maps.google.com/mapfiles/kml/shapes/shaded_dot.png</href>
          </Icon>
          <scale>0.6</scale>
          <color>bf00a0f4</color>
        </IconStyle>
      </Style>
      <Point>
        <altitudeMode>clampToGround</altitudeMode>
        <coordinates>-122.087465746703,37.4244058540306,0</coordinates>
      </Point>
    </Placemark>
    <Placemark>
      <Snippet maxLines="0"> </Snippet>
      <description>58
UTC 06-05-2022 19:58:40.00
GpsMilliseconds 1335902338000
37.4244042,-122.0874660, EA(2m)
AltWgs84 -25.5 m, EA(2m)
Hdg 302 deg, Spd 0.0 m/s
EA(44.3 deg, 0.7 m/s)</description>
      <Style>
        <IconStyle>
          <Icon>
            <href>http://maps.google.com/mapfiles/kml/shapes/shaded_dot.png</href>
          </Icon>
          <scale>0.6</scale>
          <color>bf00a0f4</color>
        </IconStyle>
      </Style>
      <Point>
        <altitudeMode>clampToGround</altitudeMode>
        <coordinates>-122.0874659816,37.424404224345,0</coordinates>
      </Point>
    </Placemark>
    <Placemark>
      <Snippet maxLines="0"> </Snippet>
      <description>59
UTC 06-05-2022 19:58:41.00
GpsMilliseconds 1335902339000
37.4244036,-122.0874643, EA(2m)
AltWgs84 -25.4 m, EA(2m)
Hdg 86 deg, Spd 0.0 m/s
EA(44.3 deg, 0.7 m/s)</description>
      <Style>
        <IconStyle>
          <Icon>
            <href>http://maps.google.com/mapfiles/kml/shapes/shaded_dot.png</href>
          </Icon>
          <scale>0.6</scale>
          <color>bf00a0f4</color>
        </IconStyle>
      </Style>
      <Point>
        <altitudeMode>clampToGround</altitudeMode>
        <coordinates>-122.087464297749,37.4244035937655,0</coordinates>
      </Point>
    </Placemark>
    <Placemark>
      <Snippet maxLines="0"> </Snippet>
      <description>60
UTC 06-05-2022 19:58:42.00
GpsMilliseconds 1335902340000
37.4244037,-122.0874643, EA(2m)
AltWgs84 -25.3 m, EA(2m)
Hdg 62 deg, Spd 0.0 m/s
EA(44.3 deg, 0.7 m/s)</description>
      <Style>
        <IconStyle>
          <Icon>
            <href>http://maps.google.com/mapfiles/kml/shapes/shaded_dot.png</href>
          </Icon>
          <scale>0.6</scale>
          <color>bf00a0f4</color>
        </IconStyle>
      </Style>
      <Point>
        <altitudeMode>clampToGround</altitudeMode>
        <coordinates>-122.087464277184,37.42440371852,0</coordinates>
      </Point>
    </Placemark>
    <Placemark>
      <Snippet maxLines="0"> </Snippet>
      <description>61
UTC 06-05-2022 19:58:43.00
GpsMilliseconds 1335902341000
37.4244028,-122.0874647, EA(2m)
AltWgs84 -25.3 m, EA(2m)
Hdg 191 deg, Spd 0.0 m/s
EA(44.3 deg, 0.7 m/s)</description>
      <Style>
        <IconStyle>
          <Icon>
            <href>http://maps.google.com/mapfiles/kml/shapes/shaded_dot.png</href>
          </Icon>
          <scale>0.6</scale>
          <color>bf00a0f4</color>
        </IconStyle>
      </Style>
      <Point>
        <altitudeMode>clampToGround</altitudeMode>
        <coordinates>-122.0874646841,37.424402783957,0</coordinates>
      </Point>
    </Placemark>
    <Placemark>
      <Snippet maxLines="0"> </Snippet>
      <description>62
UTC 06-05-2022 19:58:44.00
GpsMilliseconds 1335902342000
37.4244039,-122.0874637, EA(2m)
AltWgs84 -25.2 m, EA(2m)
Hdg 56 deg, Spd 0.0 m/s
EA(44.4 deg, 0.7 m/s)</description>
      <Style>
        <IconStyle>
          <Icon>
            <href>http://maps.google.com/mapfiles/kml/shapes/shaded_dot.png</href>
          </Icon>
          <scale>0.6</scale>
          <color>bf00a0f4</color>
        </IconStyle>
      </Style>
      <Point>
        <altitudeMode>clampToGround</altitudeMode>
        <coordinates>-122.087463671652,37.4244038848662,0</coordinates>
      </Point>
    </Placemark>
    <Placemark>
      <Snippet maxLines="0"> </Snippet>
      <description>63
UTC 06-05-2022 19:58:45.00
GpsMilliseconds 1335902343000
37.4244043,-122.0874637, EA(2m)
AltWgs84 -25.1 m, EA(2m)
Hdg 35 deg, Spd 0.0 m/s
EA(44.6 deg, 0.7 m/s)</description>
      <Style>
        <IconStyle>
          <Icon>
            <href>http://maps.google.com/mapfiles/kml/shapes/shaded_dot.png</href>
          </Icon>
          <scale>0.6</scale>
          <color>bf00a0f4</color>
        </IconStyle>
      </Style>
      <Point>
        <altitudeMode>clampToGround</altitudeMode>
        <coordinates>-122.08746366026,37.4244042751134,0</coordinates>
      </Point>
    </Placemark>
    <Placemark>
      <Snippet maxLines="0"> </Snippet>
      <description>64
UTC 06-05-2022 19:58:46.00
GpsMilliseconds 1335902344000
37.4244050,-122.0874621, EA(2m)
AltWgs84 -25.1 m, EA(2m)
Hdg 53 deg, Spd 0.1 m/s
EA(44.5 deg, 0.7 m/s)</description>
      <Style>
        <IconStyle>
          <Icon>
            <href>http://maps.google.com/mapfiles/kml/shapes/shaded_dot.png</href>
          </Icon>
          <scale>0.6</scale>
          <color>bf00a0f4</color>
        </IconStyle>
      </Style>
      <Point>
        <altitudeMode>clampToGround</altitudeMode>
        <coordinates>-122.087462142773,37.4244049574759,0</coordinates>
      </Point>
    </Placemark>
    <Placemark>
      <Snippet maxLines="0"> </Snippet>
      <description>65
UTC 06-05-2022 19:58:47.00
GpsMilliseconds 1335902345000
37.4244048,-122.0874625, EA(2m)
AltWgs84 -25.1 m, EA(2m)
Hdg 52 deg, Spd 0.0 m/s
EA(44.2 deg, 0.7 m/s)</description>
      <Style>
        <IconStyle>
          <Icon>
            <href>http://maps.google.com/mapfiles/kml/shapes/shaded_dot.png</href>
          </Icon>
          <scale>0.6</scale>
          <color>bf00a0f4</color>
        </IconStyle>
      </Style>
      <Point>
        <altitudeMode>clampToGround</altitudeMode>
        <coordinates>-122.087462520603,37.4244047591874,0</coordinates>
      </Point>
    </Placemark>
    <Placemark>
      <Snippet maxLines="0"> </Snippet>
      <description>66
UTC 06-05-2022 19:58:48.00
GpsMilliseconds 1335902346000
37.4244043,-122.0874592, EA(2m)
AltWgs84 -25.2 m, EA(2m)
Hdg 88 deg, Spd 0.1 m/s
EA(44.5 deg, 0.7 m/s)</description>
      <Style>
        <IconStyle>
          <Icon>
            <href>http://maps.google.com/mapfiles/kml/shapes/shaded_dot.png</href>
          </Icon>
          <scale>0.6</scale>
          <color>bf00a0f4</color>
        </IconStyle>
      </Style>
      <Point>
        <altitudeMode>clampToGround</altitudeMode>
        <coordinates>-122.087459179068,37.4244043249375,0</coordinates>
      </Point>
    </Placemark>
    <Placemark>
      <Snippet maxLines="0"> </Snippet>
      <description>67
UTC 06-05-2022 19:58:49.00
GpsMilliseconds 1335902347000
37.4244009,-122.0874601, EA(2m)
AltWgs84 -25.3 m, EA(2m)
Hdg 151 deg, Spd 0.1 m/s
EA(45.0 deg, 0.7 m/s)</description>
      <Style>
        <IconStyle>
          <Icon>
            <href>http://maps.google.com/mapfiles/kml/shapes/shaded_dot.png</href>
          </Icon>
          <scale>0.6</scale>
          <color>bf00a0f4</color>
        </IconStyle>
      </Style>
      <Point>
        <altitudeMode>clampToGround</altitudeMode>
        <coordinates>-122.08746013799,37.4244008818521,0</coordinates>
      </Point>
    </Placemark>
    <Placemark>
      <Snippet maxLines="0"> </Snippet>
      <description>68
UTC 06-05-2022 19:58:50.00
GpsMilliseconds 1335902348000
37.4244006,-122.0874604, EA(2m)
AltWgs84 -25.4 m, EA(2m)
Hdg 157 deg, Spd 0.1 m/s
EA(44.6 deg, 0.7 m/s)</description>
      <Style>
        <IconStyle>
          <Icon>
            <href>http://maps.google.com/mapfiles/kml/shapes/shaded_dot.png</href>
          </Icon>
          <scale>0.6</scale>
          <color>bf00a0f4</color>
        </IconStyle>
      </Style>
      <Point>
        <altitudeMode>clampToGround</altitudeMode>
        <coordinates>-122.087460360152,37.4244005976774,0</coordinates>
      </Point>
    </Placemark>
    <Placemark>
      <Snippet maxLines="0"> </Snippet>
      <description>69
UTC 06-05-2022 19:58:51.00
GpsMilliseconds 1335902349000
37.4244007,-122.0874605, EA(2m)
AltWgs84 -25.4 m, EA(2m)
Hdg 158 deg, Spd 0.1 m/s
EA(44.6 deg, 0.7 m/s)</description>
      <Style>
        <IconStyle>
          <Icon>
            <href>http://maps.google.com/mapfiles/kml/shapes/shaded_dot.png</href>
          </Icon>
          <scale>0.6</scale>
          <color>bf00a0f4</color>
        </IconStyle>
      </Style>
      <Point>
        <altitudeMode>clampToGround</altitudeMode>
        <coordinates>-122.087460497367,37.42440065984,0</coordinates>
      </Point>
    </Placemark>
    <Placemark>
      <Snippet maxLines="0"> </Snippet>
      <description>70
UTC 06-05-2022 19:58:52.00
GpsMilliseconds 1335902350000
37.4244010,-122.0874608, EA(2m)
AltWgs84 -25.5 m, EA(2m)
Hdg 165 deg, Spd 0.0 m/s
EA(44.2 deg, 0.7 m/s)</description>
      <Style>
        <IconStyle>
          <Icon>
            <href>http://maps.google.com/mapfiles/kml/shapes/shaded_dot.png</href>
          </Icon>
          <scale>0.6</scale>
          <color>bf00a0f4</color>
        </IconStyle>
      </Style>
      <Point>
        <altitudeMode>clampToGround</altitudeMode>
        <coordinates>-122.087460801507,37.424401026262,0</coordinates>
      </Point>
    </Placemark>
    <Placemark>
      <Snippet maxLines="0"> </Snippet>
      <description>71
UTC 06-05-2022 19:58:53.00
GpsMilliseconds 1335902351000
37.4244004,-122.0874605, EA(2m)
AltWgs84 -25.5 m, EA(2m)
Hdg 154 deg, Spd 0.0 m/s
EA(44.8 deg, 0.7 m/s)</description>
      <Style>
        <IconStyle>
          <Icon>
            <href>http://maps.google.com/mapfiles/kml/shapes/shaded_dot.png</href>
          </Icon>
          <scale>0.6</scale>
          <color>bf00a0f4</color>
        </IconStyle>
      </Style>
      <Point>
        <altitudeMode>clampToGround</altitudeMode>
        <coordinates>-122.087460535129,37.4244004313604,0</coordinates>
      </Point>
    </Placemark>
    <Placemark>
      <Snippet maxLines="0"> </Snippet>
      <description>72
UTC 06-05-2022 19:58:54.00
GpsMilliseconds 1335902352000
37.4244020,-122.0874598, EA(2m)
AltWgs84 -25.5 m, EA(2m)
Hdg 64 deg, Spd 0.0 m/s
EA(44.6 deg, 0.7 m/s)</description>
      <Style>
        <IconStyle>
          <Icon>
            <href>http://maps.google.com/mapfiles/kml/shapes/shaded_dot.png</href>
          </Icon>
          <scale>0.6</scale>
          <color>bf00a0f4</color>
        </IconStyle>
      </Style>
      <Point>
        <altitudeMode>clampToGround</altitudeMode>
        <coordinates>-122.087459822886,37.4244020159641,0</coordinates>
      </Point>
    </Placemark>
    <Placemark>
      <Snippet maxLines="0"> </Snippet>
      <description>73
UTC 06-05-2022 19:58:55.00
GpsMilliseconds 1335902353000
37.4244000,-122.0874585, EA(2m)
AltWgs84 -25.6 m, EA(2m)
Hdg 147 deg, Spd 0.1 m/s
EA(44.1 deg, 0.7 m/s)</description>
      <Style>
        <IconStyle>
          <Icon>
            <href>http://maps.google.com/mapfiles/kml/shapes/shaded_dot.png</href>
          </Icon>
          <scale>0.6</scale>
          <color>bf00a0f4</color>
        </IconStyle>
      </Style>
      <Point>
        <altitudeMode>clampToGround</altitudeMode>
        <coordinates>-122.087458518802,37.4243999910713,0</coordinates>
      </Point>
    </Placemark>
    <Placemark>
      <Snippet maxLines="0"> </Snippet>
      <description>74
UTC 06-05-2022 19:58:56.00
GpsMilliseconds 1335902354000
37.4243972,-122.0874589, EA(2m)
AltWgs84 -25.6 m, EA(2m)
Hdg 171 deg, Spd 0.1 m/s
EA(43.6 deg, 0.7 m/s)</description>
      <Style>
        <IconStyle>
          <Icon>
            <href>http://maps.google.com/mapfiles/kml/shapes/shaded_dot.png</href>
          </Icon>
          <scale>0.6</scale>
          <color>bf00a0f4</color>
        </IconStyle>
      </Style>
      <Point>
        <altitudeMode>clampToGround</altitudeMode>
        <coordinates>-122.087458916567,37.4243972121771,0</coordinates>
      </Point>
    </Placemark>
    <Placemark>
      <Snippet maxLines="0"> </Snippet>
      <description>75
UTC 06-05-2022 19:58:57.00
GpsMilliseconds 1335902355000
37.4243953,-122.0874601, EA(2m)
AltWgs84 -25.6 m, EA(2m)
Hdg 184 deg, Spd 0.1 m/s
EA(43.5 deg, 0.7 m/s)</description>
      <Style>
        <IconStyle>
          <Icon>
            <href>http://maps.google.com/mapfiles/kml/shapes/shaded_dot.png</href>
          </Icon>
          <scale>0.6</scale>
          <color>bf00a0f4</color>
        </IconStyle>
      </Style>
      <Point>
        <altitudeMode>clampToGround</altitudeMode>
        <coordinates>-122.087460092472,37.4243953212304,0</coordinates>
      </Point>
    </Placemark>
    <Placemark>
      <Snippet maxLines="0"> </Snippet>
      <description>76
UTC 06-05-2022 19:58:58.00
GpsMilliseconds 1335902356000
37.4243974,-122.0874596, EA(2m)
AltWgs84 -25.6 m, EA(2m)
Hdg 175 deg, Spd 0.0 m/s
EA(42.9 deg, 0.7 m/s)</description>
      <Style>
        <IconStyle>
          <Icon>
            <href>http://maps.google.com/mapfiles/kml/shapes/shaded_dot.png</href>
          </Icon>
          <scale>0.6</scale>
          <color>bf00a0f4</color>
        </IconStyle>
      </Style>
      <Point>
        <altitudeMode>clampToGround</altitudeMode>
        <coordinates>-122.087459603106,37.4243973665219,0</coordinates>
      </Point>
    </Placemark>
    <Placemark>
      <Snippet maxLines="0"> </Snippet>
      <description>77
UTC 06-05-2022 19:58:59.00
GpsMilliseconds 1335902357000
37.4243965,-122.0874646, EA(2m)
AltWgs84 -25.4 m, EA(2m)
Hdg 238 deg, Spd 0.1 m/s
EA(43.7 deg, 0.7 m/s)</description>
      <Style>
        <IconStyle>
          <Icon>
            <href>http://maps.google.com/mapfiles/kml/shapes/shaded_dot.png</href>
          </Icon>
          <scale>0.6</scale>
          <color>bf00a0f4</color>
        </IconStyle>
      </Style>
      <Point>
        <altitudeMode>clampToGround</altitudeMode>
        <coordinates>-122.087464591872,37.4243964527301,0</coordinates>
      </Point>
    </Placemark>
    <Placemark>
      <Snippet maxLines="0"> </Snippet>
      <description>78
UTC 06-05-2022 19:59:00.00
GpsMilliseconds 1335902358000
37.4243981,-122.0874726, EA(2m)
AltWgs84 -25.2 m, EA(2m)
Hdg 268 deg, Spd 0.2 m/s
EA(43.7 deg, 0.7 m/s)</description>
      <Style>
        <IconStyle>
          <Icon>
            <href>http://maps.google.com/mapfiles/kml/shapes/shaded_dot.png</href>
          </Icon>
          <scale>0.6</scale>
          <color>bf00a0f4</color>
        </IconStyle>
      </Style>
      <Point>
        <altitudeMode>clampToGround</altitudeMode>
        <coordinates>-122.087472621526,37.4243980755907,0</coordinates>
      </Point>
    </Placemark>
    <Placemark>
      <Snippet maxLines="0"> </Snippet>
      <description>79
UTC 06-05-2022 19:59:01.00
GpsMilliseconds 1335902359000
37.4243963,-122.0874750, EA(2m)
AltWgs84 -25.2 m, EA(2m)
Hdg 258 deg, Spd 0.2 m/s
EA(43.6 deg, 0.7 m/s)</description>
      <Style>
        <IconStyle>
          <Icon>
            <href>http://maps.google.com/mapfiles/kml/shapes/shaded_dot.png</href>
          </Icon>
          <scale>0.6</scale>
          <color>bf00a0f4</color>
        </IconStyle>
      </Style>
      <Point>
        <altitudeMode>clampToGround</altitudeMode>
        <coordinates>-122.087474970011,37.4243963437622,0</coordinates>
      </Point>
    </Placemark>
    <Placemark>
      <Snippet maxLines="0"> </Snippet>
      <description>80
UTC 06-05-2022 19:59:02.00
GpsMilliseconds 1335902360000
37.4243914,-122.0874669, EA(2m)
AltWgs84 -25.3 m, EA(2m)
Hdg 182 deg, Spd 0.1 m/s
EA(43.0 deg, 0.7 m/s)</description>
      <Style>
        <IconStyle>
          <Icon>
            <href>http://maps.google.com/mapfiles/kml/shapes/shaded_dot.png</href>
          </Icon>
          <scale>0.6</scale>
          <color>bf00a0f4</color>
        </IconStyle>
      </Style>
      <Point>
        <altitudeMode>clampToGround</altitudeMode>
        <coordinates>-122.087466860522,37.4243914456607,0</coordinates>
      </Point>
    </Placemark>
    <Placemark>
      <Snippet maxLines="0"> </Snippet>
      <description>81
UTC 06-05-2022 19:59:03.00
GpsMilliseconds 1335902361000
37.4243896,-122.0874657, EA(2m)
AltWgs84 -25.5 m, EA(2m)
Hdg 173 deg, Spd 0.1 m/s
EA(42.8 deg, 0.7 m/s)</description>
      <Style>
        <IconStyle>
          <Icon>
            <href>http://maps.google.com/mapfiles/kml/shapes/shaded_dot.png</href>
          </Icon>
          <scale>0.6</scale>
          <color>bf00a0f4</color>
        </IconStyle>
      </Style>
      <Point>
        <altitudeMode>clampToGround</altitudeMode>
        <coordinates>-122.087465711614,37.4243896186001,0</coordinates>
      </Point>
    </Placemark>
    <Placemark>
      <Snippet maxLines="0"> </Snippet>
      <description>82
UTC 06-05-2022 19:59:04.00
GpsMilliseconds 1335902362000
37.4243892,-122.0874589, EA(2m)
AltWgs84 -25.8 m, EA(2m)
Hdg 131 deg, Spd 0.2 m/s
EA(43.0 deg, 0.7 m/s)</description>
      <Style>
        <IconStyle>
          <Icon>
            <href>http://maps.google.com/mapfiles/kml/shapes/shaded_dot.png</href>
          </Icon>
          <scale>0.6</scale>
          <color>bf00a0f4</color>
        </IconStyle>
      </Style>
      <Point>
        <altitudeMode>clampToGround</altitudeMode>
        <coordinates>-122.087458932049,37.4243891792313,0</coordinates>
      </Point>
    </Placemark>
    <Placemark>
      <Snippet maxLines="0"> </Snippet>
      <description>83
UTC 06-05-2022 19:59:05.00
GpsMilliseconds 1335902363000
37.4243930,-122.0874616, EA(2m)
AltWgs84 -25.7 m, EA(2m)
Hdg 107 deg, Spd 0.1 m/s
EA(43.2 deg, 0.7 m/s)</description>
      <Style>
        <IconStyle>
          <Icon>
            <href>http://maps.google.com/mapfiles/kml/shapes/shaded_dot.png</href>
          </Icon>
          <scale>0.6</scale>
          <color>bf00a0f4</color>
        </IconStyle>
      </Style>
      <Point>
        <altitudeMode>clampToGround</altitudeMode>
        <coordinates>-122.087461550216,37.4243929587561,0</coordinates>
      </Point>
    </Placemark>
    <Placemark>
      <Snippet maxLines="0"> </Snippet>
      <description>84
UTC 06-05-2022 19:59:06.00
GpsMilliseconds 1335902364000
37.4243943,-122.0874626, EA(2m)
AltWgs84 -25.7 m, EA(2m)
Hdg 60 deg, Spd 0.0 m/s
EA(43.5 deg, 0.7 m/s)</description>
      <Style>
        <IconStyle>
          <Icon>
            <href>http://maps.google.com/mapfiles/kml/shapes/shaded_dot.png</href>
          </Icon>
          <scale>0.6</scale>
          <color>bf00a0f4</color>
        </IconStyle>
      </Style>
      <Point>
        <altitudeMode>clampToGround</altitudeMode>
        <coordinates>-122.087462597515,37.4243942759784,0</coordinates>
      </Point>
    </Placemark>
    <Placemark>
      <Snippet maxLines="0"> </Snippet>
      <description>85
UTC 06-05-2022 19:59:07.00
GpsMilliseconds 1335902365000
37.4243959,-122.0874668, EA(2m)
AltWgs84 -25.6 m, EA(2m)
Hdg 305 deg, Spd 0.1 m/s
EA(43.4 deg, 0.7 m/s)</description>
      <Style>
        <IconStyle>
          <Icon>
            <href>http://maps.google.com/mapfiles/kml/shapes/shaded_dot.png</href>
          </Icon>
          <scale>0.6</scale>
          <color>bf00a0f4</color>
        </IconStyle>
      </Style>
      <Point>
        <altitudeMode>clampToGround</altitudeMode>
        <coordinates>-122.087466841702,37.4243958710357,0</coordinates>
      </Point>
    </Placemark>
    <Placemark>
      <Snippet maxLines="0"> </Snippet>
      <description>86
UTC 06-05-2022 19:59:08.00
GpsMilliseconds 1335902366000
37.4243937,-122.0874605, EA(2m)
AltWgs84 -25.9 m, EA(2m)
Hdg 100 deg, Spd 0.1 m/s
EA(43.4 deg, 0.7 m/s)</description>
      <Style>
        <IconStyle>
          <Icon>
            <href>http://maps.google.com/mapfiles/kml/shapes/shaded_dot.png</href>
          </Icon>
          <scale>0.6</scale>
          <color>bf00a0f4</color>
        </IconStyle>
      </Style>
      <Point>
        <altitudeMode>clampToGround</altitudeMode>
        <coordinates>-122.087460475534,37.4243937001447,0</coordinates>
      </Point>
    </Placemark>
    <Placemark>
      <Snippet maxLines="0"> </Snippet>
      <description>87
UTC 06-05-2022 19:59:09.00
GpsMilliseconds 1335902367000
37.4243952,-122.0874554, EA(2m)
AltWgs84 -26.1 m, EA(2m)
Hdg 81 deg, Spd 0.1 m/s
EA(43.2 deg, 0.7 m/s)</description>
      <Style>
        <IconStyle>
          <Icon>
            <href>http://maps.google.com/mapfiles/kml/shapes/shaded_dot.png</href>
          </Icon>
          <scale>0.6</scale>
          <color>bf00a0f4</color>
        </IconStyle>
      </Style>
      <Point>
        <altitudeMode>clampToGround</altitudeMode>
        <coordinates>-122.087455383781,37.4243952106579,0</coordinates>
      </Point>
    </Placemark>
    <Placemark>
      <Snippet maxLines="0"> </Snippet>
      <description>88
UTC 06-05-2022 19:59:10.00
GpsMilliseconds 1335902368000
37.4243960,-122.0874569, EA(2m)
AltWgs84 -26.1 m, EA(2m)
Hdg 67 deg, Spd 0.1 m/s
EA(43.1 deg, 0.7 m/s)</description>
      <Style>
        <IconStyle>
          <Icon>
            <href>http://maps.google.com/mapfiles/kml/shapes/shaded_dot.png</href>
          </Icon>
          <scale>0.6</scale>
          <color>bf00a0f4</color>
        </IconStyle>
      </Style>
      <Point>
        <altitudeMode>clampToGround</altitudeMode>
        <coordinates>-122.087456855475,37.4243960373266,0</coordinates>
      </Point>
    </Placemark>
    <Placemark>
      <Snippet maxLines="0"> </Snippet>
      <description>89
UTC 06-05-2022 19:59:11.00
GpsMilliseconds 1335902369000
37.4243942,-122.0874572, EA(2m)
AltWgs84 -26.2 m, EA(2m)
Hdg 104 deg, Spd 0.1 m/s
EA(43.4 deg, 0.7 m/s)</description>
      <Style>
        <IconStyle>
          <Icon>
            <href>http://maps.google.com/mapfiles/kml/shapes/shaded_dot.png</href>
          </Icon>
          <scale>0.6</scale>
          <color>bf00a0f4</color>
        </IconStyle>
      </Style>
      <Point>
        <altitudeMode>clampToGround</altitudeMode>
        <coordinates>-122.087457151972,37.4243942023175,0</coordinates>
      </Point>
    </Placemark>
    <Placemark>
      <Snippet maxLines="0"> </Snippet>
      <description>90
UTC 06-05-2022 19:59:12.00
GpsMilliseconds 1335902370000
37.4243942,-122.0874606, EA(2m)
AltWgs84 -26.2 m, EA(1m)
Hdg 249 deg, Spd 0.0 m/s
EA(44.1 deg, 0.7 m/s)</description>
      <Style>
        <IconStyle>
          <Icon>
            <href>http://maps.google.com/mapfiles/kml/shapes/shaded_dot.png</href>
          </Icon>
          <scale>0.6</scale>
          <color>bf00a0f4</color>
        </IconStyle>
      </Style>
      <Point>
        <altitudeMode>clampToGround</altitudeMode>
        <coordinates>-122.087460644829,37.4243941642718,0</coordinates>
      </Point>
    </Placemark>
    <Placemark>
      <Snippet maxLines="0"> </Snippet>
      <description>91
UTC 06-05-2022 19:59:13.00
GpsMilliseconds 1335902371000
37.4243969,-122.0874607, EA(2m)
AltWgs84 -26.2 m, EA(1m)
Hdg 342 deg, Spd 0.1 m/s
EA(44.1 deg, 0.7 m/s)</description>
      <Style>
        <IconStyle>
          <Icon>
            <href>http://maps.google.com/mapfiles/kml/shapes/shaded_dot.png</href>
          </Icon>
          <scale>0.6</scale>
          <color>bf00a0f4</color>
        </IconStyle>
      </Style>
      <Point>
        <altitudeMode>clampToGround</altitudeMode>
        <coordinates>-122.087460719343,37.4243968995197,0</coordinates>
      </Point>
    </Placemark>
    <Placemark>
      <Snippet maxLines="0"> </Snippet>
      <description>92
UTC 06-05-2022 19:59:14.00
GpsMilliseconds 1335902372000
37.4243974,-122.0874596, EA(2m)
AltWgs84 -26.2 m, EA(2m)
Hdg 8 deg, Spd 0.1 m/s
EA(44.6 deg, 0.7 m/s)</description>
      <Style>
        <IconStyle>
          <Icon>
            <href>http://maps.google.com/mapfiles/kml/shapes/shaded_dot.png</href>
          </Icon>
          <scale>0.6</scale>
          <color>bf00a0f4</color>
        </IconStyle>
      </Style>
      <Point>
        <altitudeMode>clampToGround</altitudeMode>
        <coordinates>-122.087459631565,37.4243974111349,0</coordinates>
      </Point>
    </Placemark>
    <Placemark>
      <Snippet maxLines="0"> </Snippet>
      <description>93
UTC 06-05-2022 19:59:15.00
GpsMilliseconds 1335902373000
37.4243990,-122.0874624, EA(2m)
AltWgs84 -26.2 m, EA(2m)
Hdg 331 deg, Spd 0.1 m/s
EA(44.4 deg, 0.7 m/s)</description>
      <Style>
        <IconStyle>
          <Icon>
            <href>http://maps.google.com/mapfiles/kml/shapes/shaded_dot.png</href>
          </Icon>
          <scale>0.6</scale>
          <color>bf00a0f4</color>
        </IconStyle>
      </Style>
      <Point>
        <altitudeMode>clampToGround</altitudeMode>
        <coordinates>-122.087462396948,37.4243990230829,0</coordinates>
      </Point>
    </Placemark>
    <Placemark>
      <Snippet maxLines="0"> </Snippet>
      <description>94
UTC 06-05-2022 19:59:16.00
GpsMilliseconds 1335902374000
37.4243991,-122.0874669, EA(2m)
AltWgs84 -26.0 m, EA(2m)
Hdg 299 deg, Spd 0.1 m/s
EA(44.0 deg, 0.7 m/s)</description>
      <Style>
        <IconStyle>
          <Icon>
            <href>http://maps.google.com/mapfiles/kml/shapes/shaded_dot.png</href>
          </Icon>
          <scale>0.6</scale>
          <color>bf00a0f4</color>
        </IconStyle>
      </Style>
      <Point>
        <altitudeMode>clampToGround</altitudeMode>
        <coordinates>-122.087466903611,37.4243991268312,0</coordinates>
      </Point>
    </Placemark>
    <Placemark>
      <Snippet maxLines="0"> </Snippet>
      <description>95
UTC 06-05-2022 19:59:17.00
GpsMilliseconds 1335902375000
37.4244007,-122.0874676, EA(2m)
AltWgs84 -26.0 m, EA(1m)
Hdg 310 deg, Spd 0.1 m/s
EA(44.0 deg, 0.7 m/s)</description>
      <Style>
        <IconStyle>
          <Icon>
            <href>http://maps.google.com/mapfiles/kml/shapes/shaded_dot.png</href>
          </Icon>
          <scale>0.6</scale>
          <color>bf00a0f4</color>
        </IconStyle>
      </Style>
      <Point>
        <altitudeMode>clampToGround</altitudeMode>
        <coordinates>-122.087467552887,37.4244006915049,0</coordinates>
      </Point>
    </Placemark>
    <Placemark>
      <Snippet maxLines="0"> </Snippet>
      <description>96
UTC 06-05-2022 19:59:18.00
GpsMilliseconds 1335902376000
37.4244007,-122.0874681, EA(2m)
AltWgs84 -26.0 m, EA(2m)
Hdg 307 deg, Spd 0.1 m/s
EA(44.4 deg, 0.7 m/s)</description>
      <Style>
        <IconStyle>
          <Icon>
            <href>http://maps.google.com/mapfiles/kml/shapes/shaded_dot.png</href>
          </Icon>
          <scale>0.6</scale>
          <color>bf00a0f4</color>
        </IconStyle>
      </Style>
      <Point>
        <altitudeMode>clampToGround</altitudeMode>
        <coordinates>-122.087468146121,37.4244007239666,0</coordinates>
      </Point>
    </Placemark>
    <Placemark>
      <Snippet maxLines="0"> </Snippet>
      <description>97
UTC 06-05-2022 19:59:19.00
GpsMilliseconds 1335902377000
37.4244007,-122.0874750, EA(2m)
AltWgs84 -25.9 m, EA(2m)
Hdg 284 deg, Spd 0.2 m/s
EA(44.7 deg, 0.7 m/s)</description>
      <Style>
        <IconStyle>
          <Icon>
            <href>http://maps.google.com/mapfiles/kml/shapes/shaded_dot.png</href>
          </Icon>
          <scale>0.6</scale>
          <color>bf00a0f4</color>
        </IconStyle>
      </Style>
      <Point>
        <altitudeMode>clampToGround</altitudeMode>
        <coordinates>-122.087474977261,37.4244007086866,0</coordinates>
      </Point>
    </Placemark>
    <Placemark>
      <Snippet maxLines="0"> </Snippet>
      <description>98
UTC 06-05-2022 19:59:20.00
GpsMilliseconds 1335902378000
37.4243987,-122.0874706, EA(2m)
AltWgs84 -26.0 m, EA(1m)
Hdg 262 deg, Spd 0.1 m/s
EA(44.4 deg, 0.7 m/s)</description>
      <Style>
        <IconStyle>
          <Icon>
            <href>http://maps.google.com/mapfiles/kml/shapes/shaded_dot.png</href>
          </Icon>
          <scale>0.6</scale>
          <color>bf00a0f4</color>
        </IconStyle>
      </Style>
      <Point>
        <altitudeMode>clampToGround</altitudeMode>
        <coordinates>-122.087470603546,37.4243986563088,0</coordinates>
      </Point>
    </Placemark>
    <Placemark>
      <Snippet maxLines="0"> </Snippet>
      <description>99
UTC 06-05-2022 19:59:21.00
GpsMilliseconds 1335902379000
37.4243990,-122.0874648, EA(2m)
AltWgs84 -26.2 m, EA(1m)
Hdg 89 deg, Spd 0.1 m/s
EA(44.1 deg, 0.7 m/s)</description>
      <Style>
        <IconStyle>
          <Icon>
            <href>http://maps.google.com/mapfiles/kml/shapes/shaded_dot.png</href>
          </Icon>
          <scale>0.6</scale>
          <color>bf00a0f4</color>
        </IconStyle>
      </Style>
      <Point>
        <altitudeMode>clampToGround</altitudeMode>
        <coordinates>-122.087464771586,37.4243990343773,0</coordinates>
      </Point>
    </Placemark>
    <Placemark>
      <Snippet maxLines="0"> </Snippet>
      <description>100
UTC 06-05-2022 19:59:22.00
GpsMilliseconds 1335902380000
37.4244007,-122.0874606, EA(2m)
AltWgs84 -26.5 m, EA(1m)
Hdg 71 deg, Spd 0.1 m/s
EA(44.1 deg, 0.7 m/s)</description>
      <Style>
        <IconStyle>
          <Icon>
            <href>http://maps.google.com/mapfiles/kml/shapes/shaded_dot.png</href>
          </Icon>
          <scale>0.6</scale>
          <color>bf00a0f4</color>
        </IconStyle>
      </Style>
      <Point>
        <altitudeMode>clampToGround</altitudeMode>
        <coordinates>-122.08746060223,37.4244007254645,0</coordinates>
      </Point>
    </Placemark>
   </Document>
</kml>