$GPGGA,195742.00,3725.463804,N,12205.247529,W,1,23,0.62,-27.12,M,0.0,M,0.0,0000*77
$GPGSV,3,1,10,2,73,176,32.8,6,53,055,40.1,12,62,327,42.6,17,11,064,30.3*75
$GPGSV,3,2,10,19,28,056,41.1,24,46,228,46.3,25,21,309,39.3,6,53,055,37.0*42
$GPGSV,3,3,10,24,46,228,39.9,25,21,309,35.2*7D
$GLGSV,2,1,5,15,52,147,34.8,9,14,327,43.5,17,35,030,45.3,18,75,311,38.2*65
$GLGSV,2,2,5,19,38,234,37.7*7B
$GAGSV,2,1,8,2,35,124,35.5,15,47,209,42.3,27,32,314,40.9,30,84,037,36.1*6A
$GAGSV,2,2,8,2,35,124,33.7,15,47,209,36.4,27,32,314,33.8,30,84,037,35.4*6A
$GPRMC,195742.00,A,3725.463804,N,12205.247529,W,000.1,,060522,,,A*69
$GPGGA,195743.00,3725.464330,N,12205.247422,W,1,23,0.62,-26.16,M,0.0,M,0.0,0000*72
$GPGSV,3,1,10,2,73,176,32.1,6,53,055,41.2,12,62,327,42.0,17,11,064,29.1*72
$GPGSV,3,2,10,19,28,056,42.0,24,46,228,45.5,25,21,309,40.5,6,53,055,37.2*4F
$GPGSV,3,3,10,24,46,228,40.4,25,21,309,36.1*7E
$GLGSV,2,1,5,15,52,147,34.5,9,14,327,44.2,17,35,030,45.5,18,75,311,36.6*64
$GLGSV,2,2,5,19,38,234,37.0*7C
$GAGSV,2,1,8,2,35,124,36.9,15,47,209,41.9,27,32,314,41.6,30,84,037,35.6*66
$GAGSV,2,2,8,2,35,124,33.0,15,47,209,36.6,27,32,314,34.7,30,84,037,34.2*60
$GPRMC,195743.00,A,3725.464330,N,12205.247422,W,000.0,,060522,,,A*68
$GPGGA,195744.00,3725.464210,N,12205.247290,W,1,23,0.62,-27.26,M,0.0,M,0.0,0000*7B
$GPGSV,3,1,10,2,73,176,31.8,6,53,055,40.9,12,62,327,42.5,17,11,064,30.0*7E
$GPGSV,3,2,10,19,28,056,41.7,24,46,228,45.8,25,21,309,39.0,6,53,055,36.2*4C
$GPGSV,3,3,10,24,46,228,39.7,25,21,309,36.1*73
$GLGSV,2,1,5,15,52,147,33.7,9,14,327,44.0,17,35,030,44.9,18,75,311,37.5*6C
$GLGSV,2,2,5,19,38,234,37.2*7E
$GAGSV,2,1,8,2,35,124,35.0,15,47,209,42.1,27,32,314,40.3,30,84,037,35.6*63
$GAGSV,2,2,8,2,35,124,33.1,15,47,209,36.1,27,32,314,34.4,30,84,037,33.8*68
$GPRMC,195744.00,A,3725.464210,N,12205.247290,W,000.1,,060522,,,A*62
$GPGGA,195745.00,3725.464160,N,12205.247607,W,1,23,0.62,-26.05,M,0.0,M,0.0,0000*74
$GPGSV,3,1,10,2,73,176,32.2,6,53,055,40.9,12,62,327,42.8,17,11,064,32.7*7F
$GPGSV,3,2,10,19,28,056,41.0,24,46,228,46.0,25,21,309,38.9,6,53,055,36.5*4F
$GPGSV,3,3,10,24,46,228,40.0,25,21,309,36.2*79
$GLGSV,2,1,5,15,52,147,32.6,9,14,327,43.9,17,35,030,44.9,18,75,311,38.3*6B
$GLGSV,2,2,5,19,38,234,37.2*7E
$GAGSV,2,1,8,2,35,124,33.8,15,47,209,42.7,27,32,314,40.5,30,84,037,36.1*69
$GAGSV,2,2,8,2,35,124,33.3,15,47,209,36.4,27,32,314,34.6,30,84,037,34.1*63
$GPRMC,195745.00,A,3725.464160,N,12205.247607,W,000.0,,060522,,,A*6C
$GPGGA,195746.00,3725.463945,N,12205.247740,W,1,23,0.62,-26.73,M,0.0,M,0.0,0000*7C
$GPGSV,3,1,10,2,73,176,33.7,6,53,055,42.0,12,62,327,41.9,17,11,064,33.4*70
$GPGSV,3,2,10,19,28,056,41.4,24,46,228,46.1,25,21,309,40.1,6,53,055,37.1*48
$GPGSV,3,3,10,24,46,228,41.8,25,21,309,37.6*75
$GLGSV,2,1,5,15,52,147,30.3,9,14,327,44.4,17,35,030,45.4,18,75,311,36.1*66
$GLGSV,2,2,5,19,38,234,37.6*7A
$GAGSV,2,1,8,2,35,124,34.7,15,47,209,42.9,27,32,314,41.5,30,84,037,36.0*6F
$GAGSV,2,2,8,2,35,124,34.5,15,47,209,37.7,27,32,314,35.7,30,84,037,35.1*61
$GPRMC,195746.00,A,3725.463945,N,12205.247740,W,000.1,,060522,,,A*64
$GPGGA,195747.00,3725.464475,N,12205.247751,W,1,23,0.62,-26.62,M,0.0,M,0.0,0000*74
$GPGSV,3,1,10,2,73,176,33.4,6,53,055,40.3,12,62,327,43.3,17,11,064,33.8*76
$GPGSV,3,2,10,19,28,056,40.6,24,46,228,46.5,25,21,309,38.3,6,53,055,37.7*44
$GPGSV,3,3,10,24,46,228,41.6,25,21,309,38.0*72
$GLGSV,2,1,5,15,52,147,31.6,9,14,327,42.6,17,35,030,45.9,18,75,311,39.0*65
$GLGSV,2,2,5,19,38,234,38.8*7B
$GAGSV,2,1,8,2,35,124,34.4,15,47,209,42.4,27,32,314,40.8,30,84,037,35.3*6D
$GAGSV,2,2,8,2,35,124,35.3,15,47,209,37.6,27,32,314,35.2,30,84,037,35.5*66
$GPRMC,195747.00,A,3725.464475,N,12205.247751,W,000.0,,060522,,,A*6D
$GPGGA,195748.00,3725.463952,N,12205.247482,W,1,23,0.62,-27.83,M,0.0,M,0.0,0000*77
$GPGSV,3,1,10,2,73,176,33.7,6,53,055,39.4,12,62,327,43.4,17,11,064,33.4*77
$GPGSV,3,2,10,19,28,056,39.5,24,46,228,46.6,25,21,309,37.4,6,53,055,37.8*4D
$GPGSV,3,3,10,24,46,228,41.5,25,21,309,37.7*79
$GLGSV,2,1,5,15,52,147,31.6,9,14,327,42.6,17,35,030,46.6,18,75,311,40.3*64
$GLGSV,2,2,5,19,38,234,39.0*72
$GAGSV,2,1,8,2,35,124,33.8,15,47,209,42.7,27,32,314,41.0,30,84,037,34.7*69
$GAGSV,2,2,8,2,35,124,35.3,15,47,209,37.8,27,32,314,35.0,30,84,037,35.3*6C
$GPRMC,195748.00,A,3725.463952,N,12205.247482,W,000.1,,060522,,,A*61
$GPGGA,195749.00,3725.464072,N,12205.247297,W,1,23,0.62,-28.13,M,0.0,M,0.0,0000*7E
$GPGSV,3,1,10,2,73,176,33.2,6,53,055,38.0,12,62,327,43.1,17,11,064,31.9*7D
$GPGSV,3,2,10,19,28,056,38.8,24,46,228,46.5,25,21,309,37.2,6,53,055,38.1*42
$GPGSV,3,3,10,24,46,228,41.5,25,21,309,37.7*79
$GLGSV,2,1,5,15,52,147,33.8,9,14,327,44.1,17,35,030,47.8,18,75,311,40.4*61
$GLGSV,2,2,5,19,38,234,39.4*76
$GAGSV,2,1,8,2,35,124,35.6,15,47,209,43.0,27,32,314,41.6,30,84,037,35.0*67
$GAGSV,2,2,8,2,35,124,34.9,15,47,209,37.6,27,32,314,35.1,30,84,037,35.1*6A
$GPRMC,195749.00,A,3725.464072,N,12205.247297,W,000.0,,060522,,,A*6F
$GPGGA,195750.00,3725.464478,N,12205.247411,W,1,23,0.62,-26.80,M,0.0,M,0.0,0000*74
$GPGSV,3,1,10,2,73,176,34.3,6,53,055,38.8,12,62,327,43.8,17,11,064,31.3*70
$GPGSV,3,2,10,19,28,056,38.4,24,46,228,47.7,25,21,309,38.8,6,53,055,38.5*4C
$GPGSV,3,3,10,24,46,228,41.2,25,21,309,37.1*78
$GLGSV,2,1,5,15,52,147,36.2,9,14,327,43.9,17,35,030,47.4,18,75,311,39.2*65
$GLGSV,2,2,5,19,38,234,39.9*7B
$GAGSV,2,1,8,2,35,124,35.4,15,47,209,42.6,27,32,314,41.8,30,84,037,37.0*6E
$GAGSV,2,2,8,2,35,124,32.9,15,47,209,37.6,27,32,314,34.6,30,84,037,35.1*6A
$GPRMC,195750.00,A,3725.464478,N,12205.247411,W,000.0,,060522,,,A*61
$GPGGA,195751.00,3725.464109,N,12205.247397,W,1,23,0.62,-27.90,M,0.0,M,0.0,0000*7F
$GPGSV,3,1,10,2,73,176,33.4,6,53,055,38.0,12,62,327,42.9,17,11,064,34.7*79
$GPGSV,3,2,10,19,28,056,41.3,24,46,228,47.6,25,21,309,39.2,6,53,055,38.5*4F
$GPGSV,3,3,10,24,46,228,40.9,25,21,309,37.5*76
$GLGSV,2,1,5,15,52,147,36.6,9,14,327,44.7,17,35,030,47.3,18,75,311,39.6*6B
$GLGSV,2,2,5,19,38,234,39.8*7A
$GAGSV,2,1,8,2,35,124,37.7,15,47,209,42.3,27,32,314,41.5,30,84,037,37.0*67
$GAGSV,2,2,8,2,35,124,32.4,15,47,209,37.6,27,32,314,34.5,30,84,037,34.6*62
$GPRMC,195751.00,A,3725.464109,N,12205.247397,W,000.0,,060522,,,A*6A
$GPGGA,195752.00,3725.464300,N,12205.247138,W,1,23,0.62,-28.02,M,0.0,M,0.0,0000*74
$GPGSV,3,1,10,2,73,176,32.6,6,53,055,37.8,12,62,327,42.8,17,11,064,34.0*7B
$GPGSV,3,2,10,19,28,056,37.0,24,46,228,47.5,25,21,309,38.7,6,53,055,37.9*49
$GPGSV,3,3,10,24,46,228,40.6,25,21,309,36.9*74
$GLGSV,2,1,5,15,52,147,37.6,9,14,327,44.7,17,35,030,46.4,18,75,311,39.9*63
$GLGSV,2,2,5,19,38,234,39.3*71
$GAGSV,2,1,8,2,35,124,33.7,15,47,209,42.3,27,32,314,42.3,30,84,037,35.6*62
$GAGSV,2,2,8,2,35,124,29.0,15,47,209,37.0,27,32,314,34.0,30,84,037,33.2*6C
$GPRMC,195752.00,A,3725.464300,N,12205.247138,W,000.1,,060522,,,A*64
$GPGGA,195753.00,3725.464343,N,12205.247953,W,1,23,0.62,-25.20,M,0.0,M,0.0,0000*7A
$GPGSV,3,1,10,2,73,176,32.8,6,53,055,38.5,12,62,327,42.5,17,11,064,32.9*75
$GPGSV,3,2,10,19,28,056,38.8,24,46,228,47.4,25,21,309,38.4,6,53,055,38.5*4F
$GPGSV,3,3,10,24,46,228,40.6,25,21,309,37.5*79
$GLGSV,2,1,5,15,52,147,37.9,9,14,327,44.7,17,35,030,46.7,18,75,311,39.8*6E
$GLGSV,2,2,5,19,38,234,39.0*72
$GAGSV,2,1,8,2,35,124,33.7,15,47,209,42.0,27,32,314,41.7,30,84,037,36.0*63
$GAGSV,2,2,8,2,35,124,29.0,15,47,209,37.2,27,32,314,34.1,30,84,037,33.5*68
$GPRMC,195753.00,A,3725.464343,N,12205.247953,W,000.0,,060522,,,A*66
$GPGGA,195754.00,3725.464217,N,12205.247622,W,1,23,0.62,-26.03,M,0.0,M,0.0,0000*76
$GPGSV,3,1,10,2,73,176,32.9,6,53,055,39.4,12,62,327,42.5,17,11,064,31.3*7D
$GPGSV,3,2,10,19,28,056,42.0,24,46,228,46.9,25,21,309,38.4,6,53,055,38.9*4A
$GPGSV,3,3,10,24,46,228,40.8,25,21,309,37.3*71
$GLGSV,2,1,5,15,52,147,36.3,9,14,327,44.0,17,35,030,47.2,18,75,311,39.7*69
$GLGSV,2,2,5,19,38,234,38.8*7B
$GAGSV,2,1,8,2,35,124,36.3,15,47,209,42.6,27,32,314,41.6,30,84,037,36.8*6D
$GAGSV,2,2,8,2,35,124,31.3,15,47,209,37.7,27,32,314,34.0,30,84,037,34.7*63
$GPRMC,195754.00,A,3725.464217,N,12205.247622,W,000.1,,060522,,,A*69
$GPGGA,195755.00,3725.464515,N,12205.247536,W,1,23,0.62,-26.61,M,0.0,M,0.0,0000*70
$GPGSV,3,1,10,2,73,176,31.2,6,53,055,38.6,12,62,327,43.0,17,11,064,28.4*7D
$GPGSV,3,2,10,19,28,056,41.0,24,46,228,46.6,25,21,309,38.4,6,53,055,39.1*4F
$GPGSV,3,3,10,24,46,228,41.9,25,21,309,37.6*74
$GLGSV,2,1,5,15,52,147,35.1,9,14,327,44.3,17,35,030,46.6,18,75,311,39.2*6B
$GLGSV,2,2,5,19,38,234,39.0*72
$GAGSV,2,1,8,2,35,124,37.3,15,47,209,42.8,27,32,314,41.9,30,84,037,37.1*65
$GAGSV,2,2,8,2,35,124,34.7,15,47,209,38.2,27,32,314,34.0,30,84,037,35.7*69
$GPRMC,195755.00,A,3725.464515,N,12205.247536,W,000.0,,060522,,,A*6A
$GPGGA,195756.00,3725.464192,N,12205.247278,W,1,23,0.62,-26.90,M,0.0,M,0.0,0000*7B
$GPGSV,3,1,10,2,73,176,30.5,6,53,055,38.8,12,62,327,42.6,17,11,064,34.0*7B
$GPGSV,3,2,10,19,28,056,43.2,24,46,228,46.5,25,21,309,38.7,6,53,055,39.6*48
$GPGSV,3,3,10,24,46,228,40.9,25,21,309,36.8*7A
$GLGSV,2,1,5,15,52,147,35.7,9,14,327,44.8,17,35,030,47.1,18,75,311,40.0*6C
$GLGSV,2,2,5,19,38,234,38.9*7A
$GAGSV,2,1,8,2,35,124,38.3,15,47,209,42.7,27,32,314,42.0,30,84,037,37.0*6E
$GAGSV,2,2,8,2,35,124,34.3,15,47,209,37.6,27,32,314,34.7,30,84,037,35.3*65
$GPRMC,195756.00,A,3725.464192,N,12205.247278,W,000.1,,060522,,,A*6E
$GPGGA,195757.00,3725.464023,N,12205.247835,W,1,23,0.62,-26.86,M,0.0,M,0.0,0000*75
$GPGSV,3,1,10,2,73,176,31.6,6,53,055,38.3,12,62,327,42.7,17,11,064,33.3*77
$GPGSV,3,2,10,19,28,056,42.2,24,46,228,46.6,25,21,309,38.1,6,53,055,39.0*4A
$GPGSV,3,3,10,24,46,228,41.2,25,21,309,37.0*79
$GLGSV,2,1,5,15,52,147,35.6,9,14,327,44.7,17,35,030,47.4,18,75,311,39.4*6D
$GLGSV,2,2,5,19,38,234,39.6*74
$GAGSV,2,1,8,2,35,124,38.1,15,47,209,42.4,27,32,314,41.7,30,84,037,36.7*6D
$GAGSV,2,2,8,2,35,124,34.9,15,47,209,37.8,27,32,314,34.8,30,84,037,35.5*68
$GPRMC,195757.00,A,3725.464023,N,12205.247835,W,000.0,,060522,,,A*66
$GPGGA,195758.00,3725.464474,N,12205.247729,W,1,23,0.62,-25.93,M,0.0,M,0.0,0000*79
$GPGSV,3,1,10,2,73,176,30.6,6,52,055,37.7,12,62,327,42.5,17,11,064,32.7*7B
$GPGSV,3,2,10,19,28,056,41.3,24,46,228,46.5,25,21,309,38.3,6,52,055,38.5*4C
$GPGSV,3,3,10,24,46,228,40.6,25,21,309,37.4*78
$GLGSV,2,1,5,15,52,147,35.3,9,14,327,44.4,17,35,030,46.7,18,75,311,39.0*6D
$GLGSV,2,2,5,19,38,234,39.2*70
$GAGSV,2,1,8,2,35,124,37.2,15,47,209,42.2,27,32,314,41.2,30,84,037,36.3*66
$GAGSV,2,2,8,2,35,124,34.3,15,47,209,37.4,27,32,314,34.5,30,84,037,34.8*6F
$GPRMC,195758.00,A,3725.464474,N,12205.247729,W,000.2,,060522,,,A*6F
$GPGGA,195759.00,3725.463895,N,12205.247841,W,1,23,0.62,-26.69,M,0.0,M,0.0,0000*7B
$GPGSV,3,1,10,2,73,176,28.4,6,52,055,36.0,12,62,327,39.7,17,11,064,30.6*7B
$GPGSV,3,2,10,19,28,056,37.8,24,46,228,44.0,25,21,309,36.5,6,52,055,36.6*44
$GPGSV,3,3,10,24,46,228,42.0,25,21,309,36.2*7B
$GLGSV,2,1,5,15,52,147,32.1,9,14,327,42.9,17,35,030,45.2,18,75,311,34.8*60
$GLGSV,2,2,5,19,38,234,37.1*7D
$GAGSV,2,1,8,2,35,124,35.9,15,47,209,40.2,27,32,314,39.7,30,84,037,33.4*65
$GAGSV,2,2,8,2,35,124,34.2,15,47,209,38.4,27,32,314,34.4,30,84,037,34.3*6B
$GPRMC,195759.00,A,3725.463895,N,12205.247841,W,000.1,,060522,,,A*68
$GPGGA,195800.00,3725.464013,N,12205.247965,W,1,23,0.62,-24.86,M,0.0,M,0.0,0000*7D
$GPGSV,3,1,10,2,73,176,27.8,6,52,055,37.0,12,62,327,43.5,17,11,064,29.0*78
$GPGSV,3,2,10,19,28,056,39.5,24,46,228,46.8,25,21,309,39.7,6,52,055,35.6*43
$GPGSV,3,3,10,24,46,228,40.6,25,21,309,34.9*76
$GLGSV,2,1,5,15,52,147,31.0,9,14,327,43.9,17,35,030,46.2,18,75,311,38.7*63
$GLGSV,2,2,5,19,39,234,38.2*70
$GAGSV,2,1,8,2,35,124,35.3,15,47,209,41.6,27,32,314,40.6,30,84,037,31.0*63
$GAGSV,2,2,8,2,35,124,33.0,15,47,209,36.6,27,32,314,33.7,30,84,037,34.0*65
$GPRMC,195800.00,A,3725.464013,N,12205.247965,W,000.0,,060522,,,A*6C
$GPGGA,195801.00,3725.464022,N,12205.247686,W,1,23,0.62,-25.78,M,0.0,M,0.0,0000*7C
$GPGSV,3,1,10,2,73,176,27.9,6,52,055,38.3,12,62,327,43.4,17,11,064,28.5*70
$GPGSV,3,2,10,19,28,056,40.3,24,46,228,47.0,25,21,309,40.2,6,52,055,36.4*48
$GPGSV,3,3,10,24,46,228,41.3,25,21,309,35.3*79
$GLGSV,2,1,5,15,52,147,30.0,9,14,327,43.8,17,35,030,46.3,18,75,311,38.7*62
$GLGSV,2,2,5,19,39,234,38.4*76
$GAGSV,2,1,8,2,35,124,34.4,15,47,209,42.1,27,32,314,40.8,30,84,038,32.1*62
$GAGSV,2,2,8,2,35,124,33.4,15,47,209,37.3,27,32,314,33.7,30,84,038,34.8*62
$GPRMC,195801.00,A,3725.464022,N,12205.247686,W,000.1,,060522,,,A*6C
$GPGGA,195802.00,3725.464321,N,12205.247558,W,1,23,0.62,-26.12,M,0.0,M,0.0,0000*70
$GPGSV,3,1,10,2,73,176,31.1,6,52,055,39.0,12,62,327,42.5,17,11,064,32.3*70
$GPGSV,3,2,10,19,28,056,42.4,24,46,228,47.1,25,21,309,38.0,6,52,055,37.2*46
$GPGSV,3,3,10,24,46,228,40.5,25,21,309,35.4*79
$GLGSV,2,1,5,15,52,147,33.7,9,14,327,44.5,17,35,030,47.3,18,75,311,39.1*6A
$GLGSV,2,2,5,19,39,234,38.6*74
$GAGSV,2,1,8,2,35,124,36.4,15,47,209,41.7,27,32,314,40.1,30,84,038,35.3*69
$GAGSV,2,2,8,2,35,124,33.3,15,47,209,37.0,27,32,314,33.6,30,84,038,34.6*69
$GPRMC,195802.00,A,3725.464321,N,12205.247558,W,000.1,,060522,,,A*6F
$GPGGA,195803.00,3725.464531,N,12205.247157,W,1,23,0.62,-26.03,M,0.0,M,0.0,0000*7D
$GPGSV,3,1,10,2,73,176,31.9,6,52,055,39.0,12,62,327,43.0,17,11,064,30.6*7B
$GPGSV,3,2,10,19,28,056,40.8,24,46,228,46.8,25,21,309,39.5,6,52,055,37.9*4F
$GPGSV,3,3,10,24,46,228,40.7,25,21,309,35.5*7A
$GLGSV,2,1,5,15,52,147,34.3,9,14,327,44.1,17,35,030,46.6,18,75,311,38.8*61
$GLGSV,2,2,5,19,39,234,38.7*75
$GAGSV,2,1,8,2,35,124,36.3,15,47,209,41.9,27,32,314,40.6,30,84,038,36.1*66
$GAGSV,2,2,8,2,35,124,33.4,15,47,209,37.1,27,32,314,34.2,30,84,038,34.6*6C
$GPRMC,195803.00,A,3725.464531,N,12205.247157,W,000.0,,060522,,,A*63
$GPGGA,195804.00,3725.463927,N,12205.247113,W,1,23,0.62,-25.95,M,0.0,M,0.0,0000*7A
$GPGSV,3,1,10,2,73,176,31.4,6,52,055,38.9,12,62,327,43.5,17,11,064,27.8*73
$GPGSV,3,2,10,19,28,056,41.6,24,46,228,46.5,25,21,309,39.9,6,52,055,37.7*4F
$GPGSV,3,3,10,24,46,228,40.6,25,21,309,34.7*78
$GLGSV,2,1,5,15,52,147,30.5,9,14,327,43.9,17,35,030,46.4,18,75,311,38.5*63
$GLGSV,2,2,5,19,39,234,38.8*7A
$GAGSV,2,1,8,2,35,124,34.8,15,47,209,41.3,27,32,314,40.5,30,84,038,35.4*60
$GAGSV,2,2,8,2,35,124,32.0,15,47,209,36.3,27,32,314,34.6,30,84,038,34.2*6A
$GPRMC,195804.00,A,3725.463927,N,12205.247113,W,000.0,,060522,,,A*68
$GPGGA,195805.00,3725.464155,N,12205.247310,W,1,23,0.62,-28.07,M,0.0,M,0.0,0000*76
$GPGSV,3,1,10,2,73,176,31.1,6,52,055,38.2,12,62,328,44.0,17,11,064,28.6*71
$GPGSV,3,2,10,19,28,056,41.7,24,46,228,46.6,25,21,309,39.1,6,52,055,36.7*44
$GPGSV,3,3,10,24,46,228,40.8,25,21,309,34.9*78
$GLGSV,2,1,5,15,52,147,30.8,9,14,327,43.4,17,35,030,46.2,18,75,312,39.4*66
$GLGSV,2,2,5,19,39,234,38.8*7A
$GAGSV,2,1,8,2,35,124,34.5,15,47,209,42.1,27,32,314,40.2,30,84,038,35.0*6F
$GAGSV,2,2,8,2,35,124,32.7,15,47,209,36.8,27,32,314,33.7,30,84,038,34.6*64
$GPRMC,195805.00,A,3725.464155,N,12205.247310,W,000.1,,060522,,,A*63
$GPGGA,195806.00,3725.464116,N,12205.247448,W,1,23,0.62,-25.13,M,0.0,M,0.0,0000*70
$GPGSV,3,1,10,2,73,176,32.4,6,52,055,38.6,12,62,328,43.7,17,11,064,32.0*7E
$GPGSV,3,2,10,19,28,056,42.2,24,46,228,47.0,25,21,309,37.8,6,52,055,38.3*48
$GPGSV,3,3,10,24,46,228,41.9,25,21,309,36.4*77
$GLGSV,2,1,5,15,52,147,34.2,9,14,327,43.8,17,35,030,46.9,18,75,312,39.8*63
$GLGSV,2,2,5,19,39,234,39.5*76
$GAGSV,2,1,8,2,35,124,36.0,15,47,209,42.9,27,32,314,41.2,30,84,038,35.6*67
$GAGSV,2,2,8,2,35,124,33.8,15,47,209,38.2,27,32,314,34.0,30,84,038,35.7*6E
$GPRMC,195806.00,A,3725.464116,N,12205.247448,W,000.0,,060522,,,A*6C
$GPGGA,195807.00,3725.464182,N,12205.247330,W,1,23,0.62,-28.06,M,0.0,M,0.0,0000*7D
$GPGSV,3,1,10,2,73,176,34.0,6,52,055,39.1,12,62,328,43.9,17,11,064,32.8*7C
$GPGSV,3,2,10,19,28,056,42.0,24,46,228,47.4,25,21,309,37.8,6,52,055,38.8*45
$GPGSV,3,3,10,24,46,228,42.2,25,21,309,37.1*7B
$GLGSV,2,1,5,15,52,147,35.3,9,14,327,44.4,17,35,030,47.4,18,75,312,40.2*60
$GLGSV,2,2,5,19,39,234,40.2*7F
$GAGSV,2,1,8,2,35,124,36.6,15,47,209,43.3,27,32,314,41.5,30,84,038,35.7*6C
$GAGSV,2,2,8,2,35,124,34.7,15,47,209,38.8,27,32,314,35.0,30,84,038,36.0*69
$GPRMC,195807.00,A,3725.464182,N,12205.247330,W,000.0,,060522,,,A*68
$GPGGA,195808.00,3725.464360,N,12205.247195,W,1,23,0.62,-28.50,M,0.0,M,0.0,0000*72
$GPGSV,3,1,10,2,73,176,35.0,6,52,054,39.9,12,62,328,45.2,17,11,064,30.7*74
$GPGSV,3,2,10,19,28,056,39.6,24,46,228,48.4,25,21,309,39.3,6,52,054,38.7*4B
$GPGSV,3,3,10,24,46,228,41.8,25,21,309,37.4*77
$GLGSV,2,1,5,15,52,147,36.0,9,14,327,44.6,17,35,030,47.9,18,75,312,39.4*67
$GLGSV,2,2,5,19,39,234,40.0*7D
$GAGSV,2,1,8,2,35,124,34.5,15,47,209,42.8,27,32,314,40.8,30,84,038,36.7*68
$GAGSV,2,2,8,2,35,124,32.3,15,47,209,38.5,27,32,314,35.3,30,84,038,36.2*67
$GPRMC,195808.00,A,3725.464360,N,12205.247195,W,000.1,,060522,,,A*65
$GPGGA,195809.00,3725.464074,N,12205.247903,W,1,23,0.62,-26.85,M,0.0,M,0.0,0000*74
$GPGSV,3,1,10,2,73,176,35.4,6,52,054,39.9,12,62,328,45.6,17,11,064,28.5*7F
$GPGSV,3,2,10,19,28,056,37.7,24,46,228,48.8,25,21,309,39.7,6,52,054,38.5*4E
$GPGSV,3,3,10,24,46,228,41.9,25,21,309,37.6*74
$GLGSV,2,1,5,15,52,147,36.7,9,14,327,44.7,17,35,030,48.0,18,75,312,38.9*6B
$GLGSV,2,2,5,19,39,234,39.6*75
$GAGSV,2,1,8,2,35,124,33.5,15,47,209,42.5,27,32,314,40.8,30,84,038,37.4*60
$GAGSV,2,2,8,2,35,124,30.6,15,47,209,38.8,27,32,314,35.5,30,84,038,36.3*6A
$GPRMC,195809.00,A,3725.464074,N,12205.247903,W,000.0,,060522,,,A*64
$GPGGA,195810.00,3725.463791,N,12205.247180,W,1,23,0.62,-27.40,M,0.0,M,0.0,0000*7C
$GPGSV,3,1,10,2,73,176,35.9,6,52,054,39.7,12,62,328,45.8,17,11,064,27.8*70
$GPGSV,3,2,10,19,28,056,37.7,24,46,228,48.7,25,21,309,39.8,6,52,054,38.5*4E
$GPGSV,3,3,10,24,46,228,41.7,25,21,309,37.6*7A
$GLGSV,2,1,5,15,52,147,36.8,9,14,327,44.9,17,35,030,48.0,18,75,312,38.8*6B
$GLGSV,2,2,5,19,39,234,39.9*7A
$GAGSV,2,1,8,2,35,124,33.7,15,47,209,42.5,27,32,314,40.8,30,84,038,37.1*67
$GAGSV,2,2,8,2,35,124,30.4,15,47,209,39.0,27,32,314,35.0,30,84,038,36.5*62
$GPRMC,195810.00,A,3725.463791,N,12205.247180,W,000.1,,060522,,,A*65
$GPGGA,195811.00,3725.463675,N,12205.247469,W,1,23,0.62,-26.97,M,0.0,M,0.0,0000*7F
$GPGSV,3,1,10,2,73,176,36.5,6,52,054,40.8,12,62,328,44.5,17,11,064,25.9*71
$GPGSV,3,2,10,19,28,056,38.2,24,46,228,48.2,25,21,309,39.7,6,52,054,38.7*4C
$GPGSV,3,3,10,24,46,228,41.6,25,21,309,37.7*7A
$GLGSV,2,1,5,15,52,147,37.3,9,14,327,44.9,17,35,030,47.7,18,75,312,39.6*66
$GLGSV,2,2,5,19,39,234,40.0*7D
$GAGSV,2,1,8,2,35,124,36.2,15,47,209,42.8,27,32,314,41.0,30,84,038,36.2*61
$GAGSV,2,2,8,2,35,124,32.0,15,47,209,38.1,27,32,314,35.4,30,84,038,36.0*65
$GPRMC,195811.00,A,3725.463675,N,12205.247469,W,000.1,,060522,,,A*6D
$GPGGA,195812.00,3725.464348,N,12205.247590,W,1,23,0.62,-27.49,M,0.0,M,0.0,0000*75
$GPGSV,3,1,10,2,73,176,35.9,6,52,054,39.9,12,62,328,44.7,17,11,064,27.3*7B
$GPGSV,3,2,10,19,28,056,38.4,24,46,228,48.3,25,21,309,39.7,6,52,054,38.4*48
$GPGSV,3,3,10,24,46,228,41.4,25,21,309,37.9*76
$GLGSV,2,1,5,15,52,147,38.1,9,14,327,44.6,17,35,030,47.9,18,75,312,39.5*69
$GLGSV,2,2,5,19,39,234,40.0*7D
$GAGSV,2,1,8,2,35,124,36.2,15,47,209,42.9,27,32,314,41.3,30,84,038,36.4*65
$GAGSV,2,2,8,2,35,124,32.1,15,47,209,38.2,27,32,314,35.4,30,84,038,36.0*67
$GPRMC,195812.00,A,3725.464348,N,12205.247590,W,000.0,,060522,,,A*64
$GPGGA,195813.00,3725.463955,N,12205.247254,W,1,23,0.62,-27.34,M,0.0,M,0.0,0000*70
$GPGSV,3,1,10,2,73,176,35.0,6,52,054,38.5,12,62,328,44.2,17,11,064,27.6*7F
$GPGSV,3,2,10,19,28,056,38.9,24,46,228,47.8,25,21,309,39.1,6,52,054,38.4*47
$GPGSV,3,3,10,24,46,228,41.4,25,21,309,37.7*78
$GLGSV,2,1,5,15,52,147,38.3,9,14,327,44.7,17,35,030,47.7,18,75,312,39.9*68
$GLGSV,2,2,5,19,39,234,40.1*7C
$GAGSV,2,1,8,2,35,124,37.3,15,47,209,43.2,27,32,314,41.2,30,84,038,36.2*68
$GAGSV,2,2,8,2,35,124,33.2,15,47,209,38.4,27,32,314,35.4,30,84,038,35.7*67
$GPRMC,195813.00,A,3725.463955,N,12205.247254,W,000.0,,060522,,,A*6B
$GPGGA,195814.00,3725.463898,N,12205.247481,W,1,23,0.62,-26.77,M,0.0,M,0.0,0000*7F
$GPGSV,3,1,10,2,73,176,34.5,6,52,054,38.6,12,62,328,43.7,17,11,064,26.6*7B
$GPGSV,3,2,10,19,28,056,39.3,24,46,228,47.3,25,21,309,38.5,6,52,054,38.3*45
$GPGSV,3,3,10,24,46,228,41.4,25,21,309,37.8*77
$GLGSV,2,1,5,15,52,147,37.7,9,14,327,44.3,17,35,030,47.1,18,75,312,39.9*61
$GLGSV,2,2,5,19,39,234,39.9*7A
$GAGSV,2,1,8,2,35,124,37.3,15,47,209,43.2,27,32,314,41.5,30,84,038,36.4*69
$GAGSV,2,2,8,2,35,124,34.0,15,47,209,38.4,27,32,314,35.2,30,84,038,35.5*66
$GPRMC,195814.00,A,3725.463898,N,12205.247481,W,000.1,,060522,,,A*63
$GPGGA,195815.00,3725.464012,N,12205.247281,W,1,23,0.62,-27.10,M,0.0,M,0.0,0000*75
$GPGSV,3,1,10,2,73,175,32.0,6,52,054,40.4,12,62,328,43.9,17,11,064,31.4*7C
$GPGSV,3,2,10,19,28,056,41.6,24,46,228,47.2,25,21,309,38.6,6,52,054,38.5*4B
$GPGSV,3,3,10,24,46,228,42.2,25,21,309,37.7*7D
$GLGSV,2,1,5,15,52,147,36.3,9,14,327,43.3,17,35,030,46.4,18,75,312,39.7*69
$GLGSV,2,2,5,19,39,234,39.8*7B
$GAGSV,2,1,8,2,35,124,37.3,15,47,209,43.2,27,32,314,40.6,30,84,038,34.6*6B
$GAGSV,2,2,8,2,35,124,35.0,15,47,209,38.6,27,32,314,35.2,30,84,038,36.0*63
$GPRMC,195815.00,A,3725.464012,N,12205.247281,W,000.0,,060522,,,A*68
$GPGGA,195816.00,3725.464174,N,12205.247470,W,1,23,0.62,-27.70,M,0.0,M,0.0,0000*79
$GPGSV,3,1,10,2,73,175,32.8,6,52,054,40.2,12,62,328,43.0,17,11,064,31.0*7F
$GPGSV,3,2,10,19,28,056,42.4,24,46,228,46.6,25,21,309,41.3,6,52,054,38.1*40
$GPGSV,3,3,10,24,46,228,42.5,25,21,309,37.9*74
$GLGSV,2,1,5,15,52,147,34.6,9,14,327,44.4,17,35,030,46.1,18,75,312,37.3*61
$GLGSV,2,2,5,19,39,234,38.7*75
$GAGSV,2,1,8,2,35,124,36.6,15,47,209,42.6,27,32,314,41.1,30,84,038,35.4*6F
$GAGSV,2,2,8,2,35,124,35.1,15,47,209,38.3,27,32,314,36.0,30,84,038,35.6*63
$GPRMC,195816.00,A,3725.464174,N,12205.247470,W,000.1,,060522,,,A*63
$GPGGA,195817.00,3725.464339,N,12205.247397,W,1,23,0.62,-24.83,M,0.0,M,0.0,0000*72
$GPGSV,3,1,10,2,73,175,33.3,6,52,054,40.3,12,62,328,42.8,17,11,064,29.2*76
$GPGSV,3,2,10,19,28,056,41.6,24,46,228,46.7,25,21,309,41.0,6,52,054,36.8*44
$GPGSV,3,3,10,24,46,228,40.8,25,21,309,37.8*7A
$GLGSV,2,1,5,15,52,147,34.6,9,14,327,44.3,17,35,030,46.2,18,75,312,38.3*6A
$GLGSV,2,2,5,19,39,234,38.2*70
$GAGSV,2,1,8,2,35,124,36.0,15,47,209,42.6,27,32,314,41.1,30,84,038,36.5*6B
$GAGSV,2,2,8,2,35,124,34.9,15,47,209,37.1,27,32,314,35.6,30,84,038,35.0*64
$GPRMC,195817.00,A,3725.464339,N,12205.247397,W,000.1,,060522,,,A*67
$GPGGA,195818.00,3725.464224,N,12205.247331,W,1,23,0.62,-26.10,M,0.0,M,0.0,0000*74
$GPGSV,3,1,10,2,73,175,33.9,6,52,054,37.8,12,62,328,40.3,17,11,064,29.0*7C
$GPGSV,3,2,10,19,28,056,39.7,24,46,228,45.6,25,21,309,41.1,6,52,054,37.5*45
$GPGSV,3,3,10,24,46,228,41.5,25,21,309,37.3*7D
$GLGSV,2,1,5,15,52,147,31.7,9,14,327,44.0,17,35,030,44.2,18,75,312,35.6*67
$GLGSV,2,2,5,19,39,234,37.4*79
$GAGSV,2,1,8,2,35,124,35.7,15,47,209,42.1,27,32,314,40.7,30,84,038,33.5*6A
$GAGSV,2,2,8,2,35,124,34.1,15,47,209,37.2,27,32,314,36.0,30,84,038,34.5*6E
$GPRMC,195818.00,A,3725.464224,N,12205.247331,W,000.1,,060522,,,A*69
$GPGGA,195819.00,3725.464332,N,12205.247233,W,1,23,0.62,-26.28,M,0.0,M,0.0,0000*7B
$GPGSV,3,1,10,2,73,175,32.9,6,52,054,40.5,12,62,328,42.4,17,11,064,29.5*70
$GPGSV,3,2,10,19,28,056,41.9,24,46,228,46.3,25,21,309,40.7,6,52,054,35.9*4B
$GPGSV,3,3,10,24,46,228,42.3,25,21,309,36.5*7F
$GLGSV,2,1,5,15,52,147,30.6,9,14,327,44.4,17,35,030,45.4,18,75,312,37.0*60
$GLGSV,2,2,5,19,39,234,37.9*74
$GAGSV,2,1,8,2,35,124,35.7,15,47,209,41.7,27,32,314,40.8,30,84,038,33.9*6C
$GAGSV,2,2,8,2,35,124,34.7,15,47,209,38.2,27,32,314,35.6,30,84,038,33.9*69
$GPRMC,195819.00,A,3725.464332,N,12205.247233,W,000.1,,060522,,,A*6D
$GPGGA,195820.00,3725.464122,N,12205.247406,W,1,23,0.62,-26.06,M,0.0,M,0.0,0000*7E
$GPGSV,3,1,10,2,73,175,32.7,6,52,054,39.3,12,62,328,42.1,17,11,064,30.9*77
$GPGSV,3,2,10,19,28,056,40.9,24,46,228,46.1,25,21,309,41.3,6,52,054,36.0*47
$GPGSV,3,3,10,24,46,228,41.8,25,21,309,35.0*71
$GLGSV,2,1,5,15,51,147,29.4,9,14,327,44.4,17,35,030,44.3,18,75,312,36.7*69
$GLGSV,2,2,5,19,39,234,37.8*75
$GAGSV,2,1,8,2,35,124,36.0,15,47,209,41.3,27,32,314,41.0,30,84,039,33.0*6D
$GAGSV,2,2,8,2,35,124,34.2,15,47,209,37.8,27,32,314,35.3,30,84,039,33.4*60
$GPRMC,195820.00,A,3725.464122,N,12205.247406,W,000.1,,060522,,,A*64
$GPGGA,195821.00,3725.463598,N,12205.247468,W,1,23,0.62,-26.94,M,0.0,M,0.0,0000*7E
$GPGSV,3,1,10,2,73,175,31.8,6,52,054,41.1,12,62,328,43.5,17,11,064,32.4*7C
$GPGSV,3,2,10,19,28,056,42.7,24,46,228,46.7,25,21,309,41.4,6,52,054,36.2*48
$GPGSV,3,3,10,24,46,228,41.5,25,21,309,34.9*74
$GLGSV,2,1,5,15,51,147,29.4,9,14,327,44.5,17,35,030,46.2,18,75,312,38.6*64
$GLGSV,2,2,5,19,39,234,38.5*77
$GAGSV,2,1,8,2,35,124,36.1,15,47,209,41.5,27,32,314,41.6,30,84,039,34.1*6A
$GAGSV,2,2,8,2,35,124,34.9,15,47,209,37.6,27,32,314,35.2,30,84,039,33.8*68
$GPRMC,195821.00,A,3725.463598,N,12205.247468,W,000.1,,060522,,,A*6F
$GPGGA,195822.00,3725.464052,N,12205.247281,W,1,23,0.62,-25.66,M,0.0,M,0.0,0000*76
$GPGSV,3,1,10,2,73,175,32.3,6,52,054,40.4,12,62,328,44.0,17,11,064,31.2*77
$GPGSV,3,2,10,19,28,056,41.5,24,46,228,46.8,25,21,309,40.9,6,52,054,36.9*41
$GPGSV,3,3,10,24,46,228,41.8,25,21,309,36.0*72
$GLGSV,2,1,5,15,51,147,31.4,9,14,327,44.2,17,35,030,46.8,18,75,312,39.5*62
$GLGSV,2,2,5,19,39,234,38.6*74
$GAGSV,2,1,8,2,35,124,35.2,15,47,209,42.3,27,32,314,41.0,30,84,039,35.5*6C
$GAGSV,2,2,8,2,35,124,35.8,15,47,209,37.8,27,32,314,35.6,30,84,039,35.0*6C
$GPRMC,195822.00,A,3725.464052,N,12205.247281,W,000.1,,060522,,,A*69
$GPGGA,195823.00,3725.463911,N,12205.247024,W,1,23,0.62,-28.85,M,0.0,M,0.0,0000*73
$GPGSV,3,1,10,2,73,175,31.4,6,52,054,40.0,12,62,328,44.6,17,11,064,31.4*77
$GPGSV,3,2,10,19,28,056,40.9,24,46,228,46.9,25,21,309,39.6,6,52,054,36.6*43
$GPGSV,3,3,10,24,46,228,41.3,25,21,309,35.3*79
$GLGSV,2,1,5,15,51,147,34.2,9,14,327,42.9,17,35,030,46.6,18,75,312,40.5*6C
$GLGSV,2,2,5,19,39,234,39.3*70
$GAGSV,2,1,8,2,35,124,35.9,15,47,209,42.3,27,32,314,41.3,30,84,039,36.4*66
$GAGSV,2,2,8,2,35,124,36.3,15,47,209,38.0,27,32,314,34.4,30,84,039,34.7*66
$GPRMC,195823.00,A,3725.463911,N,12205.247024,W,000.1,,060522,,,A*6C
$GPGGA,195824.00,3725.463893,N,12205.247281,W,1,23,0.62,-26.38,M,0.0,M,0.0,0000*7A
$GPGSV,3,1,10,2,73,175,30.9,6,52,054,40.1,12,62,328,44.9,17,11,064,32.0*72
$GPGSV,3,2,10,19,28,056,41.3,24,46,228,47.1,25,21,309,39.4,6,52,054,37.1*45
$GPGSV,3,3,10,24,46,228,41.7,25,21,309,35.0*7E
$GLGSV,2,1,5,15,51,147,35.0,9,14,327,43.1,17,35,030,46.7,18,75,312,40.8*6A
$GLGSV,2,2,5,19,39,234,39.8*7B
$GAGSV,2,1,8,2,35,124,36.6,15,47,209,42.6,27,32,314,41.0,30,84,039,36.5*6D
$GAGSV,2,2,8,2,35,124,36.1,15,47,209,38.0,27,32,314,34.2,30,84,039,34.9*6C
$GPRMC,195824.00,A,3725.463893,N,12205.247281,W,000.1,,060522,,,A*6D
$GPGGA,195825.00,3725.463751,N,12205.247466,W,1,23,0.62,-26.31,M,0.0,M,0.0,0000*7C
$GPGSV,3,1,10,2,73,175,31.4,6,52,054,39.9,12,62,328,44.7,17,11,064,31.2*77
$GPGSV,3,2,10,19,28,056,41.9,24,46,228,47.0,25,21,309,39.6,6,52,054,36.7*4B
$GPGSV,3,3,10,24,46,228,41.8,25,21,309,35.4*75
$GLGSV,2,1,5,15,51,147,34.7,9,14,327,43.4,17,35,030,46.8,18,75,312,40.7*69
$GLGSV,2,2,5,19,39,234,39.8*7B
$GAGSV,2,1,8,2,35,124,36.5,15,47,209,42.7,27,32,314,41.2,30,84,039,36.5*6D
$GAGSV,2,2,8,2,35,124,36.1,15,47,209,38.2,27,32,314,34.5,30,84,039,35.1*60
$GPRMC,195825.00,A,3725.463751,N,12205.247466,W,000.0,,060522,,,A*63
$GPGGA,195826.00,3725.463783,N,12205.247326,W,1,23,0.62,-27.87,M,0.0,M,0.0,0000*7F
$GPGSV,3,1,10,2,73,175,34.8,6,52,054,39.0,12,62,328,44.7,17,11,064,29.1*7D
$GPGSV,3,2,10,19,28,056,40.0,24,46,228,47.1,25,21,309,39.6,6,52,054,37.5*41
$GPGSV,3,3,10,24,46,228,41.3,25,21,309,35.9*73
$GLGSV,2,1,5,15,51,147,35.7,9,14,327,44.6,17,35,030,47.4,18,75,312,40.8*6F
$GLGSV,2,2,5,19,39,234,40.0*7D
$GAGSV,2,1,8,2,35,124,37.0,15,47,209,42.5,27,32,314,42.3,30,84,039,36.6*6A
$GAGSV,2,2,8,2,35,124,35.1,15,47,209,37.9,27,32,314,34.9,30,84,039,34.7*6C
$GPRMC,195826.00,A,3725.463783,N,12205.247326,W,000.1,,060522,,,A*6D
$GPGGA,195827.00,3725.464078,N,12205.247468,W,1,23,0.62,-26.14,M,0.0,M,0.0,0000*7C
$GPGSV,3,1,10,2,73,175,35.5,6,52,054,39.5,12,62,328,44.6,17,11,064,30.6*7A
$GPGSV,3,2,10,19,28,056,39.7,24,46,228,47.7,25,21,309,40.3,6,52,054,38.2*4D
$GPGSV,3,3,10,24,46,228,41.4,25,21,309,36.1*7F
$GLGSV,2,1,5,15,51,147,36.2,9,14,327,44.5,17,35,030,47.5,18,75,312,39.9*64
$GLGSV,2,2,5,19,39,234,40.0*7D
$GAGSV,2,1,8,2,35,124,36.9,15,47,209,42.5,27,32,314,41.8,30,84,039,36.5*69
$GAGSV,2,2,8,2,35,124,34.4,15,47,209,38.0,27,32,314,35.2,30,84,039,35.1*63
$GPRMC,195827.00,A,3725.464078,N,12205.247468,W,000.0,,060522,,,A*64
$GPGGA,195828.00,3725.464348,N,12205.247260,W,1,23,0.62,-25.68,M,0.0,M,0.0,0000*75
$GPGSV,3,1,10,2,73,175,35.1,6,52,054,38.8,12,62,328,42.2,17,11,064,32.5*71
$GPGSV,3,2,10,19,28,056,43.0,24,46,228,47.2,25,21,309,41.9,6,52,054,36.9*4C
$GPGSV,3,3,10,24,46,228,41.6,25,21,309,36.1*7D
$GLGSV,2,1,5,15,51,147,35.2,9,14,327,44.9,17,35,030,47.6,18,75,312,39.5*64
$GLGSV,2,2,5,19,39,234,38.9*7B
$GAGSV,2,1,8,2,35,124,35.9,15,47,209,42.3,27,32,314,42.2,30,84,039,36.7*67
$GAGSV,2,2,8,2,35,124,35.6,15,47,209,37.3,27,32,314,36.3,30,84,039,34.8*66
$GPRMC,195828.00,A,3725.464348,N,12205.247260,W,000.1,,060522,,,A*64
$GPGGA,195829.00,3725.464240,N,12205.247314,W,1,23,0.62,-25.16,M,0.0,M,0.0,0000*76
$GPGSV,3,1,10,2,73,175,34.1,6,52,054,40.9,12,62,328,43.7,17,11,064,32.1*7E
$GPGSV,3,2,10,19,28,056,41.9,24,46,228,46.6,25,21,309,40.2,6,52,054,36.3*42
$GPGSV,3,3,10,24,46,228,40.6,25,21,309,35.6*78
$GLGSV,2,1,5,15,51,147,33.0,9,14,327,44.3,17,35,030,45.8,18,75,312,38.9*6B
$GLGSV,2,2,5,19,39,234,38.0*72
$GAGSV,2,1,8,2,35,124,35.6,15,47,209,41.7,27,32,314,40.6,30,84,039,36.5*6B
$GAGSV,2,2,8,2,35,124,34.8,15,47,209,36.8,27,32,314,35.5,30,84,039,34.2*6C
$GPRMC,195829.00,A,3725.464240,N,12205.247314,W,000.1,,060522,,,A*6E
$GPGGA,195830.00,3725.464339,N,12205.247200,W,1,23,0.62,-26.15,M,0.0,M,0.0,0000*75
$GPGSV,3,1,10,2,73,175,34.3,6,52,054,39.8,12,62,328,44.1,17,11,064,32.8*7B
$GPGSV,3,2,10,19,28,056,39.6,24,46,228,46.2,25,21,309,39.3,6,52,054,36.6*4C
$GPGSV,3,3,10,24,46,228,41.0,25,21,309,36.0*7A
$GLGSV,2,1,5,15,51,147,33.2,9,14,327,43.8,17,35,030,47.5,18,75,312,40.4*68
$GLGSV,2,2,5,19,39,234,38.6*74
$GAGSV,2,1,8,2,35,124,35.2,15,47,209,42.1,27,32,314,41.2,30,84,039,35.0*69
$GAGSV,2,2,8,2,35,124,34.9,15,47,209,37.2,27,32,314,35.3,30,84,039,34.2*60
$GPRMC,195830.00,A,3725.464339,N,12205.247200,W,000.1,,060522,,,A*6D
$GPGGA,195831.00,3725.464209,N,12205.247368,W,1,23,0.62,-25.95,M,0.0,M,0.0,0000*72
$GPGSV,3,1,10,2,73,175,34.3,6,52,054,39.1,12,62,328,44.2,17,11,064,34.2*7D
$GPGSV,3,2,10,19,28,056,39.3,24,46,228,47.5,25,21,309,39.2,6,52,054,37.2*4B
$GPGSV,3,3,10,24,46,228,41.4,25,21,309,36.1*7F
$GLGSV,2,1,5,15,51,147,36.2,9,14,327,44.1,17,35,030,47.4,18,75,312,40.4*62
$GLGSV,2,2,5,19,39,234,39.6*75
$GAGSV,2,1,8,2,35,124,37.0,15,47,209,42.2,27,32,314,42.1,30,84,039,36.5*6C
$GAGSV,2,2,8,2,35,124,33.9,15,47,209,37.8,27,32,314,35.0,30,84,039,34.3*6F
$GPRMC,195831.00,A,3725.464209,N,12205.247368,W,000.1,,060522,,,A*61
$GPGGA,195832.00,3725.464004,N,12205.247693,W,1,23,0.62,-25.72,M,0.0,M,0.0,0000*76
$GPGSV,3,1,10,2,73,175,33.6,6,52,054,39.5,12,62,328,43.7,17,11,064,37.9*71
$GPGSV,3,2,10,19,28,056,41.8,24,46,228,47.5,25,21,309,40.0,6,52,054,38.4*4A
$GPGSV,3,3,10,24,46,228,41.2,25,21,309,36.4*7C
$GLGSV,2,1,5,15,51,147,35.9,9,14,327,44.5,17,35,030,47.9,18,75,312,40.0*67
$GLGSV,2,2,5,19,39,234,40.0*7D
$GAGSV,2,1,8,2,35,124,37.2,15,47,209,42.2,27,32,314,41.6,30,84,039,36.4*6B
$GAGSV,2,2,8,2,35,124,33.0,15,47,209,37.4,27,32,314,35.6,30,84,039,34.4*6B
$GPRMC,195832.00,A,3725.464004,N,12205.247693,W,000.1,,060522,,,A*6C
$GPGGA,195833.00,3725.464059,N,12205.247995,W,1,23,0.62,-25.03,M,0.0,M,0.0,0000*70
$GPGSV,3,1,10,2,73,175,34.8,6,52,054,38.1,12,62,328,44.3,17,11,064,38.7*7F
$GPGSV,3,2,10,19,28,056,38.8,24,46,228,48.7,25,21,309,39.3,6,52,054,38.8*48
$GPGSV,3,3,10,24,46,228,42.3,25,21,309,36.0*7A
$GLGSV,2,1,5,15,51,147,35.9,9,14,327,44.8,17,35,030,47.1,18,75,312,40.6*64
$GLGSV,2,2,5,19,39,234,40.2*7F
$GAGSV,2,1,8,2,35,124,33.6,15,47,209,41.8,27,32,314,40.4,30,84,039,36.4*61
$GAGSV,2,2,8,2,35,124,28.5,15,47,209,37.8,27,32,314,35.8,30,84,039,34.7*65
$GPRMC,195833.00,A,3725.464059,N,12205.247995,W,000.2,,060522,,,A*6F
$GPGGA,195834.00,3725.463814,N,12205.247972,W,1,23,0.62,-24.75,M,0.0,M,0.0,0000*78
$GPGSV,3,1,10,2,73,175,33.9,6,52,054,37.2,12,62,328,43.7,17,11,064,36.6*79
$GPGSV,3,2,10,19,28,056,39.0,24,46,228,48.3,25,21,309,38.1,6,52,054,39.0*4F
$GPGSV,3,3,10,24,46,228,41.6,25,21,309,37.4*79
$GLGSV,2,1,5,15,51,147,36.3,9,14,327,44.6,17,35,030,47.4,18,75,313,40.1*60
$GLGSV,2,2,5,19,39,234,40.1*7C
$GAGSV,2,1,8,2,35,124,35.5,15,47,209,41.9,27,32,314,40.2,30,84,039,35.8*6C
$GAGSV,2,2,8,2,35,124,28.0,15,47,209,37.6,27,32,314,36.3,30,84,039,34.5*64
$GPRMC,195834.00,A,3725.463814,N,12205.247972,W,000.0,,060522,,,A*65
$GPGGA,195835.00,3725.464611,N,12205.248025,W,1,23,0.62,-23.68,M,0.0,M,0.0,0000*7A
$GPGSV,3,1,10,2,73,175,34.3,6,52,054,37.6,12,62,328,43.6,17,11,064,38.1*78
$GPGSV,3,2,10,19,28,056,38.8,24,46,228,48.6,25,21,309,38.7,6,52,054,39.2*47
$GPGSV,3,3,10,24,46,228,42.0,25,21,309,37.9*71
$GLGSV,2,1,5,15,51,147,36.5,9,14,327,44.9,17,35,030,47.5,18,75,313,40.2*6B
$GLGSV,2,2,5,19,39,234,40.4*79
$GAGSV,2,1,8,2,35,124,33.6,15,47,209,42.1,27,32,314,39.8,30,84,039,35.3*6D
$GAGSV,2,2,8,2,35,124,26.3,15,47,209,38.1,27,32,314,36.6,30,84,039,34.6*67
$GPRMC,195835.00,A,3725.464611,N,12205.248025,W,000.0,,060522,,,A*6C
$GPGGA,195836.00,3725.464035,N,12205.247479,W,1,23,0.62,-25.83,M,0.0,M,0.0,0000*78
$GPGSV,3,1,10,2,73,175,33.7,6,52,054,38.3,12,62,328,43.5,17,11,064,36.9*74
$GPGSV,3,2,10,19,28,057,38.8,24,46,228,48.1,25,21,309,37.5,6,52,054,38.9*46
$GPGSV,3,3,10,24,46,228,41.5,25,21,309,38.1*70
$GLGSV,2,1,5,15,51,147,36.4,9,14,327,44.4,17,35,030,47.5,18,75,313,40.0*65
$GLGSV,2,2,5,19,39,234,40.1*7C
$GAGSV,2,1,8,2,35,124,33.1,15,47,209,41.9,27,32,314,40.8,30,84,039,35.7*6B
$GAGSV,2,2,8,2,35,124,28.0,15,47,209,37.6,27,32,314,36.3,30,84,039,34.7*66
$GPRMC,195836.00,A,3725.464035,N,12205.247479,W,000.1,,060522,,,A*6C
$GPGGA,195837.00,3725.463979,N,12205.248180,W,1,23,0.62,-25.21,M,0.0,M,0.0,0000*7B
$GPGSV,3,1,10,2,73,175,32.7,6,52,054,39.7,12,62,328,43.6,17,11,064,33.8*77
$GPGSV,3,2,10,19,28,057,40.5,24,46,228,46.8,25,21,309,36.5,6,52,054,38.2*49
$GPGSV,3,3,10,24,46,228,40.9,25,21,309,38.6*7A
$GLGSV,2,1,5,15,51,147,36.6,9,14,327,43.4,17,35,030,47.7,18,75,313,40.0*62
$GLGSV,2,2,5,19,39,234,40.0*7D
$GAGSV,2,1,8,2,35,124,35.0,15,47,209,42.1,27,32,314,41.3,30,84,039,36.1*68
$GAGSV,2,2,8,2,35,124,31.4,15,47,209,37.3,27,32,314,35.6,30,84,039,35.3*6C
$GPRMC,195837.00,A,3725.463979,N,12205.248180,W,000.0,,060522,,,A*66
$GPGGA,195838.00,3725.464363,N,12205.248294,W,1,23,0.62,-23.67,M,0.0,M,0.0,0000*70
$GPGSV,3,1,10,2,73,175,31.3,6,52,054,40.3,12,62,328,43.6,17,11,064,30.9*78
$GPGSV,3,2,10,19,28,057,42.0,24,46,228,46.6,25,21,309,38.1,6,52,054,38.2*4A
$GPGSV,3,3,10,24,46,228,41.8,25,21,309,38.9*75
$GLGSV,2,1,5,15,51,147,35.5,9,14,327,43.9,17,35,030,47.7,18,75,313,40.2*6D
$GLGSV,2,2,5,19,39,234,39.6*75
$GAGSV,2,1,8,2,35,124,36.3,15,47,209,42.8,27,32,314,40.5,30,84,040,35.9*63
$GAGSV,2,2,8,2,35,124,32.3,15,47,209,38.1,27,32,314,35.0,30,84,040,35.6*68
$GPRMC,195838.00,A,3725.464363,N,12205.248294,W,000.0,,060522,,,A*69
$GPGGA,195839.00,3725.464604,N,12205.247545,W,1,23,0.62,-24.58,M,0.0,M,0.0,0000*7A
$GPGSV,3,1,10,2,73,175,31.5,6,52,054,39.3,12,62,328,43.8,17,11,064,31.3*75
$GPGSV,3,2,10,19,28,057,42.2,24,46,228,46.7,25,21,309,38.5,6,52,054,38.2*4D
$GPGSV,3,3,10,24,46,228,42.4,25,21,309,38.3*70
$GLGSV,2,1,5,15,51,147,35.4,9,14,327,43.6,17,35,030,47.5,18,75,313,39.7*6A
$GLGSV,2,2,5,19,39,234,39.6*75
$GAGSV,2,1,8,2,35,124,37.2,15,47,209,42.6,27,32,314,41.1,30,84,040,36.1*63
$GAGSV,2,2,8,2,35,124,34.5,15,47,209,38.4,27,32,314,35.0,30,84,040,36.0*68
$GPRMC,195839.00,A,3725.464604,N,12205.247545,W,000.1,,060522,,,A*69
$GPGGA,195840.00,3725.464006,N,12205.247943,W,1,23,0.62,-25.74,M,0.0,M,0.0,0000*75
$GPGSV,3,1,10,2,73,175,34.8,6,52,054,37.9,12,62,328,43.4,17,11,064,33.2*76
$GPGSV,3,2,10,19,28,057,42.7,24,46,228,47.7,25,21,309,40.1,6,52,054,37.7*48
$GPGSV,3,3,10,24,46,228,42.6,25,21,309,37.8*76
$GLGSV,2,1,5,15,51,147,34.9,9,14,327,43.2,17,35,030,47.6,18,75,313,39.0*66
$GLGSV,2,2,5,19,39,234,39.4*77
$GAGSV,2,1,8,2,35,124,37.4,15,47,209,42.6,27,32,314,42.8,30,84,040,36.6*68
$GAGSV,2,2,8,2,35,124,36.1,15,47,209,38.2,27,32,314,34.9,30,84,040,36.1*61
$GPRMC,195840.00,A,3725.464006,N,12205.247943,W,000.0,,060522,,,A*68
$GPGGA,195841.00,3725.464128,N,12205.247653,W,1,23,0.62,-24.03,M,0.0,M,0.0,0000*76
$GPGSV,3,1,10,2,73,175,35.5,6,52,054,36.9,12,62,328,42.8,17,11,064,32.7*72
$GPGSV,3,2,10,19,28,057,43.0,24,46,228,47.7,25,21,309,41.3,6,52,054,37.0*4A
$GPGSV,3,3,10,24,46,228,42.3,25,21,309,37.8*73
$GLGSV,2,1,5,15,51,147,34.7,9,14,327,43.1,17,35,030,47.4,18,75,313,39.1*68
$GLGSV,2,2,5,19,39,234,39.3*70
$GAGSV,2,1,8,2,35,124,36.9,15,47,209,42.8,27,32,314,42.7,30,84,040,37.1*63
$GAGSV,2,2,8,2,35,124,36.4,15,47,209,37.8,27,32,314,35.1,30,84,040,36.1*68
$GPRMC,195841.00,A,3725.464128,N,12205.247653,W,000.0,,060522,,,A*6A
$GPGGA,195842.00,3725.464236,N,12205.247862,W,1,23,0.62,-24.61,M,0.0,M,0.0,0000*71
$GPGSV,3,1,10,2,73,175,35.4,6,52,054,38.0,12,62,328,42.5,17,11,064,32.3*7D
$GPGSV,3,2,10,19,28,057,43.6,24,46,228,47.7,25,21,309,41.5,6,52,054,36.9*42
$GPGSV,3,3,10,24,46,228,42.3,25,21,309,37.0*7B
$GLGSV,2,1,5,15,51,147,34.7,9,14,327,43.2,17,35,030,47.4,18,75,313,38.9*62
$GLGSV,2,2,5,19,39,234,39.3*70
$GAGSV,2,1,8,2,35,124,36.7,15,47,209,42.8,27,32,314,42.1,30,84,040,37.2*68
$GAGSV,2,2,8,2,35,124,36.0,15,47,209,37.8,27,32,314,34.6,30,84,040,35.9*61
$GPRMC,195842.00,A,3725.464236,N,12205.247862,W,000.0,,060522,,,A*69
$GPGGA,195843.00,3725.464058,N,12205.247930,W,1,23,0.62,-25.89,M,0.0,M,0.0,0000*7B
$GPGSV,3,1,10,2,73,175,34.1,6,52,054,40.8,12,62,328,44.6,17,11,064,31.8*73
$GPGSV,3,2,10,19,28,057,42.1,24,46,228,47.2,25,21,309,38.7,6,52,054,36.9*4D
$GPGSV,3,3,10,24,46,228,41.0,25,21,309,36.7*7D
$GLGSV,2,1,5,15,51,147,33.7,9,14,327,42.4,17,35,030,45.6,18,75,313,39.5*6F
$GLGSV,2,2,5,19,39,234,38.6*74
$GAGSV,2,1,8,2,35,124,36.2,15,47,209,42.3,27,32,314,41.0,30,84,040,36.4*63
$GAGSV,2,2,8,2,35,124,34.8,15,47,209,36.7,27,32,314,34.0,30,84,040,35.2*68
$GPRMC,195843.00,A,3725.464058,N,12205.247930,W,000.0,,060522,,,A*64
$GPGGA,195844.00,3725.464369,N,12205.247709,W,1,23,0.62,-24.16,M,0.0,M,0.0,0000*7E
$GPGSV,3,1,10,2,73,175,34.3,6,52,054,40.4,12,62,328,44.0,17,11,064,33.3*72
$GPGSV,3,2,10,19,28,057,40.2,24,46,228,47.0,25,21,309,37.8,6,52,054,37.6*40
$GPGSV,3,3,10,24,46,228,42.3,25,21,309,36.7*7D
$GLGSV,2,1,5,15,51,147,33.4,9,14,327,41.4,17,35,030,46.7,18,75,313,39.5*6D
$GLGSV,2,2,5,19,39,234,38.5*77
$GAGSV,2,1,8,2,35,124,34.5,15,47,209,43.0,27,32,314,41.2,30,84,040,35.9*68
$GAGSV,2,2,8,2,35,124,35.6,15,47,209,38.4,27,32,314,35.1,30,84,040,35.9*61
$GPRMC,195844.00,A,3725.464369,N,12205.247709,W,000.1,,060522,,,A*67
$GPGGA,195845.00,3725.464287,N,12205.247838,W,1,23,0.62,-24.87,M,0.0,M,0.0,0000*7B
$GPGSV,3,1,10,2,73,175,34.2,6,52,054,38.9,12,62,328,43.9,17,11,064,32.2*7F
$GPGSV,3,2,10,19,28,057,38.0,24,46,228,47.1,25,21,309,38.2,6,52,054,37.6*49
$GPGSV,3,3,10,24,46,228,42.3,25,21,309,36.8*72
$GLGSV,2,1,5,15,51,147,35.6,9,14,327,43.2,17,35,030,48.2,18,75,313,40.5*68
$GLGSV,2,2,5,19,39,234,39.1*72
$GAGSV,2,1,8,2,35,124,35.7,15,47,209,43.4,27,32,314,41.4,30,84,040,34.9*68
$GAGSV,2,2,8,2,35,124,34.3,15,47,209,38.1,27,32,314,35.4,30,84,040,35.4*68
$GPRMC,195845.00,A,3725.464287,N,12205.247838,W,000.0,,060522,,,A*6B
$GPGGA,195846.00,3725.464356,N,12205.247583,W,1,23,0.62,-25.25,M,0.0,M,0.0,0000*71
$GPGSV,3,1,10,2,73,175,34.6,6,52,054,39.2,12,62,328,43.9,17,11,065,34.6*72
$GPGSV,3,2,10,19,28,057,37.4,24,46,228,47.2,25,21,309,38.0,6,52,054,38.0*4A
$GPGSV,3,3,10,24,46,228,42.1,25,21,309,36.8*70
$GLGSV,2,1,5,15,51,147,36.0,9,14,327,42.6,17,35,030,47.8,18,75,313,40.2*6A
$GLGSV,2,2,5,19,39,234,39.6*75
$GAGSV,2,1,8,2,35,124,35.7,15,47,209,43.5,27,32,314,41.3,30,84,040,35.1*67
$GAGSV,2,2,8,2,35,124,33.8,15,47,209,38.5,27,32,314,35.2,30,84,040,35.4*66
$GPRMC,195846.00,A,3725.464356,N,12205.247583,W,000.0,,060522,,,A*68
$GPGGA,195847.00,3725.464238,N,12205.247826,W,1,23,0.62,-26.00,M,0.0,M,0.0,0000*7F
$GPGSV,3,1,10,2,73,175,34.7,6,52,054,40.0,12,62,328,44.3,17,11,065,35.0*75
$GPGSV,3,2,10,19,28,057,37.8,24,46,228,46.9,25,21,309,37.4,6,52,054,37.5*4D
$GPGSV,3,3,10,24,46,228,42.2,25,21,309,36.8*73
$GLGSV,2,1,5,15,51,147,35.6,9,14,327,41.7,17,35,030,47.6,18,75,313,39.7*68
$GLGSV,2,2,5,19,39,234,39.4*77
$GAGSV,2,1,8,2,35,124,35.0,15,47,209,43.6,27,32,314,41.5,30,84,040,34.6*63
$GAGSV,2,2,8,2,35,124,34.1,15,47,209,38.1,27,32,314,34.8,30,84,040,35.8*6B
$GPRMC,195847.00,A,3725.464238,N,12205.247826,W,000.0,,060522,,,A*62
$GPGGA,195848.00,3725.464189,N,12205.247126,W,1,23,0.62,-27.01,M,0.0,M,0.0,0000*70
$GPGSV,3,1,10,2,73,175,34.9,6,52,054,39.2,12,62,328,44.4,17,11,065,33.9*7F
$GPGSV,3,2,10,19,28,057,38.0,24,46,228,47.4,25,21,309,38.5,6,52,054,38.1*43
$GPGSV,3,3,10,24,46,228,42.0,25,21,309,37.5*7D
$GLGSV,2,1,5,15,51,147,36.9,9,14,327,42.6,17,35,030,48.4,18,75,313,40.0*62
$GLGSV,2,2,5,19,39,234,40.0*7D
$GAGSV,2,1,8,2,35,124,36.4,15,47,209,43.8,27,32,314,41.4,30,84,040,35.4*68
$GAGSV,2,2,8,2,35,124,32.9,15,47,209,38.0,27,32,314,35.2,30,84,040,35.7*60
$GPRMC,195848.00,A,3725.464189,N,12205.247126,W,000.0,,060522,,,A*6D
$GPGGA,195849.00,3725.463644,N,12205.247884,W,1,23,0.62,-27.56,M,0.0,M,0.0,0000*73
$GPGSV,3,1,10,2,73,175,35.7,6,52,054,39.7,12,62,328,44.5,17,11,065,32.7*7B
$GPGSV,3,2,10,19,28,057,38.0,24,46,228,48.5,25,21,309,39.2,6,52,054,38.7*4D
$GPGSV,3,3,10,24,46,228,41.8,25,21,309,37.4*77
$GLGSV,2,1,5,15,51,147,38.5,9,15,327,41.9,17,35,030,48.1,18,75,313,38.2*65
$GLGSV,2,2,5,19,39,234,40.1*7C
$GAGSV,2,1,8,2,35,124,35.7,15,47,209,43.0,27,32,314,41.4,30,84,040,37.0*66
$GAGSV,2,2,8,2,35,124,29.5,15,47,209,38.1,27,32,314,35.1,30,84,040,35.9*6A
$GPRMC,195849.00,A,3725.463644,N,12205.247884,W,000.0,,060522,,,A*6C
$GPGGA,195850.00,3725.464076,N,12205.247697,W,1,23,0.62,-27.20,M,0.0,M,0.0,0000*76
$GPGSV,3,1,10,2,73,175,35.5,6,52,054,39.1,12,63,328,44.4,17,11,065,37.0*7D
$GPGSV,3,2,10,19,28,057,40.8,24,46,228,48.8,25,21,309,38.5,6,52,054,39.2*45
$GPGSV,3,3,10,24,46,228,41.8,25,21,309,38.3*7F
$GLGSV,2,1,5,15,51,147,39.0,9,15,327,42.5,17,35,030,48.1,18,75,313,39.4*69
$GLGSV,2,2,5,19,39,234,40.1*7C
$GAGSV,2,1,8,2,35,124,37.4,15,47,209,42.4,27,32,314,41.1,30,84,040,37.2*65
$GAGSV,2,2,8,2,35,124,29.5,15,47,209,37.8,27,32,314,34.8,30,84,040,35.4*69
$GPRMC,195850.00,A,3725.464076,N,12205.247697,W,000.0,,060522,,,A*68
$GPGGA,195851.00,3725.464114,N,12205.247691,W,1,23,0.62,-26.37,M,0.0,M,0.0,0000*73
$GPGSV,3,1,10,2,73,175,35.7,6,52,054,40.3,12,63,328,44.2,17,11,065,36.6*72
$GPGSV,3,2,10,19,28,057,40.8,24,46,228,49.0,25,21,309,37.4,6,52,054,39.5*45
$GPGSV,3,3,10,24,46,228,43.0,25,21,309,38.0*76
$GLGSV,2,1,5,15,51,147,37.9,9,15,327,43.0,17,35,030,46.9,18,75,313,39.3*6B
$GLGSV,2,2,5,19,39,234,39.2*71
$GAGSV,2,1,8,2,35,124,34.4,15,47,209,43.9,27,32,314,42.6,30,84,040,36.2*6F
$GAGSV,2,2,8,2,35,124,27.8,15,47,209,37.9,27,32,314,34.5,30,84,040,37.8*68
$GPRMC,195851.00,A,3725.464114,N,12205.247691,W,000.0,,060522,,,A*6A
$GPGGA,195852.00,3725.464169,N,12205.247697,W,1,23,0.62,-26.59,M,0.0,M,0.0,0000*74
$GPGSV,3,1,10,2,73,175,33.6,6,52,054,37.4,12,63,328,41.9,17,11,065,37.1*7A
$GPGSV,3,2,10,19,28,057,38.5,24,46,228,45.9,25,21,309,37.2,6,52,054,38.3*43
$GPGSV,3,3,10,24,46,228,43.1,25,21,309,37.4*7C
$GLGSV,2,1,5,15,51,147,34.5,9,15,327,41.3,17,35,030,44.0,18,75,313,36.9*6B
$GLGSV,2,2,5,19,39,234,38.0*72
$GAGSV,2,1,8,2,35,124,36.2,15,47,209,40.5,27,32,314,40.0,30,84,040,35.0*61
$GAGSV,2,2,8,2,35,124,30.5,15,47,209,37.3,27,32,314,34.2,30,84,040,35.8*6C
$GPRMC,195852.00,A,3725.464169,N,12205.247697,W,000.3,,060522,,,A*66
$GPGGA,195853.00,3725.463968,N,12205.247638,W,1,23,0.62,-26.36,M,0.0,M,0.0,0000*77
$GPGSV,3,1,10,2,73,175,29.3,6,52,054,34.0,12,63,328,36.8,17,11,065,35.5*74
$GPGSV,3,2,10,19,28,057,35.5,24,46,228,40.7,25,21,309,35.8,6,52,054,35.2*41
$GPGSV,3,3,10,24,46,228,41.7,25,21,309,40.5*79
$GLGSV,2,1,5,15,51,147,36.0,9,15,327,36.8,17,35,030,38.9,18,75,313,31.9*62
$GLGSV,2,2,5,19,39,234,32.8*70
$GAGSV,2,1,8,2,35,124,35.9,15,47,209,35.3,27,32,314,33.4,30,84,040,30.9*61
$GAGSV,2,2,8,2,35,124,28.1,15,47,209,36.1,27,32,314,35.4,30,84,040,31.2*6B
$GPRMC,195853.00,A,3725.463968,N,12205.247638,W,000.6,054.0,060522,,,A*46
$GPGGA,195854.00,3725.464369,N,12205.247487,W,1,23,0.62,-25.02,M,0.0,M,0.0,0000*7E
$GPGSV,3,1,10,2,73,175,29.5,6,52,054,37.0,12,63,328,34.0,17,11,065,34.1*7E
$GPGSV,3,2,10,19,28,057,31.5,24,46,228,37.9,25,21,309,34.6,6,52,054,34.4*43
$GPGSV,3,3,10,24,46,228,41.6,25,21,309,39.8*7B
$GLGSV,2,1,5,15,51,147,34.4,9,15,327,35.6,17,35,030,37.1,18,75,313,31.6*61
$GLGSV,2,2,5,19,39,234,28.2*71
$GAGSV,2,1,8,2,35,124,36.5,15,47,209,32.3,27,32,314,33.9,30,84,040,30.9*64
$GAGSV,2,2,8,2,35,124,27.9,15,47,209,35.3,27,32,314,34.9,30,84,040,26.9*6C
$GPRMC,195854.00,A,3725.464369,N,12205.247487,W,000.1,,060522,,,A*63
$GPGGA,195855.00,3725.463790,N,12205.247349,W,1,23,0.62,-29.35,M,0.0,M,0.0,0000*77
$GPGSV,3,1,10,2,73,175,27.3,6,52,054,35.3,12,63,328,35.8,17,11,065,34.4*7B
$GPGSV,3,2,10,19,28,057,36.2,24,45,228,36.0,25,21,309,37.3,6,52,054,32.5*49
$GPGSV,3,3,10,24,45,228,40.1,25,21,309,36.2*7B
$GLGSV,2,1,5,15,51,147,30.3,9,15,327,38.1,17,35,030,37.3,18,75,313,31.1*6D
$GLGSV,2,2,5,19,39,234,26.6*7B
$GAGSV,2,1,8,2,35,124,35.6,15,47,209,32.1,27,32,314,35.4,30,84,040,31.0*65
$GAGSV,2,2,8,2,35,124,25.8,15,47,209,34.9,27,32,314,33.8,30,84,040,25.7*6F
$GPRMC,195855.00,A,3725.463790,N,12205.247349,W,001.4,200.7,060522,,,A*4D
$GPGGA,195856.00,3725.463572,N,12205.247599,W,1,23,0.62,-25.69,M,0.0,M,0.0,0000*74
$GPGSV,3,1,10,2,73,175,33.9,6,52,054,42.5,12,63,328,41.0,17,11,065,37.4*7A
$GPGSV,3,2,10,19,28,057,42.6,24,45,228,43.1,25,21,309,41.2,6,52,054,30.4*4E
$GPGSV,3,3,10,24,45,228,36.4,25,21,309,37.1*7D
$GLGSV,2,1,5,15,51,147,27.2,9,15,327,41.9,17,35,030,44.4,18,75,313,42.8*62
$GLGSV,2,2,5,19,39,234,33.4*7D
$GAGSV,2,1,8,2,35,124,35.9,15,47,209,38.2,27,32,314,34.2,30,84,041,42.8*69
$GAGSV,2,2,8,2,35,124,29.7,15,47,209,32.3,27,32,314,35.5,30,84,041,32.6*6D
$GPRMC,195856.00,A,3725.463572,N,12205.247599,W,000.2,,060522,,,A*67
$GPGGA,195857.00,3725.463543,N,12205.247769,W,1,23,0.62,-25.55,M,0.0,M,0.0,0000*75
$GPGSV,3,1,10,2,73,175,35.9,6,52,054,40.9,12,63,328,41.9,17,11,065,35.8*75
$GPGSV,3,2,10,19,28,057,41.0,24,45,228,42.9,25,21,309,42.0,6,52,054,27.5*44
$GPGSV,3,3,10,24,45,228,32.6,25,21,309,36.5*7E
$GLGSV,2,1,5,15,51,147,29.7,9,15,327,40.8,17,35,030,42.5,18,75,313,42.6*60
$GLGSV,2,2,5,19,39,234,34.1*7F
$GAGSV,2,1,8,2,35,124,34.1,15,47,209,36.9,27,32,314,33.8,30,84,041,44.4*62
$GAGSV,2,2,8,2,35,124,28.2,15,47,209,28.9,27,32,314,34.0,30,84,041,33.8*63
$GPRMC,195857.00,A,3725.463543,N,12205.247769,W,000.5,,060522,,,A*6E
$GPGGA,195858.00,3725.464371,N,12205.247515,W,1,23,0.62,-25.62,M,0.0,M,0.0,0000*77
$GPGSV,3,1,10,2,73,175,34.6,6,52,054,36.6,12,63,328,41.7,17,11,065,31.0*77
$GPGSV,3,2,10,19,28,057,39.1,24,45,228,39.8,25,21,309,42.0,6,52,054,26.9*4A
$GPGSV,3,3,10,24,45,228,28.2,25,21,309,34.1*77
$GLGSV,2,1,5,15,51,147,28.0,9,15,327,43.6,17,35,030,42.0,18,75,313,41.9*62
$GLGSV,2,2,5,19,39,234,32.1*79
$GAGSV,2,1,8,2,35,124,31.5,15,47,209,33.6,27,32,314,36.9,30,84,041,40.7*6A
$GAGSV,2,2,8,2,35,124,24.8,15,47,209,27.5,27,32,314,30.9,30,84,041,30.6*66
$GPRMC,195858.00,A,3725.464371,N,12205.247515,W,000.2,,060522,,,A*6F
$GPGGA,195859.00,3725.463727,N,12205.248610,W,1,23,0.62,-22.71,M,0.0,M,0.0,0000*7A
$GPGSV,3,1,10,2,73,175,38.6,6,52,054,38.2,12,63,328,40.8,17,11,065,31.9*76
$GPGSV,3,2,10,19,28,057,36.1,24,45,228,43.0,25,21,309,42.3,6,52,054,29.3*46
$GPGSV,3,3,10,24,45,228,31.8,25,21,309,35.3*76
$GLGSV,2,1,5,15,51,147,28.4,9,15,327,43.5,17,35,030,38.8,18,75,313,43.1*6A
$GLGSV,2,2,5,19,39,234,33.8*71
$GAGSV,2,1,8,2,35,124,30.1,15,47,209,38.4,27,32,314,37.1,30,84,041,42.3*69
$GAGSV,2,2,8,2,35,124,26.4,15,47,209,25.5,27,32,314,32.0,30,84,041,31.1*67
$GPRMC,195859.00,A,3725.463727,N,12205.248610,W,000.1,,060522,,,A*64
$GPGGA,195900.00,3725.464135,N,12205.249133,W,1,23,0.62,-23.53,M,0.0,M,0.0,0000*73
$GPGSV,3,1,10,2,73,175,40.8,6,52,054,43.7,12,63,328,40.9,17,11,065,32.0*75
$GPGSV,3,2,10,19,28,057,41.1,24,45,228,43.2,25,21,309,42.4,6,52,054,30.7*4F
$GPGSV,3,3,10,24,45,228,33.1,25,21,309,33.0*78
$GLGSV,2,1,5,15,51,147,28.4,9,15,327,40.6,17,35,030,42.2,18,75,313,44.1*6A
$GLGSV,2,2,5,19,39,234,35.5*7A
$GAGSV,2,1,8,2,35,124,35.0,15,47,209,38.7,27,32,314,36.9,30,84,041,43.4*61
$GAGSV,2,2,8,2,35,124,27.8,15,47,209,28.5,27,32,314,33.5,30,84,041,33.3*63
$GPRMC,195900.00,A,3725.464135,N,12205.249133,W,000.0,,060522,,,A*6D
$GPGGA,195901.00,3725.463564,N,12205.248528,W,1,23,0.62,-25.17,M,0.0,M,0.0,0000*7C
$GPGSV,3,1,10,2,73,175,41.8,6,52,054,43.8,12,63,328,41.2,17,11,065,28.8*72
$GPGSV,3,2,10,19,28,057,41.5,24,45,228,44.8,25,21,309,40.9,6,52,054,31.1*4E
$GPGSV,3,3,10,24,45,228,29.9,25,21,309,35.3*7E
$GLGSV,2,1,5,15,51,147,30.9,9,15,327,42.1,17,35,030,41.7,18,75,313,45.3*6E
$GLGSV,2,2,5,19,39,234,36.3*7F
$GAGSV,2,1,8,2,35,124,36.8,15,47,209,40.6,27,32,314,37.9,30,84,041,43.9*68
$GAGSV,2,2,8,2,35,124,27.5,15,47,209,28.2,27,32,314,32.6,30,84,041,32.5*6C
$GPRMC,195901.00,A,3725.463564,N,12205.248528,W,000.1,,060522,,,A*65
$GPGGA,195902.00,3725.462816,N,12205.247093,W,1,23,0.62,-27.79,M,0.0,M,0.0,0000*76
$GPGSV,3,1,10,2,73,175,42.7,6,52,054,42.1,12,63,328,40.4,17,11,065,35.6*73
$GPGSV,3,2,10,19,28,057,43.2,24,45,228,44.8,25,21,309,39.9,6,52,054,34.0*41
$GPGSV,3,3,10,24,45,228,27.4,25,21,309,37.5*79
$GLGSV,2,1,5,15,51,147,30.2,9,15,327,41.9,17,35,030,42.7,18,75,314,46.1*6B
$GLGSV,2,2,5,19,39,234,36.6*7A
$GAGSV,2,1,8,2,35,124,35.3,15,47,209,40.8,27,32,314,36.8,30,84,041,44.0*60
$GAGSV,2,2,8,2,35,124,26.3,15,47,209,26.9,27,32,314,32.1,30,84,041,30.7*69
$GPRMC,195902.00,A,3725.462816,N,12205.247093,W,000.1,,060522,,,A*65
$GPGGA,195903.00,3725.463272,N,12205.247824,W,1,23,0.62,-27.59,M,0.0,M,0.0,0000*78
$GPGSV,3,1,10,2,73,175,42.7,6,52,054,41.6,12,63,328,40.8,17,11,065,35.8*75
$GPGSV,3,2,10,19,28,057,43.4,24,45,228,44.6,25,21,309,41.1,6,52,054,34.7*49
$GPGSV,3,3,10,24,45,228,29.5,25,21,309,37.0*73
$GLGSV,2,1,5,15,51,147,30.3,9,15,327,43.0,17,35,030,41.4,18,75,314,45.6*65
$GLGSV,2,2,5,19,39,234,36.4*78
$GAGSV,2,1,8,2,35,124,36.8,15,47,209,40.4,27,32,314,36.8,30,84,041,44.3*67
$GAGSV,2,2,8,2,35,124,26.8,15,47,209,25.2,27,32,314,33.2,30,84,041,32.4*69
$GPRMC,195903.00,A,3725.463272,N,12205.247824,W,000.1,,060522,,,A*69
$GPGGA,195904.00,3725.463456,N,12205.246622,W,1,23,0.62,-31.10,M,0.0,M,0.0,0000*7C
$GPGSV,3,1,10,2,73,175,44.4,6,52,054,41.4,12,63,328,41.7,17,11,065,32.5*76
$GPGSV,3,2,10,19,28,057,40.7,24,45,228,44.3,25,21,309,42.9,6,52,054,36.2*40
$GPGSV,3,3,10,24,45,228,31.2,25,21,309,36.6*7A
$GLGSV,2,1,5,15,51,147,35.0,9,15,327,42.2,17,35,030,38.8,18,75,314,45.7*63
$GLGSV,2,2,5,19,39,234,35.5*7A
$GAGSV,2,1,8,2,35,124,33.9,15,47,209,39.7,27,32,314,33.7,30,84,041,44.9*6E
$GAGSV,2,2,8,2,35,124,26.1,15,47,209,24.5,27,32,314,36.4,30,84,041,33.2*62
$GPRMC,195904.00,A,3725.463456,N,12205.246622,W,000.1,,060522,,,A*67
$GPGGA,195905.00,3725.464308,N,12205.248294,W,1,23,0.62,-23.97,M,0.0,M,0.0,0000*7D
$GPGSV,3,1,10,2,73,175,44.8,6,52,054,39.7,12,63,328,42.4,17,11,065,31.4*74
$GPGSV,3,2,10,19,28,057,40.6,24,45,228,43.8,25,21,309,41.4,6,52,054,36.7*46
$GPGSV,3,3,10,24,45,228,31.2,25,21,309,39.8*7B
$GLGSV,2,1,5,15,51,147,38.1,9,15,327,43.7,17,35,030,41.8,18,75,314,46.3*62
$GLGSV,2,2,5,19,39,234,35.4*7B
$GAGSV,2,1,8,2,35,124,30.1,15,47,209,40.6,27,32,314,30.3,30,84,041,46.9*6F
$GAGSV,2,2,8,2,35,124,23.5,15,47,209,26.8,27,32,314,37.7,30,84,041,35.6*6C
$GPRMC,195905.00,A,3725.464308,N,12205.248294,W,000.1,,060522,,,A*6A
$GPGGA,195906.00,3725.463862,N,12205.247995,W,1,22,0.65,-26.76,M,0.0,M,0.0,0000*77
$GPGSV,3,1,10,2,73,175,45.1,6,52,054,38.8,12,63,328,41.2,17,11,065,29.4*7E
$GPGSV,3,2,10,19,28,057,40.8,24,45,228,44.8,25,21,309,41.8,6,52,054,37.3*46
$GPGSV,3,3,10,24,45,228,32.1,25,21,309,39.8*7B
$GLGSV,2,1,5,15,51,147,36.6,9,15,327,42.4,17,35,030,41.3,18,75,314,46.6*67
$GLGSV,2,2,5,19,39,234,34.8*76
$GAGSV,2,1,7,2,35,124,29.9,15,47,209,41.0,27,32,314,29.0,30,84,041,46.0*65
$GAGSV,2,2,7,15,47,209,25.7,27,32,314,38.7,30,84,041,35.2*7D
$GPRMC,195906.00,A,3725.463862,N,12205.247995,W,000.0,,060522,,,A*6D
$GPGGA,195907.00,3725.463953,N,12205.248568,W,1,22,0.65,-24.44,M,0.0,M,0.0,0000*77
$GPGSV,3,1,10,2,73,175,45.2,6,52,054,36.5,12,63,328,41.7,17,11,065,31.4*72
$GPGSV,3,2,10,19,28,057,40.7,24,45,228,45.6,25,21,309,40.8,6,52,054,39.5*4F
$GPGSV,3,3,10,24,45,228,32.3,25,21,309,38.9*79
$GLGSV,2,1,5,15,51,147,36.0,9,15,327,40.9,17,35,030,38.1,18,75,314,46.4*60
$GLGSV,2,2,5,19,39,234,34.3*7D
$GAGSV,2,1,7,2,35,124,33.2,15,47,209,40.7,27,32,314,30.2,30,84,041,45.2*68
$GAGSV,2,2,7,15,47,209,25.6,27,32,314,38.6,30,84,041,34.1*7F
$GPRMC,195907.00,A,3725.463953,N,12205.248568,W,000.1,,060522,,,A*6F
$GPGGA,195908.00,3725.463325,N,12205.246812,W,1,23,0.62,-29.06,M,0.0,M,0.0,0000*70
$GPGSV,3,1,10,2,73,175,44.1,6,52,054,38.8,12,63,328,41.7,17,11,065,32.2*76
$GPGSV,3,2,10,19,28,057,38.5,24,45,228,45.4,25,21,309,39.8,6,52,054,37.7*42
$GPGSV,3,3,10,24,45,228,31.6,25,21,309,40.1*78
$GLGSV,2,1,5,15,51,147,34.7,9,15,327,41.9,17,35,030,40.8,18,75,314,45.7*62
$GLGSV,2,2,5,19,39,234,35.4*7B
$GAGSV,2,1,8,2,35,124,36.8,15,47,209,40.6,27,32,314,29.1,30,84,041,45.6*66
$GAGSV,2,2,8,2,35,124,25.3,15,47,209,26.7,27,32,314,37.5,30,84,041,33.9*68
$GPRMC,195908.00,A,3725.463325,N,12205.246812,W,000.1,,060522,,,A*65
$GPGGA,195909.00,3725.463895,N,12205.246883,W,1,23,0.62,-29.19,M,0.0,M,0.0,0000*77
$GPGSV,3,1,10,2,73,175,39.8,6,52,054,41.5,12,63,328,43.3,17,11,065,29.8*70
$GPGSV,3,2,10,19,28,057,39.3,24,45,228,44.8,25,21,309,41.1,6,52,054,37.9*40
$GPGSV,3,3,10,24,45,228,30.4,25,21,309,39.2*76
$GLGSV,2,1,5,15,51,147,30.5,9,15,327,41.3,17,35,030,39.9,18,75,314,45.8*6E
$GLGSV,2,2,5,19,39,234,35.5*7A
$GAGSV,2,1,8,2,35,124,38.7,15,47,209,40.1,27,32,314,30.7,30,84,041,44.7*6E
$GAGSV,2,2,8,2,35,124,30.9,15,47,209,26.9,27,32,314,38.3,30,84,041,34.1*6E
$GPRMC,195909.00,A,3725.463895,N,12205.246883,W,000.1,,060522,,,A*6C
$GPGGA,195910.00,3725.463852,N,12205.247715,W,1,23,0.62,-26.56,M,0.0,M,0.0,0000*71
$GPGSV,3,1,10,2,73,175,38.8,6,52,054,41.4,12,63,328,44.3,17,11,065,28.3*7D
$GPGSV,3,2,10,19,28,057,40.0,24,45,228,44.2,25,21,309,39.5,6,52,054,37.2*47
$GPGSV,3,3,10,24,45,228,29.9,25,21,309,39.4*75
$GLGSV,2,1,5,15,51,147,29.4,9,15,327,41.2,17,35,030,41.6,18,75,314,46.3*6E
$GLGSV,2,2,5,19,39,234,35.3*7C
$GAGSV,2,1,8,2,35,124,38.9,15,47,209,39.8,27,32,314,32.3,30,84,041,43.8*69
$GAGSV,2,2,8,2,35,124,30.0,15,47,209,25.2,27,32,314,38.3,30,84,041,32.8*60
$GPRMC,195910.00,A,3725.463852,N,12205.247715,W,000.1,,060522,,,A*6E
$GPGGA,195911.00,3725.463432,N,12205.247547,W,1,23,0.62,-27.48,M,0.0,M,0.0,0000*71
$GPGSV,3,1,10,2,73,175,45.6,6,52,054,40.6,12,63,328,42.8,17,11,065,32.6*79
$GPGSV,3,2,10,19,28,057,39.6,24,45,228,45.0,25,21,309,39.2,6,52,054,36.2*4A
$GPGSV,3,3,10,24,45,228,32.3,25,21,309,39.6*77
$GLGSV,2,1,5,15,51,147,35.9,9,15,327,41.7,17,35,030,41.1,18,75,314,45.8*64
$GLGSV,2,2,5,19,39,234,35.5*7A
$GAGSV,2,1,8,2,35,124,39.3,15,47,209,42.0,27,32,314,31.6,30,84,041,45.8*66
$GAGSV,2,2,8,2,35,124,28.2,15,47,209,29.1,27,32,314,37.4,30,84,041,34.5*67
$GPRMC,195911.00,A,3725.463432,N,12205.247547,W,000.1,,060522,,,A*60
$GPGGA,195912.00,3725.463648,N,12205.248175,W,1,23,0.62,-24.99,M,0.0,M,0.0,0000*78
$GPGSV,3,1,10,2,73,175,45.7,6,52,054,38.4,12,63,328,41.2,17,11,065,34.6*7A
$GPGSV,3,2,10,19,28,057,38.9,24,45,228,43.8,25,21,309,39.3,6,52,054,35.8*42
$GPGSV,3,3,10,24,45,228,34.5,25,21,309,39.9*78
$GLGSV,2,1,5,15,51,147,43.1,9,15,327,41.0,17,35,030,39.2,18,75,314,45.7*69
$GLGSV,2,2,5,19,39,234,34.9*77
$GAGSV,2,1,8,2,35,124,41.3,15,47,209,42.9,27,32,314,33.2,30,84,041,46.0*6D
$GAGSV,2,2,8,2,35,124,29.8,15,47,209,32.6,27,32,314,37.8,30,84,041,35.5*6C
$GPRMC,195912.00,A,3725.463648,N,12205.248175,W,000.1,,060522,,,A*66
$GPGGA,195913.00,3725.464147,N,12205.247629,W,1,23,0.62,-26.67,M,0.0,M,0.0,0000*74
$GPGSV,3,1,10,2,73,175,46.3,6,52,054,38.7,12,63,328,42.4,17,11,065,34.4*79
$GPGSV,3,2,10,19,28,057,38.3,24,45,228,44.5,25,21,309,39.4,6,52,054,37.7*48
$GPGSV,3,3,10,24,45,228,36.0,25,21,309,40.4*7C
$GLGSV,2,1,5,15,51,147,43.2,9,15,327,40.9,17,35,030,38.6,18,75,314,45.8*68
$GLGSV,2,2,5,19,39,234,33.4*7D
$GAGSV,2,1,8,2,35,124,37.1,15,47,209,41.0,27,32,314,34.0,30,84,041,45.5*67
$GAGSV,2,2,8,2,35,124,27.5,15,47,209,33.7,27,32,314,38.0,30,84,041,35.9*64
$GPRMC,195913.00,A,3725.464147,N,12205.247629,W,000.1,,060522,,,A*69
$GPGGA,195914.00,3725.463848,N,12205.247348,W,1,22,0.65,-26.95,M,0.0,M,0.0,0000*7B
$GPGSV,3,1,9,2,73,175,45.7,6,52,054,37.5,12,63,328,42.3,19,28,057,37.4*4A
$GPGSV,3,2,9,24,45,228,44.3,25,21,309,37.4,6,52,054,39.6,24,45,228,35.9*7F
$GPGSV,3,3,9,25,21,309,40.5*61
$GLGSV,2,1,5,15,51,147,42.0,9,15,327,40.3,17,35,030,38.8,18,75,314,45.5*62
$GLGSV,2,2,5,19,39,234,32.3*7B
$GAGSV,2,1,8,2,35,124,34.0,15,47,209,40.1,27,32,314,34.1,30,84,042,45.7*65
$GAGSV,2,2,8,2,35,124,26.2,15,47,209,33.5,27,32,314,37.9,30,84,042,35.4*68
$GPRMC,195914.00,A,3725.463848,N,12205.247348,W,000.1,,060522,,,A*6D
$GPGGA,195915.00,3725.464071,N,12205.248050,W,1,23,0.62,-25.22,M,0.0,M,0.0,0000*73
$GPGSV,3,1,10,2,73,175,46.1,6,52,054,39.8,12,63,328,42.5,17,11,065,34.1*71
$GPGSV,3,2,10,19,28,057,41.0,24,45,228,43.0,25,21,309,38.9,6,52,054,38.5*46
$GPGSV,3,3,10,24,45,228,37.1,25,21,309,40.4*7C
$GLGSV,2,1,5,15,51,147,44.3,9,15,327,40.7,17,35,030,39.8,18,75,314,46.3*67
$GLGSV,2,2,5,19,39,234,33.2*7B
$GAGSV,2,1,8,2,35,124,40.1,15,47,209,41.1,27,32,314,33.8,30,84,042,45.0*6F
$GAGSV,2,2,8,2,35,124,28.2,15,47,209,32.9,27,32,314,37.7,30,84,042,35.6*67
$GPRMC,195915.00,A,3725.464071,N,12205.248050,W,000.0,,060522,,,A*6D
$GPGGA,195916.00,3725.463879,N,12205.248459,W,1,23,0.62,-23.44,M,0.0,M,0.0,0000*7C
$GPGSV,3,1,10,2,73,175,47.0,6,52,054,39.6,12,63,328,42.4,17,11,065,33.3*7B
$GPGSV,3,2,10,19,28,057,39.1,24,45,228,40.1,25,21,309,38.3,6,52,054,38.6*43
$GPGSV,3,3,10,24,45,228,40.1,25,21,309,39.5*73
$GLGSV,2,1,5,15,51,147,45.5,9,15,327,40.1,17,35,030,40.6,18,75,314,46.2*67
$GLGSV,2,2,5,19,39,234,34.7*79
$GAGSV,2,1,8,2,35,124,40.2,15,47,209,43.0,27,32,314,35.0,30,84,042,45.1*60
$GAGSV,2,2,8,2,35,124,29.9,15,47,209,30.4,27,32,314,38.6,30,84,042,35.3*69
$GPRMC,195916.00,A,3725.463879,N,12205.248459,W,000.0,,060522,,,A*64
$GPGGA,195917.00,3725.464153,N,12205.248009,W,1,22,0.65,-26.29,M,0.0,M,0.0,0000*72
$GPGSV,3,1,9,2,73,175,46.7,6,52,054,38.8,12,63,328,43.2,19,28,057,40.3*4C
$GPGSV,3,2,9,24,45,228,41.4,25,21,309,37.7,6,52,054,38.1,24,45,228,39.4*79
$GPGSV,3,3,9,25,21,309,39.6*6C
$GLGSV,2,1,5,15,51,147,46.1,9,15,327,41.3,17,35,030,40.7,18,75,314,45.7*64
$GLGSV,2,2,5,19,39,234,34.9*77
$GAGSV,2,1,8,2,35,124,41.5,15,47,209,42.8,27,32,314,32.7,30,84,042,45.2*6C
$GAGSV,2,2,8,2,35,124,32.1,15,47,209,31.2,27,32,314,38.1,30,84,042,36.2*69
$GPRMC,195917.00,A,3725.464153,N,12205.248009,W,000.0,,060522,,,A*62
$GPGGA,195918.00,3725.463969,N,12205.248029,W,1,22,0.65,-25.80,M,0.0,M,0.0,0000*79
$GPGSV,3,1,9,2,73,175,46.0,6,52,054,39.1,12,63,328,43.6,19,28,057,39.4*4E
$GPGSV,3,2,9,24,45,228,43.2,25,21,309,37.9,6,52,054,37.6,24,45,228,38.8*76
$GPGSV,3,3,9,25,21,309,39.6*6C
$GLGSV,2,1,5,15,51,147,44.7,9,15,327,41.2,17,35,030,38.8,18,75,314,45.9*6F
$GLGSV,2,2,5,19,39,235,34.2*7D
$GAGSV,2,1,8,2,35,124,37.7,15,47,209,43.0,27,32,314,34.0,30,84,042,45.3*66
$GAGSV,2,2,8,2,35,124,30.3,15,47,209,32.4,27,32,314,37.2,30,84,042,36.2*60
$GPRMC,195918.00,A,3725.463969,N,12205.248029,W,000.1,,060522,,,A*68
$GPGGA,195919.00,3725.463978,N,12205.249352,W,1,23,0.62,-23.50,M,0.0,M,0.0,0000*7B
$GPGSV,3,1,10,2,73,175,46.3,6,52,054,38.5,12,63,328,42.2,17,11,065,31.4*78
$GPGSV,3,2,10,19,28,057,39.9,24,45,228,43.0,25,21,309,38.3,6,52,054,37.8*48
$GPGSV,3,3,10,24,45,228,38.5,25,21,309,40.0*73
$GLGSV,2,1,5,15,51,147,42.4,9,15,327,41.3,17,35,030,39.7,18,75,314,45.6*6A
$GLGSV,2,2,5,19,39,235,34.1*7E
$GAGSV,2,1,8,2,35,124,35.7,15,47,209,42.7,27,32,314,32.9,30,84,042,44.9*66
$GAGSV,2,2,8,2,35,124,28.2,15,47,209,32.3,27,32,314,37.5,30,84,042,35.2*6B
$GPRMC,195919.00,A,3725.463978,N,12205.249352,W,000.1,,060522,,,A*67
$GPGGA,195920.00,3725.463657,N,12205.247633,W,1,23,0.62,-27.44,M,0.0,M,0.0,0000*7E
$GPGSV,3,1,10,2,73,175,45.3,6,52,054,38.4,12,63,328,43.1,17,11,065,30.7*7A
$GPGSV,3,2,10,19,28,057,40.9,24,45,228,43.0,25,21,309,38.3,6,52,054,37.2*4C
$GPGSV,3,3,10,24,45,228,37.0,25,21,309,40.2*7B
$GLGSV,2,1,5,15,51,147,44.9,9,15,327,41.0,17,35,030,39.4,18,75,314,46.1*65
$GLGSV,2,2,5,19,39,235,34.7*78
$GAGSV,2,1,8,2,35,124,43.4,15,47,209,41.9,27,32,314,33.3,30,84,042,45.7*6D
$GAGSV,2,2,8,2,35,124,33.0,15,47,209,33.3,27,32,314,37.5,30,84,042,35.6*66
$GPRMC,195920.00,A,3725.463657,N,12205.247633,W,000.0,,060522,,,A*62
$GPGGA,195921.00,3725.463991,N,12205.247324,W,1,23,0.62,-28.95,M,0.0,M,0.0,0000*7A
$GPGSV,3,1,10,2,73,175,45.1,6,52,054,38.5,12,63,328,41.9,17,11,065,31.1*74
$GPGSV,3,2,10,19,28,057,41.4,24,45,228,42.4,25,21,309,38.9,6,52,054,36.7*4B
$GPGSV,3,3,10,24,45,228,36.5,25,21,309,40.8*75
$GLGSV,2,1,5,15,51,147,45.4,9,15,327,39.1,17,34,030,38.5,18,75,314,45.6*62
$GLGSV,2,2,5,19,39,235,34.7*78
$GAGSV,2,1,8,2,35,124,44.4,15,47,209,42.0,27,32,314,33.5,30,84,042,45.4*65
$GAGSV,2,2,8,2,35,124,34.4,15,47,209,33.3,27,32,314,36.9,30,84,042,35.8*66
$GPRMC,195921.00,A,3725.463991,N,12205.247324,W,000.0,,060522,,,A*65
$GPGGA,195922.00,3725.464216,N,12205.247296,W,1,23,0.62,-29.68,M,0.0,M,0.0,0000*71
$GPGSV,3,1,10,2,73,175,45.1,6,52,054,38.0,12,63,328,42.4,17,11,065,30.4*7B
$GPGSV,3,2,10,19,28,057,40.8,24,45,228,42.7,25,21,309,38.4,6,52,054,36.5*4A
$GPGSV,3,3,10,24,45,228,36.7,25,21,309,40.7*78
$GLGSV,2,1,5,15,51,147,45.4,9,15,327,40.0,17,34,030,38.6,18,75,314,45.7*6F
$GLGSV,2,2,5,19,39,235,34.6*79
$GAGSV,2,1,8,2,35,124,44.2,15,47,209,42.0,27,32,314,33.7,30,84,042,45.4*61
$GAGSV,2,2,8,2,35,124,34.6,15,47,209,33.3,27,32,314,37.0,30,84,042,35.5*61
$GPRMC,195922.00,A,3725.464216,N,12205.247296,W,000.0,,060522,,,A*6D
