     3.04           N: GNSS NAV DATA    J: QZSS             RINEX VERSION / TYPE
BNC 2.12.9          BKG Frankfurt       20190816 091817 UTC PGM / RUN BY / DATE
Concatenated RINEX files (4)                                COMMENT
                                                            END OF HEADER
J01 2019 08 15 00 00 00-2.593994140630e-04 4.661160346590e-12 0.000000000000e+00
     1.570000000000e+02-2.450937500000e+02 1.464346710200e-09 7.270390462430e-01
    -7.154420018200e-06 7.574355357790e-02 2.125091850760e-05 6.493768188480e+03
     3.456000000000e+05-8.549541234970e-07-2.986937629740e+00-1.082196831700e-06
     7.229314429160e-01-4.410312500000e+02-1.555394751590e+00-1.946152493630e-09
     8.264629969300e-10 2.000000000000e+00 2.066000000000e+03 1.000000000000e+00
     2.800000000000e+00 0.000000000000e+00-5.122274160390e-09 9.250000000000e+02
     3.455760000000e+05 1.000000000000e+00                                      
J02 2019 08 15 00 00 00-2.404209226370e-06-5.684341886080e-13 0.000000000000e+00
     1.570000000000e+02-1.830937500000e+02 2.467245627830e-09-1.484908467800e+00
    -6.800517439840e-06 7.517827081030e-02 1.479685306550e-05 6.493331388470e+03
     3.456000000000e+05-1.266598701480e-07-7.039083876730e-01 7.450580596920e-07
     7.590738449410e-01-3.072187500000e+02-1.579882611930e+00-2.546534644820e-09
    -1.044329214790e-09 2.000000000000e+00 2.066000000000e+03 1.000000000000e+00
     2.800000000000e+00 0.000000000000e+00 1.396983861920e-09 9.250000000000e+02
     3.455760000000e+05 1.000000000000e+00                                      
J03 2019 08 15 00 00 00-5.946494638920e-07-3.410605131650e-13 0.000000000000e+00
     1.570000000000e+02 9.640937500000e+02 2.170090392980e-09 3.081777739840e+00
     2.942420542240e-05 7.449556724170e-02-1.154281198980e-05 6.493078668590e+03
     3.456000000000e+05 3.091990947720e-07 9.868408945010e-01-1.229345798490e-07
     7.113270544500e-01 5.381250000000e+02-1.582774629810e+00-2.509747398200e-09
     2.782258749390e-10 2.000000000000e+00 2.066000000000e+03 1.000000000000e+00
     2.800000000000e+00 0.000000000000e+00 4.656612873080e-10 9.250000000000e+02
     3.455760000000e+05 1.000000000000e+00                                      
J07 2019 08 15 00 00 00-1.583248376850e-08 0.000000000000e+00 0.000000000000e+00
     1.570000000000e+02 4.415000000000e+02 0.000000000000e+00-1.154060180040e+00
     1.443549990650e-05 2.645818749440e-04 1.951679587360e-05 6.493344705580e+03
     3.456000000000e+05-3.352761268620e-07-2.828671929490e+00-3.397464752200e-06
     9.869679226040e-04-5.916250000000e+02-1.471679641940e-02 1.144690538100e-09
     0.000000000000e+00 2.000000000000e+00 2.066000000000e+03 1.000000000000e+00
     2.800000000000e+00 0.000000000000e+00-5.587935447690e-09 9.250000000000e+02
     3.455760000000e+05 1.000000000000e+00                                      
J07 2019 08 15 01 00 00-1.583248376850e-08 0.000000000000e+00 0.000000000000e+00
     1.610000000000e+02 3.946875000000e+02 0.000000000000e+00-8.768736877320e-01
     1.293979585170e-05 2.670368412510e-04 2.033263444900e-05 6.493355915070e+03
     3.492000000000e+05 2.220273017880e-06-2.831840064390e+00-3.281980752940e-06
     9.901424548360e-04-6.170937500000e+02-2.620958618020e-02 1.076116253130e-09
     0.000000000000e+00 2.000000000000e+00 2.066000000000e+03 1.000000000000e+00
     2.800000000000e+00 0.000000000000e+00-5.587935447690e-09 9.290000000000e+02
     3.456060000000e+05 1.000000000000e+00                                      
J01 2019 08 15 01 00 00-2.593826502560e-04 4.661160346590e-12 0.000000000000e+00
     1.610000000000e+02-3.170625000000e+02 1.069330256180e-09 9.894167377500e-01
    -9.080395102500e-06 7.574856863360e-02 2.013146877290e-05 6.493791690830e+03
     3.492000000000e+05 5.587935447690e-09-2.986945991780e+00-1.415610313420e-06
     7.229355478650e-01-3.989375000000e+02-1.555296674640e+00-1.681141454860e-09
     7.793181760160e-10 2.000000000000e+00 2.066000000000e+03 1.000000000000e+00
     2.800000000000e+00 0.000000000000e+00-5.122274160390e-09 9.290000000000e+02
     3.456060000000e+05 1.000000000000e+00                                      
J02 2019 08 15 01 00 00-2.405606210230e-06-5.684341886080e-13 0.000000000000e+00
     1.610000000000e+02-1.841875000000e+02 2.312239171190e-09-1.222268137150e+00
    -6.714835762980e-06 7.517868664580e-02 1.270696520810e-05 6.493351749420e+03
     3.492000000000e+05-2.700835466380e-07-7.039178074020e-01 6.332993507390e-07
     7.590694035220e-01-2.207812500000e+02-1.579992757950e+00-2.641181444380e-09
    -1.022899750740e-09 2.000000000000e+00 2.066000000000e+03 1.000000000000e+00
     2.800000000000e+00 0.000000000000e+00 1.396983861920e-09 9.290000000000e+02
     3.456060000000e+05 1.000000000000e+00                                      
J03 2019 08 15 01 00 00-5.951151251790e-07-3.410605131650e-13 0.000000000000e+00
     1.610000000000e+02 9.680312500000e+02 2.433315643080e-09-2.938847011070e+00
     2.944655716420e-05 7.449980988170e-02-1.206435263160e-05 6.493069870000e+03
     3.492000000000e+05 5.196779966350e-07 9.868331000740e-01-3.147870302200e-07
     7.113280624000e-01 5.944375000000e+02-1.582772779220e+00-2.551177695360e-09
     1.989368579470e-10 2.000000000000e+00 2.066000000000e+03 1.000000000000e+00
     2.800000000000e+00 0.000000000000e+00 4.656612873080e-10 9.290000000000e+02
     3.456060000000e+05 1.000000000000e+00                                      
J01 2019 08 15 02 00 00-2.593663521110e-04 4.661160346590e-12 0.000000000000e+00
     1.650000000000e+02-3.235937500000e+02 1.218979346810e-09 1.251885352540e+00
    -9.350478649140e-06 7.574875978750e-02 2.008303999900e-05 6.493792383190e+03
     3.528000000000e+05 1.862645149230e-07-2.986951612310e+00-8.028000593190e-07
     7.229365426490e-01-3.980937500000e+02-1.555293794150e+00-1.884007047880e-09
     6.421696060850e-10 2.000000000000e+00 2.066000000000e+03 1.000000000000e+00
     2.800000000000e+00 0.000000000000e+00-5.122274160390e-09 9.330000000000e+02
     3.492060000000e+05 1.000000000000e+00                                      
J02 2019 08 15 02 00 00-2.407468855380e-06-5.684341886080e-13 0.000000000000e+00
     1.650000000000e+02-1.556562500000e+02 2.101158950280e-09-9.596643165450e-01
    -6.008893251420e-06 7.518058491410e-02 1.145154237750e-05 6.493367097850e+03
     3.528000000000e+05-3.501772880550e-07-7.039269023640e-01 8.139759302140e-07
     7.590661865650e-01-1.680312500000e+02-1.580069081320e+00-2.574392948090e-09
    -1.069687413920e-09 2.000000000000e+00 2.066000000000e+03 1.000000000000e+00
     2.800000000000e+00 0.000000000000e+00 1.396983861920e-09 9.330000000000e+02
     3.492060000000e+05 1.000000000000e+00                                      
J03 2019 08 15 02 00 00-5.965121090410e-07-3.410605131650e-13 0.000000000000e+00
     1.650000000000e+02 9.601875000000e+02 2.528676758110e-09-2.676277121390e+00
     2.906471490860e-05 7.449859532060e-02-1.151300966740e-05 6.493072799680e+03
     3.528000000000e+05 8.773058652880e-07 9.868249355280e-01-1.620501279830e-07
     7.113288684680e-01 5.841875000000e+02-1.582779243850e+00-2.642610075320e-09
     1.553636143750e-10 2.000000000000e+00 2.066000000000e+03 1.000000000000e+00
     2.800000000000e+00 0.000000000000e+00 4.656612873080e-10 9.330000000000e+02
     3.492060000000e+05 1.000000000000e+00                                      
J07 2019 08 15 02 00 00-1.536682248120e-08 0.000000000000e+00 0.000000000000e+00
     1.650000000000e+02 3.461875000000e+02 0.000000000000e+00-6.033510781430e-01
     1.138076186180e-05 2.702553756540e-04 2.034381031990e-05 6.493366561890e+03
     3.528000000000e+05 4.189088940620e-06-2.833747181450e+00-1.108273863790e-06
     9.941991266700e-04-6.173750000000e+02-3.530114074280e-02 1.012542176450e-09
     0.000000000000e+00 2.000000000000e+00 2.066000000000e+03 1.000000000000e+00
     2.800000000000e+00 0.000000000000e+00-5.587935447690e-09 9.330000000000e+02
     3.492360000000e+05 1.000000000000e+00                                      
J07 2019 08 15 03 00 00-1.443549990650e-08 0.000000000000e+00 0.000000000000e+00
     1.690000000000e+02 3.210312500000e+02 0.000000000000e+00-3.362589268540e-01
     1.057051122190e-05 2.726168604570e-04 1.990236341950e-05 6.493373064040e+03
     3.564000000000e+05 4.027038812640e-06-2.834417606080e+00 2.028420567510e-06
     9.981490054840e-04-6.035937500000e+02-3.920018461650e-02 9.739691411530e-10
     0.000000000000e+00 2.000000000000e+00 2.066000000000e+03 1.000000000000e+00
     2.800000000000e+00 0.000000000000e+00-5.587935447690e-09 9.370000000000e+02
     3.528060000000e+05 1.000000000000e+00                                      
J01 2019 08 15 03 00 00-2.593500539660e-04 4.661160346590e-12 0.000000000000e+00
     1.690000000000e+02-3.390000000000e+02 1.708999758130e-09 1.514468769830e+00
    -9.780749678610e-06 7.574861554890e-02 2.216920256610e-05 6.493771911620e+03
     3.564000000000e+05-3.054738044740e-07-2.986958934210e+00-9.126961231230e-07
     7.229361461980e-01-4.845000000000e+02-1.555403605170e+00-2.240450466610e-09
     6.400266596790e-10 2.000000000000e+00 2.066000000000e+03 1.000000000000e+00
     2.800000000000e+00 0.000000000000e+00-5.122274160390e-09 9.370000000000e+02
     3.528060000000e+05 1.000000000000e+00                                      
J02 2019 08 15 03 00 00-2.409797161820e-06-5.684341886080e-13 0.000000000000e+00
     1.690000000000e+02-1.507187500000e+02 2.157589872280e-09-6.971305901960e-01
    -5.951151251790e-06 7.518079073630e-02 1.141242682930e-05 6.493368404390e+03
     3.564000000000e+05-7.748603820800e-07-7.039372759160e-01 5.997717380520e-07
     7.590617700150e-01-1.640937500000e+02-1.580075389420e+00-2.697969524120e-09
    -1.096474243980e-09 2.000000000000e+00 2.066000000000e+03 1.000000000000e+00
     2.800000000000e+00 0.000000000000e+00 1.396983861920e-09 9.370000000000e+02
     3.528060000000e+05 1.000000000000e+00                                      
J03 2019 08 15 03 00 00-5.979090929030e-07-3.410605131650e-13 0.000000000000e+00
     1.690000000000e+02 8.895312500000e+02 1.994011630020e-09-2.413670069200e+00
     2.744048833850e-05 7.449281716250e-02-1.020543277260e-05 6.493086751940e+03
     3.564000000000e+05-5.625188350680e-07 9.868080344360e-01-5.029141902920e-08
     7.113325477070e-01 5.306875000000e+02-1.582817720060e+00-2.222592579900e-09
     6.160970914880e-10 2.000000000000e+00 2.066000000000e+03 1.000000000000e+00
     2.800000000000e+00 0.000000000000e+00 4.656612873080e-10 9.370000000000e+02
     3.528060000000e+05 1.000000000000e+00                                      
J07 2019 08 15 04 00 00-1.396983861920e-08 0.000000000000e+00 0.000000000000e+00
     1.730000000000e+02 3.211875000000e+02 0.000000000000e+00-7.371972480240e-02
     1.056306064130e-05 2.723670331760e-04 1.996755599980e-05 6.493372491840e+03
     3.600000000000e+05 1.650303602220e-06-2.834483964050e+00 4.170462489130e-06
     1.001525420410e-03-6.064062500000e+02-3.915079065040e-02 9.814694535710e-10
     0.000000000000e+00 2.000000000000e+00 2.066000000000e+03 1.000000000000e+00
     2.800000000000e+00 0.000000000000e+00-5.587935447690e-09 9.410000000000e+02
     3.564060000000e+05 1.000000000000e+00                                      
J01 2019 08 15 04 00 00-2.593328244980e-04 4.661160346590e-12 0.000000000000e+00
     1.730000000000e+02-4.263125000000e+02 2.313667802120e-09 1.777113199580e+00
    -1.188367605210e-05 7.575167692270e-02 2.492219209670e-05 6.493741281510e+03
     3.600000000000e+05-1.061707735060e-07-2.986968716750e+00-1.918524503710e-06
     7.229360159980e-01-5.984375000000e+02-1.555568932470e+00-2.575107263550e-09
     8.032477442070e-10 2.000000000000e+00 2.066000000000e+03 1.000000000000e+00
     2.800000000000e+00 0.000000000000e+00-5.122274160390e-09 9.410000000000e+02
     3.564060000000e+05 1.000000000000e+00                                      
J02 2019 08 15 04 00 00-2.411659806970e-06-4.547473508860e-13 0.000000000000e+00
     1.730000000000e+02-1.949375000000e+02 2.432244169880e-09-4.346423064710e-01
    -7.197260856630e-06 7.517667242790e-02 1.119822263720e-05 6.493354402540e+03
     3.600000000000e+05-6.351619958880e-07-7.039501495950e-01 6.146728992460e-08
     7.590571252500e-01-1.560625000000e+02-1.580033216420e+00-2.945479833920e-09
    -9.800408226340e-10 2.000000000000e+00 2.066000000000e+03 1.000000000000e+00
     2.800000000000e+00 0.000000000000e+00 1.396983861920e-09 9.410000000000e+02
     3.564060000000e+05 1.000000000000e+00                                      
J03 2019 08 15 04 00 00-5.997717380520e-07-3.410605131650e-13 0.000000000000e+00
     1.730000000000e+02 7.713125000000e+02 9.332531594540e-10-2.151029425480e+00
     2.486817538740e-05 7.448624435350e-02-9.285286068920e-06 6.493105804440e+03
     3.600000000000e+05-1.478940248490e-06 9.867904384570e-01-2.058222889900e-06
     7.113401987690e-01 4.996875000000e+02-1.582892134310e+00-1.270410060540e-09
     1.036471744640e-09 2.000000000000e+00 2.066000000000e+03 1.000000000000e+00
     2.800000000000e+00 0.000000000000e+00 4.656612873080e-10 9.410000000000e+02
     3.564060000000e+05 1.000000000000e+00                                      
J07 2019 08 15 05 00 00-1.396983861920e-08 0.000000000000e+00 0.000000000000e+00
     1.770000000000e+02 3.190937500000e+02 0.000000000000e+00 1.895601980230e-01
     1.049786806110e-05 2.696440787990e-04 2.086721360680e-05 6.493365835190e+03
     3.636000000000e+05-1.443549990650e-06-2.834482887340e+00 4.008412361150e-06
     1.004537568740e-03-6.352187500000e+02-3.990900207300e-02 1.025042697140e-09
     0.000000000000e+00 2.000000000000e+00 2.066000000000e+03 1.000000000000e+00
     2.800000000000e+00 0.000000000000e+00-5.587935447690e-09 9.450000000000e+02
     3.600060000000e+05 1.000000000000e+00                                      
J01 2019 08 15 05 00 00-2.593169920150e-04 4.661160346590e-12 0.000000000000e+00
     1.770000000000e+02-5.440312500000e+02 2.700826785990e-09 2.039730347370e+00
    -1.469440758230e-05 7.575702585750e-02 2.639181911950e-05 6.493715063100e+03
     3.636000000000e+05 1.309439539910e-06-2.986979085910e+00-2.400949597360e-06
     7.229378504980e-01-6.562187500000e+02-1.555701768350e+00-2.683683214750e-09
     1.051829527210e-09 2.000000000000e+00 2.066000000000e+03 1.000000000000e+00
     2.800000000000e+00 0.000000000000e+00-5.122274160390e-09 9.450000000000e+02
     3.600060000000e+05 1.000000000000e+00                                      
J02 2019 08 15 05 00 00-2.413988113400e-06-4.547473508860e-13 0.000000000000e+00
     1.770000000000e+02-2.424062500000e+02 2.676897217800e-09-1.721457952950e-01
    -8.469447493550e-06 7.516950217540e-02 9.872019290920e-06 6.493333351140e+03
     3.636000000000e+05-3.669410943980e-07-7.039626590080e-01 3.166496753690e-08
     7.590535718220e-01-1.071250000000e+02-1.579996747330e+00-3.043341053080e-09
    -8.646788744890e-10 2.000000000000e+00 2.066000000000e+03 1.000000000000e+00
     2.800000000000e+00 0.000000000000e+00 1.396983861920e-09 9.450000000000e+02
     3.600060000000e+05 1.000000000000e+00                                      
J03 2019 08 15 05 00 00-6.030313670640e-07-3.410605131650e-13 0.000000000000e+00
     1.770000000000e+02 6.818125000000e+02 2.203663219990e-10-1.888396119760e+00
     2.295710146430e-05 7.448225351980e-02-9.454786777500e-06 6.493121845250e+03
     3.636000000000e+05 4.712492227550e-07 9.867823850930e-01-3.222376108170e-06
     7.113463400990e-01 5.166562500000e+02-1.582969894260e+00-6.821712723150e-10
     9.271814779730e-10 2.000000000000e+00 2.066000000000e+03 1.000000000000e+00
     2.800000000000e+00 0.000000000000e+00 4.656612873080e-10 9.450000000000e+02
     3.600060000000e+05 1.000000000000e+00                                      
J07 2019 08 15 06 00 00-1.490116119380e-08 0.000000000000e+00 0.000000000000e+00
     1.810000000000e+02 2.950625000000e+02 0.000000000000e+00 4.571452707810e-01
     9.749084711070e-06 2.656312426550e-04 2.204440534110e-05 6.493355501170e+03
     3.672000000000e+05-3.347173333170e-06-2.834383656140e+00 1.899898052220e-06
     1.007606770870e-03-6.728750000000e+02-4.506923640030e-02 1.092188351170e-09
     0.000000000000e+00 2.000000000000e+00 2.066000000000e+03 1.000000000000e+00
     2.800000000000e+00 0.000000000000e+00-5.587935447690e-09 9.490000000000e+02
     3.636060000000e+05 1.000000000000e+00                                      
J01 2019 08 15 06 00 00-2.593002282080e-04 4.661160346590e-12 0.000000000000e+00
     1.810000000000e+02-5.944062500000e+02 2.613323141110e-09 2.302262799520e+00
    -1.603364944460e-05 7.576005277220e-02 2.661719918250e-05 6.493704618450e+03
     3.672000000000e+05 2.603977918620e-06-2.986986634570e+00-1.320615410800e-06
     7.229419627600e-01-6.602812500000e+02-1.555748531990e+00-2.451530687520e-09
     1.212193349860e-09 2.000000000000e+00 2.066000000000e+03 1.000000000000e+00
     2.800000000000e+00 0.000000000000e+00-5.122274160390e-09 9.490000000000e+02
     3.636060000000e+05 1.000000000000e+00                                      
J02 2019 08 15 06 00 00-2.415385097270e-06-4.547473508860e-13 0.000000000000e+00
     1.810000000000e+02-2.501562500000e+02 2.817974522810e-09 9.038398117560e-02
    -8.666887879370e-06 7.516406476500e-02 8.706003427510e-06 6.493318307880e+03
     3.672000000000e+05-4.172325134280e-07-7.039726668300e-01-1.080334186550e-07
     7.590503182930e-01-5.893750000000e+01-1.579992658480e+00-3.031197690120e-09
    -9.436107337460e-10 2.000000000000e+00 2.066000000000e+03 1.000000000000e+00
     2.800000000000e+00 0.000000000000e+00 1.396983861920e-09 9.490000000000e+02
     3.636060000000e+05 1.000000000000e+00                                      
J03 2019 08 15 06 00 00-6.048940122130e-07-3.410605131650e-13 0.000000000000e+00
     1.810000000000e+02 6.720937500000e+02 2.392956819110e-10-1.625832772240e+00
     2.292357385160e-05 7.448178308550e-02-9.477138519290e-06 6.493124458310e+03
     3.672000000000e+05 2.406537532810e-06 9.867803106750e-01-1.695007085800e-06
     7.113474255840e-01 5.242500000000e+02-1.582984113830e+00-7.907472235100e-10
     5.560945921430e-10 2.000000000000e+00 2.066000000000e+03 1.000000000000e+00
     2.800000000000e+00 0.000000000000e+00 4.656612873080e-10 9.490000000000e+02
     3.636060000000e+05 1.000000000000e+00                                      
J07 2019 08 15 07 00 00-1.629814505580e-08 0.000000000000e+00 0.000000000000e+00
     1.850000000000e+02 2.590625000000e+02 0.000000000000e+00 7.279804164720e-01
     8.633360266690e-06 2.623342443260e-04 2.264976501460e-05 6.493345848080e+03
     3.708000000000e+05-3.226101398470e-06-2.833758023130e+00-5.271285772320e-07
     1.010740341390e-03-6.923750000000e+02-5.400445914820e-02 1.156119585590e-09
     0.000000000000e+00 2.000000000000e+00 2.066000000000e+03 1.000000000000e+00
     2.800000000000e+00 0.000000000000e+00-5.587935447690e-09 9.530000000000e+02
     3.672060000000e+05 1.000000000000e+00                                      
J01 2019 08 15 07 00 00-2.592843957250e-04 4.661160346590e-12 0.000000000000e+00
     1.850000000000e+02-5.395937500000e+02 1.974367954640e-09 2.564716235070e+00
    -1.505389809610e-05 7.575637008990e-02 2.742931246760e-05 6.493713619230e+03
     3.708000000000e+05 1.782551407810e-06-2.986987025160e+00 1.750886440280e-07
     7.229475715880e-01-6.949062500000e+02-1.555721182740e+00-1.875792420000e-09
     9.782550339630e-10 2.000000000000e+00 2.066000000000e+03 1.000000000000e+00
     2.800000000000e+00 0.000000000000e+00-5.122274160390e-09 9.530000000000e+02
     3.672060000000e+05 1.000000000000e+00                                      
J02 2019 08 15 07 00 00-2.417713403700e-06-4.547473508860e-13 0.000000000000e+00
     1.850000000000e+02-2.547187500000e+02 2.790116219540e-09 3.529161144070e-01
    -8.933246135710e-06 7.516440656040e-02 8.981674909590e-06 6.493319427490e+03
     3.708000000000e+05-7.152557373050e-07-7.039849173060e-01-1.545995473860e-07
     7.590470676890e-01-6.003125000000e+01-1.579988016640e+00-2.936550890560e-09
    -8.496782496520e-10 2.000000000000e+00 2.066000000000e+03 1.000000000000e+00
     2.800000000000e+00 0.000000000000e+00 1.396983861920e-09 9.530000000000e+02
     3.672060000000e+05 1.000000000000e+00                                      
J03 2019 08 15 07 00 00-6.062909960750e-07-3.410605131650e-13 0.000000000000e+00
     1.850000000000e+02 6.975625000000e+02 7.936044853840e-10-1.363371205790e+00
     2.370215952400e-05 7.448215328620e-02-7.679685950280e-06 6.493108104710e+03
     3.708000000000e+05 2.291053533550e-06 9.867771346800e-01 5.774199962620e-07
     7.113447001680e-01 4.560000000000e+02-1.582894331620e+00-1.314697619580e-09
     2.407243128480e-10 2.000000000000e+00 2.066000000000e+03 1.000000000000e+00
     2.800000000000e+00 0.000000000000e+00 4.656612873080e-10 9.530000000000e+02
     3.672060000000e+05 1.000000000000e+00                                      
J01 2019 08 15 08 00 00-2.592667005960e-04 4.661160346590e-12 0.000000000000e+00
     1.890000000000e+02-4.468437500000e+02 1.307197307160e-09 2.827142559820e+00
    -1.314096152780e-05 7.574557373300e-02 2.994947135450e-05 6.493737981800e+03
     3.744000000000e+05 4.246830940250e-07-2.986985565170e+00 1.862645149230e-08
     7.229514117480e-01-8.142500000000e+02-1.555670813010e+00-1.519706159000e-09
     5.718095324480e-10 2.000000000000e+00 2.066000000000e+03 1.000000000000e+00
     2.800000000000e+00 0.000000000000e+00-5.122274160390e-09 9.570000000000e+02
     3.708060000000e+05 1.000000000000e+00                                      
J02 2019 08 15 08 00 00-2.419110387560e-06-4.547473508860e-13 0.000000000000e+00
     1.890000000000e+02-3.110312500000e+02 2.327239796020e-09 6.153994110440e-01
    -1.071766018870e-05 7.517022686080e-02 9.564682841300e-06 6.493338680270e+03
     3.744000000000e+05-1.406297087670e-06-7.040010225710e-01-1.175329089160e-06
     7.590460919220e-01-7.840625000000e+01-1.579932950940e+00-2.414386283170e-09
    -5.335936548890e-10 2.000000000000e+00 2.066000000000e+03 1.000000000000e+00
     2.800000000000e+00 0.000000000000e+00 1.396983861920e-09 9.570000000000e+02
     3.708060000000e+05 1.000000000000e+00                                      
J03 2019 08 15 08 00 00-6.058253347870e-07-3.410605131650e-13 0.000000000000e+00
     1.890000000000e+02 6.756562500000e+02 1.603281068810e-09-1.100973542530e+00
     2.325139939790e-05 7.447975559630e-02-4.557892680170e-06 6.493077409740e+03
     3.744000000000e+05 7.655471563340e-07 9.867694938590e-01 1.600012183190e-06
     7.113404547790e-01 3.351875000000e+02-1.582733126820e+00-2.000440469230e-09
     1.000041655750e-10 2.000000000000e+00 2.066000000000e+03 1.000000000000e+00
     2.800000000000e+00 0.000000000000e+00 4.656612873080e-10 9.570000000000e+02
     3.708060000000e+05 1.000000000000e+00                                      
J07 2019 08 15 08 00 00-1.583248376850e-08 0.000000000000e+00 0.000000000000e+00
     1.890000000000e+02 2.424687500000e+02 0.000000000000e+00 9.954401946850e-01
     8.136034011840e-06 2.611625241120e-04 2.264045178890e-05 6.493341619490e+03
     3.744000000000e+05-1.838430762290e-06-2.832411762530e+00-1.797452569010e-06
     1.013375056850e-03-6.920937500000e+02-6.028390041500e-02 1.186477993000e-09
     0.000000000000e+00 2.000000000000e+00 2.066000000000e+03 1.000000000000e+00
     2.800000000000e+00 0.000000000000e+00-5.587935447690e-09 9.570000000000e+02
     3.708360000000e+05 1.000000000000e+00                                      
J07 2019 08 15 09 00 00-1.583248376850e-08 0.000000000000e+00 0.000000000000e+00
     1.930000000000e+02 2.584062500000e+02 0.000000000000e+00 1.252284838900e+00
     8.659437298770e-06 2.618058351800e-04 2.294778823850e-05 6.493345567700e+03
     3.780000000000e+05-6.128102540970e-07-2.830831133670e+00-1.758337020870e-06
     1.014883325390e-03-7.015312500000e+02-5.618252326760e-02 1.164334213480e-09
     0.000000000000e+00 2.000000000000e+00 2.066000000000e+03 1.000000000000e+00
     2.800000000000e+00 0.000000000000e+00-5.587935447690e-09 9.610000000000e+02
     3.744060000000e+05 1.000000000000e+00                                      
J01 2019 08 15 09 00 00-2.592499367890e-04 4.661160346590e-12 0.000000000000e+00
     1.930000000000e+02-4.047812500000e+02 9.196811655550e-10 3.089593208520e+00
    -1.220032572750e-05 7.573298411440e-02 3.334693610670e-05 6.493765052800e+03
     3.780000000000e+05 3.483146429060e-07-2.986990338670e+00-7.636845111850e-08
     7.229534130200e-01-9.683750000000e+02-1.555644890100e+00-1.503991218700e-09
     5.307363930150e-10 2.000000000000e+00 2.066000000000e+03 1.000000000000e+00
     2.800000000000e+00 0.000000000000e+00-5.122274160390e-09 9.610000000000e+02
     3.744060000000e+05 1.000000000000e+00                                      
J02 2019 08 15 09 00 00-2.420973032710e-06-4.547473508860e-13 0.000000000000e+00
     1.930000000000e+02-3.944062500000e+02 1.910079562480e-09 8.778346742290e-01
    -1.314282417300e-05 7.517629372890e-02 8.959323167800e-06 6.493363645550e+03
     3.780000000000e+05-2.421438694000e-07-7.040116433560e-01-2.117827534680e-06
     7.590448703860e-01-5.662500000000e+01-1.579836717260e+00-2.079015170760e-09
    -6.414552906160e-10 2.000000000000e+00 2.066000000000e+03 1.000000000000e+00
     2.800000000000e+00 0.000000000000e+00 1.396983861920e-09 9.610000000000e+02
     3.744060000000e+05 1.000000000000e+00                                      
J03 2019 08 15 09 00 00-6.062909960750e-07-3.410605131650e-13 0.000000000000e+00
     1.930000000000e+02 6.004687500000e+02 2.440458797760e-09-8.385521361020e-01
     2.141483128070e-05 7.447433634660e-02-2.307817339900e-06 6.493046033860e+03
     3.780000000000e+05-4.619359970090e-07 9.867564621850e-01 9.313225746150e-07
     7.113363454430e-01 2.509375000000e+02-1.582586811610e+00-2.750114553310e-09
     1.892935991240e-10 2.000000000000e+00 2.066000000000e+03 1.000000000000e+00
     2.800000000000e+00 0.000000000000e+00 4.656612873080e-10 9.610000000000e+02
     3.744060000000e+05 1.000000000000e+00                                      
J07 2019 08 15 10 00 00-1.536682248120e-08 0.000000000000e+00 0.000000000000e+00
     1.970000000000e+02 2.824687500000e+02 0.000000000000e+00 1.496769076130e+00
     9.424984455110e-06 2.626978093760e-04 2.437271177770e-05 6.493357303620e+03
     3.816000000000e+05-2.589076757430e-07-2.829972032110e+00-1.417472958560e-06
     1.015256369500e-03-7.465312500000e+02-3.900036171020e-02 1.091474035700e-09
     0.000000000000e+00 2.000000000000e+00 2.066000000000e+03 1.000000000000e+00
     2.800000000000e+00 0.000000000000e+00-5.587935447690e-09 9.650000000000e+02
     3.780060000000e+05 1.000000000000e+00                                      
J02 2019 08 15 10 00 00-2.423301339150e-06-4.547473508860e-13 0.000000000000e+00
     1.970000000000e+02-4.419375000000e+02 1.979725320650e-09 1.140282901790e+00
    -1.459382474420e-05 7.517887733410e-02 7.824972271920e-06 6.493379983900e+03
     3.816000000000e+05 6.873160600660e-07-7.040178329630e-01-1.158565282820e-06
     7.590394283300e-01-1.200000000000e+01-1.579759463480e+00-2.380456298420e-09
    -9.568255699110e-10 2.000000000000e+00 2.066000000000e+03 1.000000000000e+00
     2.800000000000e+00 0.000000000000e+00 1.396983861920e-09 9.650000000000e+02
     3.780060000000e+05 1.000000000000e+00                                      
J03 2019 08 15 10 00 00-6.067566573620e-07-3.410605131650e-13 0.000000000000e+00
     1.970000000000e+02 5.517812500000e+02 2.873333971610e-09-5.760398107820e-01
     2.015382051470e-05 7.447047892490e-02-1.864507794380e-06 6.493030452730e+03
     3.816000000000e+05-4.768371582030e-07 9.867417964310e-01 1.862645149230e-07
     7.113352584940e-01 2.361875000000e+02-1.582526793930e+00-3.169417733260e-09
     3.614436270060e-10 2.000000000000e+00 2.066000000000e+03 1.000000000000e+00
     2.800000000000e+00 0.000000000000e+00 4.656612873080e-10 9.650000000000e+02
     3.780060000000e+05 1.000000000000e+00                                      
J01 2019 08 15 10 00 00-2.592331729830e-04 4.661160346590e-12 0.000000000000e+00
     1.970000000000e+02-4.023750000000e+02 9.153952727450e-10-2.931121154900e+00
    -1.222454011440e-05 7.572838140190e-02 3.493204712870e-05 6.493774980550e+03
     3.816000000000e+05 8.214265108110e-07-2.986991765020e+00-7.078051567080e-07
     7.229549929720e-01-1.024000000000e+03-1.555645800030e+00-1.595780756390e-09
     2.739399821280e-10 2.000000000000e+00 2.066000000000e+03 1.000000000000e+00
     2.800000000000e+00 0.000000000000e+00-5.122274160390e-09 9.650000000000e+02
     3.780660000000e+05 1.000000000000e+00                                      
J07 2019 08 15 11 00 00-1.536682248120e-08 0.000000000000e+00 0.000000000000e+00
     2.010000000000e+02 2.790000000000e+02 0.000000000000e+00 1.736072997560e+00
     9.316951036450e-06 2.624100307000e-04 2.640858292580e-05 6.493372152330e+03
     3.852000000000e+05-1.974403858180e-07-2.830529519460e+00-1.704320311550e-06
     1.015313423310e-03-8.112500000000e+02-1.522324841800e-02 9.964700784070e-10
     0.000000000000e+00 2.000000000000e+00 2.066000000000e+03 1.000000000000e+00
     2.800000000000e+00 0.000000000000e+00-5.587935447690e-09 9.690000000000e+02
     3.816060000000e+05 1.000000000000e+00                                      
J02 2019 08 15 11 00 00-2.424698323010e-06-4.547473508860e-13 0.000000000000e+00
     2.010000000000e+02-4.466875000000e+02 2.127231464870e-09 1.402807989610e+00
    -1.480244100090e-05 7.517895789350e-02 7.789582014080e-06 6.493380002980e+03
     3.852000000000e+05 6.575137376790e-07-7.040263252020e-01-4.786998033520e-07
     7.590342232680e-01-1.259375000000e+01-1.579759507370e+00-2.574392948090e-09
    -1.078616357270e-09 2.000000000000e+00 2.066000000000e+03 1.000000000000e+00
     2.800000000000e+00 0.000000000000e+00 1.396983861920e-09 9.690000000000e+02
     3.816060000000e+05 1.000000000000e+00                                      
J03 2019 08 15 11 00 00-6.076879799370e-07-3.410605131650e-13 0.000000000000e+00
     2.010000000000e+02 5.749062500000e+02 2.848332930210e-09-3.134519798700e-01
     2.068839967250e-05 7.447310956200e-02-1.475214958190e-06 6.493038373950e+03
     3.852000000000e+05-3.613531589510e-07 9.867291992430e-01 1.862645149230e-08
     7.113364522360e-01 2.207187500000e+02-1.582543616030e+00-3.254778431730e-09
     4.071598169840e-10 2.000000000000e+00 2.066000000000e+03 1.000000000000e+00
     2.800000000000e+00 0.000000000000e+00 4.656612873080e-10 9.690000000000e+02
     3.816060000000e+05 1.000000000000e+00                                      
J01 2019 08 15 11 00 00-2.592164091770e-04 4.661160346590e-12 0.000000000000e+00
     2.010000000000e+02-3.859375000000e+02 1.398272529380e-09-2.668656390510e+00
    -1.220218837260e-05 7.572799641640e-02 3.528781235220e-05 6.493776149750e+03
     3.852000000000e+05 2.823770046230e-06-2.986988116500e+00-8.624047040940e-07
     7.229543770830e-01-1.024000000000e+03-1.555645381640e+00-2.090801375980e-09
    -2.592965150260e-10 2.000000000000e+00 2.066000000000e+03 1.000000000000e+00
     2.800000000000e+00 0.000000000000e+00-5.122274160390e-09 9.690000000000e+02
     3.816060000000e+05 1.000000000000e+00                                      
J02 2019 08 15 12 00 00-2.426560968160e-06-5.684341886080e-13 0.000000000000e+00
     2.050000000000e+02-4.716875000000e+02 2.195091434370e-09 1.665422273010e+00
    -1.526810228820e-05 7.517994602680e-02 9.398907423020e-06 6.493363859180e+03
     3.888000000000e+05 7.636845111850e-07-7.040350558970e-01 0.000000000000e+00
     7.590315739230e-01-8.018750000000e+01-1.579848370870e+00-2.409028917150e-09
    -1.142547591690e-09 2.000000000000e+00 2.066000000000e+03 1.000000000000e+00
     2.800000000000e+00 0.000000000000e+00 1.396983861920e-09 9.730000000000e+02
     3.852060000000e+05 1.000000000000e+00                                      
J07 2019 08 15 12 00 00-1.536682248120e-08 0.000000000000e+00 0.000000000000e+00
     2.050000000000e+02 2.507812500000e+02 0.000000000000e+00 1.981591574930e+00
     8.419156074520e-06 2.611451782290e-04 2.776645123960e-05 6.493383401870e+03
     3.888000000000e+05 6.370246410370e-07-2.832328475680e+00-2.376735210420e-06
     1.016183859570e-03-8.541250000000e+02 3.578716016460e-03 9.261100047700e-10
     0.000000000000e+00 2.000000000000e+00 2.066000000000e+03 1.000000000000e+00
     2.800000000000e+00 0.000000000000e+00-5.587935447690e-09 9.730000000000e+02
     3.852060000000e+05 1.000000000000e+00                                      
J03 2019 08 15 12 00 00-6.095506250860e-07-3.410605131650e-13 0.000000000000e+00
     2.050000000000e+02 6.080625000000e+02 2.629752396890e-09-5.086142061660e-02
     2.147443592550e-05 7.448121905330e-02 1.210719347000e-07 6.493061153410e+03
     3.888000000000e+05-3.091990947720e-07 9.867172164810e-01 0.000000000000e+00
     7.113379605040e-01 1.540625000000e+02-1.582566209330e+00-3.272636318440e-09
     4.193031799460e-10 2.000000000000e+00 2.066000000000e+03 1.000000000000e+00
     2.800000000000e+00 0.000000000000e+00 4.656612873080e-10 9.730000000000e+02
     3.852060000000e+05 1.000000000000e+00                                      
J01 2019 08 15 12 00 00-2.592001110320e-04 4.661160346590e-12 0.000000000000e+00
     2.050000000000e+02-2.928750000000e+02 1.862577583830e-09-2.406237735840e+00
    -1.053698360920e-05 7.573508971840e-02 3.434717655180e-05 6.493758386610e+03
     3.888000000000e+05 2.529472112660e-06-2.986995736840e+00 7.487833499910e-07
     7.229549724910e-01-9.713750000000e+02-1.555587450080e+00-2.275451924560e-09
    -6.893144269980e-11 2.000000000000e+00 2.066000000000e+03 1.000000000000e+00
     2.800000000000e+00 0.000000000000e+00-5.122274160390e-09 9.730000000000e+02
     3.852060000000e+05 1.000000000000e+00                                      
J02 2019 08 15 13 00 00-2.428889274600e-06-5.684341886080e-13 0.000000000000e+00
     2.090000000000e+02-5.472187500000e+02 2.174376285790e-09 1.928067331810e+00
    -1.678615808490e-05 7.518355944190e-02 1.115538179870e-05 6.493341602330e+03
     3.924000000000e+05 5.085021257400e-07-7.040409865670e-01 9.611248970030e-07
     7.590304021260e-01-1.518437500000e+02-1.579967231500e+00-2.010798043520e-09
    -1.321126458790e-09 2.000000000000e+00 2.066000000000e+03 1.000000000000e+00
     2.800000000000e+00 0.000000000000e+00 1.396983861920e-09 9.770000000000e+02
     3.888060000000e+05 1.000000000000e+00                                      
J03 2019 08 15 13 00 00-6.118789315220e-07-3.410605131650e-13 0.000000000000e+00
     2.090000000000e+02 5.998125000000e+02 2.447244794710e-09 2.116960825400e-01
     2.131424844260e-05 7.448787905740e-02 1.391395926480e-06 6.493079553600e+03
     3.924000000000e+05-1.676380634310e-07 9.867072730270e-01-2.346932888030e-07
     7.113392025220e-01 9.487500000000e+01-1.582560599040e+00-3.310495038260e-09
     2.721541934570e-10 2.000000000000e+00 2.066000000000e+03 1.000000000000e+00
     2.800000000000e+00 0.000000000000e+00 4.656612873080e-10 9.770000000000e+02
     3.888060000000e+05 1.000000000000e+00                                      
J07 2019 08 15 13 00 00-1.583248376850e-08 0.000000000000e+00 0.000000000000e+00
     2.090000000000e+02 2.438437500000e+02 0.000000000000e+00 2.242525345820e+00
     8.147209882740e-06 2.609824296090e-04 2.793781459330e-05 6.493384462360e+03
     3.924000000000e+05 2.400949597360e-06-2.834404340340e+00-2.209097146990e-06
     1.018423587140e-03-8.587187500000e+02 7.241495694510e-03 9.275386357070e-10
     0.000000000000e+00 2.000000000000e+00 2.066000000000e+03 1.000000000000e+00
     2.800000000000e+00 0.000000000000e+00-5.587935447690e-09 9.770000000000e+02
     3.888060000000e+05 1.000000000000e+00                                      
J01 2019 08 15 13 00 00-2.591842785480e-04 4.661160346590e-12 0.000000000000e+00
     2.090000000000e+02-1.504375000000e+02 1.392915163360e-09-2.143873276420e+00
    -7.631257176400e-06 7.574487698730e-02 3.459490835670e-05 6.493728309630e+03
     3.924000000000e+05 9.313225746150e-09-2.987015759800e+00-5.830079317090e-07
     7.229636666130e-01-9.623437500000e+02-1.555459797320e+00-1.185406519800e-09
     7.243158849500e-10 2.000000000000e+00 2.066000000000e+03 1.000000000000e+00
     2.800000000000e+00 0.000000000000e+00-5.122274160390e-09 9.770000000000e+02
     3.888060000000e+05 1.000000000000e+00                                      
J02 2019 08 15 14 00 00-2.431217581030e-06-5.684341886080e-13 0.000000000000e+00
     2.130000000000e+02-6.189062500000e+02 2.322596745480e-09 2.190668977060e+00
    -1.825205981730e-05 7.518726808480e-02 1.165270805360e-05 6.493326923370e+03
     3.960000000000e+05-4.693865776060e-07-7.040472332280e-01 1.033768057820e-06
     7.590264595620e-01-1.726250000000e+02-1.580038431720e+00-1.936509234810e-09
    -1.496848064020e-09 2.000000000000e+00 2.066000000000e+03 1.000000000000e+00
     2.800000000000e+00 0.000000000000e+00 1.396983861920e-09 9.810000000000e+02
     3.924060000000e+05 1.000000000000e+00                                      
J03 2019 08 15 14 00 00-6.137415766720e-07-3.410605131650e-13 0.000000000000e+00
     2.130000000000e+02 6.046562500000e+02 2.509390240460e-09 4.742635247620e-01
     2.160854637620e-05 7.448757486420e-02 1.249834895130e-06 6.493078350070e+03
     3.960000000000e+05 1.396983861920e-07 9.866970355260e-01-1.024454832080e-07
     7.113397891520e-01 9.387500000000e+01-1.582566376100e+00-3.439428980310e-09
     1.635782422620e-10 2.000000000000e+00 2.066000000000e+03 1.000000000000e+00
     2.800000000000e+00 0.000000000000e+00 4.656612873080e-10 9.810000000000e+02
     3.924060000000e+05 1.000000000000e+00                                      
J07 2019 08 15 14 00 00-1.676380634310e-08 0.000000000000e+00 0.000000000000e+00
     2.130000000000e+02 2.754375000000e+02 0.000000000000e+00 2.513416666100e+00
     9.050592780110e-06 2.633443800730e-04 2.804584801200e-05 6.493376600270e+03
     3.960000000000e+05 3.892928361890e-06-2.835815637890e+00-4.190951585770e-07
     1.021649321510e-03-8.622812500000e+02 2.827279367530e-04 9.900412391920e-10
     0.000000000000e+00 2.000000000000e+00 2.066000000000e+03 1.000000000000e+00
     2.800000000000e+00 0.000000000000e+00-5.587935447690e-09 9.810000000000e+02
     3.924060000000e+05 1.000000000000e+00                                      
J01 2019 08 15 14 00 00-2.591684460640e-04 4.661160346590e-12 0.000000000000e+00
     2.130000000000e+02-7.653125000000e+01 5.903817346260e-10-1.881478111820e+00
    -6.137415766720e-06 7.574978028420e-02 3.590248525140e-05 6.493708997730e+03
     3.960000000000e+05 9.946525096890e-07-2.987027828880e+00-2.911314368250e-06
     7.229749661920e-01-9.972500000000e+02-1.555364486740e+00 1.007184810430e-10
     9.953986052040e-10 2.000000000000e+00 2.066000000000e+03 1.000000000000e+00
     2.800000000000e+00 0.000000000000e+00-5.122274160390e-09 9.810000000000e+02
     3.924060000000e+05 1.000000000000e+00                                      
J03 2019 08 15 15 00 00-6.156042218210e-07-3.410605131650e-13 0.000000000000e+00
     2.170000000000e+02 6.751562500000e+02 2.216520898420e-09 7.368891062750e-01
     2.346746623520e-05 7.448248297440e-02 7.860362529750e-07 6.493060508730e+03
     3.996000000000e+05-7.543712854390e-07 9.866776738060e-01-9.499490261080e-07
     7.113446211700e-01 1.038437500000e+02-1.582622773060e+00-2.773329806030e-09
     6.568130731870e-10 2.000000000000e+00 2.066000000000e+03 1.000000000000e+00
     2.800000000000e+00 0.000000000000e+00 4.656612873080e-10 9.850000000000e+02
     3.960060000000e+05 1.000000000000e+00                                      
J02 2019 08 15 15 00 00-2.433080226180e-06-5.684341886080e-13 0.000000000000e+00
     2.170000000000e+02-6.204062500000e+02 2.582250418240e-09 2.453201977800e+00
    -1.817755401130e-05 7.518693350720e-02 1.157447695730e-05 6.493327802660e+03
     3.996000000000e+05-3.781169652940e-07-7.040583894410e-01 1.192092895510e-07
     7.590199539650e-01-1.728125000000e+02-1.580035167950e+00-2.255093933710e-09
    -1.403272737660e-09 2.000000000000e+00 2.066000000000e+03 1.000000000000e+00
     2.800000000000e+00 0.000000000000e+00 1.396983861920e-09 9.850000000000e+02
     3.960060000000e+05 1.000000000000e+00                                      
J07 2019 08 15 15 00 00-1.816079020500e-08 0.000000000000e+00 0.000000000000e+00
     2.170000000000e+02 3.096875000000e+02 0.000000000000e+00 2.783050481020e+00
     1.005269587040e-05 2.667956287040e-04 2.870894968510e-05 6.493367042540e+03
     3.996000000000e+05 3.656372427940e-06-2.836334969420e+00 2.266839146610e-06
     1.025016958930e-03-8.848437500000e+02-6.309107782520e-03 1.063615732440e-09
     0.000000000000e+00 2.000000000000e+00 2.066000000000e+03 1.000000000000e+00
     2.800000000000e+00 0.000000000000e+00-5.587935447690e-09 9.850000000000e+02
     3.960060000000e+05 1.000000000000e+00                                      
J01 2019 08 15 15 00 00-2.591516822580e-04 4.661160346590e-12 0.000000000000e+00
     2.170000000000e+02-9.609375000000e+01 6.943146352770e-10-1.618952727030e+00
    -6.316229701040e-06 7.574878225570e-02 3.523938357830e-05 6.493717536930e+03
     3.996000000000e+05 2.469867467880e-06-2.987026643910e+00-1.065433025360e-06
     7.229748974350e-01-9.636250000000e+02-1.555411398130e+00-2.096515899730e-10
     6.200258265640e-10 2.000000000000e+00 2.066000000000e+03 1.000000000000e+00
     2.800000000000e+00 0.000000000000e+00-5.122274160390e-09 9.850000000000e+02
     3.960060000000e+05 1.000000000000e+00                                      
J03 2019 08 15 16 00 00-6.165355443950e-07-3.410605131650e-13 0.000000000000e+00
     2.210000000000e+02 7.693437500000e+02 1.424345043970e-09 9.995590888140e-01
     2.593733370300e-05 7.447771984150e-02 1.195818185810e-06 6.493037408830e+03
     4.032000000000e+05 6.444752216340e-07 9.866589338250e-01-3.162771463390e-06
     7.113561606680e-01 6.753125000000e+01-1.582721591710e+00-1.281124792560e-09
     1.040043321980e-09 2.000000000000e+00 2.066000000000e+03 1.000000000000e+00
     2.800000000000e+00 0.000000000000e+00 4.656612873080e-10 9.890000000000e+02
     3.996060000000e+05 1.000000000000e+00                                      
J02 2019 08 15 16 00 00-2.435408532620e-06-5.684341886080e-13 0.000000000000e+00
     2.210000000000e+02-5.647187500000e+02 2.646181652660e-09 2.715699314060e+00
    -1.693144440650e-05 7.518143299970e-02 1.240521669390e-05 6.493341350560e+03
     4.032000000000e+05 7.115304470060e-07-7.040729674190e-01 1.192092895510e-07
     7.590139340570e-01-2.153750000000e+02-1.579994703640e+00-2.564392531530e-09
    -1.065758678840e-09 2.000000000000e+00 2.066000000000e+03 1.000000000000e+00
     2.800000000000e+00 0.000000000000e+00 1.396983861920e-09 9.890000000000e+02
     3.996060000000e+05 1.000000000000e+00                                      
J07 2019 08 15 16 00 00-1.955777406690e-08 0.000000000000e+00 0.000000000000e+00
     2.210000000000e+02 3.169062500000e+02 0.000000000000e+00 3.046870540990e+00
     1.025386154650e-05 2.679566387090e-04 2.900511026380e-05 6.493364112850e+03
     4.032000000000e+05 1.480802893640e-06-2.836380869940e+00 4.097819328310e-06
     1.027998385970e-03-8.955000000000e+02-7.559623322940e-03 1.088973931560e-09
     0.000000000000e+00 2.000000000000e+00 2.066000000000e+03 1.000000000000e+00
     2.800000000000e+00 0.000000000000e+00-5.587935447690e-09 9.890000000000e+02
     3.996060000000e+05 1.000000000000e+00                                      
J01 2019 08 15 16 00 00-2.591353841130e-04 4.547473508860e-12 0.000000000000e+00
     2.210000000000e+02-1.085625000000e+02 1.698642183840e-09-1.356295272930e+00
    -5.744397640230e-06 7.574732915960e-02 3.179535269740e-05 6.493750583650e+03
     4.032000000000e+05 6.332993507390e-08-2.987029392740e+00 7.078051567080e-07
     7.229626294040e-01-8.194687500000e+02-1.555594099050e+00-2.065086019120e-09
     4.507330605550e-10 2.000000000000e+00 2.066000000000e+03 1.000000000000e+00
     2.800000000000e+00 0.000000000000e+00-5.122274160390e-09 9.890000000000e+02
     3.996060000000e+05 1.000000000000e+00                                      
J03 2019 08 15 17 00 00-6.174668669700e-07-3.410605131650e-13 0.000000000000e+00
     1.000000000000e+00 8.106875000000e+02 1.041471952920e-09 1.262204365590e+00
     2.706050872800e-05 7.447592611420e-02 2.069398760800e-06 6.493021783830e+03
     4.068000000000e+05 3.358349204060e-06 9.866524413950e-01-2.056360244750e-06
     7.113646763140e-01 1.487500000000e+01-1.582800662440e+00-4.653765276570e-10
     7.896757503080e-10 2.000000000000e+00 2.066000000000e+03 1.000000000000e+00
     2.800000000000e+00 0.000000000000e+00 4.656612873080e-10 7.690000000000e+02
     4.032060000000e+05 1.000000000000e+00                                      
J02 2019 08 15 17 00 00-2.437736839060e-06-5.684341886080e-13 0.000000000000e+00
     1.000000000000e+00-5.188437500000e+02 2.373670301470e-09 2.978204665650e+00
    -1.600384712220e-05 7.517400709910e-02 1.408718526360e-05 6.493357601170e+03
     4.068000000000e+05 6.370246410370e-07-7.040824237220e-01 2.980232238770e-07
     7.590099534570e-01-3.004062500000e+02-1.579968976760e+00-2.543320225210e-09
    -1.034328798230e-09 2.000000000000e+00 2.066000000000e+03 1.000000000000e+00
     2.800000000000e+00 0.000000000000e+00 1.396983861920e-09 7.690000000000e+02
     4.032060000000e+05 1.000000000000e+00                                      
J01 2019 08 15 17 00 00-2.591181546450e-04 4.547473508860e-12 0.000000000000e+00
     1.000000000000e+00-4.681250000000e+01 2.598679674010e-09-1.093618193770e+00
    -3.417953848840e-06 7.574959087650e-02 2.824515104290e-05 6.493788358690e+03
     4.068000000000e+05-1.648440957070e-06-2.987045072290e+00-1.372769474980e-06
     7.229520422660e-01-6.691875000000e+02-1.555792870110e+00-3.829088068320e-09
     8.946801241610e-10 2.000000000000e+00 2.066000000000e+03 1.000000000000e+00
     2.800000000000e+00 0.000000000000e+00-5.122274160390e-09 7.690000000000e+02
     4.032060000000e+05 1.000000000000e+00                                      
J07 2019 08 15 17 00 00-1.955777406690e-08 0.000000000000e+00 0.000000000000e+00
     1.000000000000e+00 3.198750000000e+02 0.000000000000e+00-2.973230090260e+00
     1.034513115880e-05 2.651017857720e-04 2.809613943100e-05 6.493371116640e+03
     4.068000000000e+05-1.277774572370e-06-2.836379496260e+00 3.868713974950e-06
     1.030688692320e-03-8.653750000000e+02-8.122375723840e-03 1.039329006510e-09
     0.000000000000e+00 2.000000000000e+00 2.066000000000e+03 1.000000000000e+00
     2.800000000000e+00 0.000000000000e+00-5.587935447690e-09 7.690000000000e+02
     4.032360000000e+05 1.000000000000e+00                                      
J03 2019 08 15 18 00 00-6.197951734070e-07-3.410605131650e-13 0.000000000000e+00
     5.000000000000e+00 8.107500000000e+02 1.401129791250e-09 1.524754473700e+00
     2.684257924560e-05 7.447556813710e-02 1.493841409680e-06 6.493024511340e+03
     4.104000000000e+05 2.829357981680e-06 9.866501811860e-01 5.289912223820e-07
     7.113633757800e-01 2.771875000000e+01-1.582784261660e+00-9.343246326570e-10
     3.868018261340e-10 2.000000000000e+00 2.066000000000e+03 1.000000000000e+00
     2.800000000000e+00 0.000000000000e+00 4.656612873080e-10 7.730000000000e+02
     4.068060000000e+05 1.000000000000e+00                                      
J02 2019 08 15 18 00 00-2.440065145490e-06-5.684341886080e-13 0.000000000000e+00
     5.000000000000e+00-5.125937500000e+02 2.170447550710e-09-3.042455363530e+00
    -1.588650047780e-05 7.516940741330e-02 1.502037048340e-05 6.493367244720e+03
     4.104000000000e+05 5.308538675310e-07-7.040912816910e-01 2.700835466380e-07
     7.590061030560e-01-3.594375000000e+02-1.579966315710e+00-2.523676549830e-09
    -1.049686580800e-09 2.000000000000e+00 2.066000000000e+03 1.000000000000e+00
     2.800000000000e+00 0.000000000000e+00 1.396983861920e-09 7.730000000000e+02
     4.068060000000e+05 1.000000000000e+00                                      
J07 2019 08 15 18 00 00-1.816079020500e-08 0.000000000000e+00 0.000000000000e+00
     5.000000000000e+00 3.455000000000e+02 0.000000000000e+00-2.705825120270e+00
     1.111254096030e-05 2.608854556460e-04 2.692453563210e-05 6.493381896970e+03
     4.104000000000e+05-2.875924110410e-06-2.836288474960e+00 1.991167664530e-06
     1.033368758240e-03-8.262500000000e+02-1.309648005810e-02 9.607543049870e-10
     0.000000000000e+00 2.000000000000e+00 2.066000000000e+03 1.000000000000e+00
     2.800000000000e+00 0.000000000000e+00-5.587935447690e-09 7.730000000000e+02
     4.068060000000e+05 1.000000000000e+00                                      
J01 2019 08 15 18 00 00-2.591013908390e-04 4.547473508860e-12 0.000000000000e+00
     5.000000000000e+00 1.150000000000e+01 2.481174779460e-09-8.310449481520e-01
    -1.629814505580e-06 7.575295702550e-02 2.673082053660e-05 6.493809316640e+03
     4.104000000000e+05 2.775341272350e-07-2.987059654660e+00-2.117827534680e-06
     7.229546916100e-01-6.128437500000e+02-1.555890711540e+00-3.896948037810e-09
     1.286125000840e-09 2.000000000000e+00 2.066000000000e+03 1.000000000000e+00
     2.800000000000e+00 0.000000000000e+00-5.122274160390e-09 7.730000000000e+02
     4.068060000000e+05 1.000000000000e+00                                      
J02 2019 08 15 19 00 00-2.441927790640e-06-5.684341886080e-13 0.000000000000e+00
     9.000000000000e+00-5.047500000000e+02 2.067228965530e-09-2.779933197160e+00
    -1.556426286700e-05 7.517100032420e-02 1.435540616510e-05 6.493363492970e+03
     4.140000000000e+05-6.705522537230e-08-7.041042650890e-01 7.785856723790e-07
     7.590029636340e-01-3.444687500000e+02-1.579958200900e+00-2.402957235670e-09
    -7.925330121810e-10 2.000000000000e+00 2.066000000000e+03 1.000000000000e+00
     2.800000000000e+00 0.000000000000e+00 1.396983861920e-09 7.770000000000e+02
     4.104060000000e+05 1.000000000000e+00                                      
J03 2019 08 15 19 00 00-6.211921572690e-07-3.410605131650e-13 0.000000000000e+00
     9.000000000000e+00 8.517187500000e+02 2.111873682300e-09 1.787208953780e+00
     2.733990550040e-05 7.447298977060e-02-7.674098014830e-07 6.493045452120e+03
     4.140000000000e+05 7.022172212600e-07 9.866409340810e-01 3.091990947720e-07
     7.113559119720e-01 1.096562500000e+02-1.582667204810e+00-2.148660928920e-09
     3.435857402970e-10 2.000000000000e+00 2.066000000000e+03 1.000000000000e+00
     2.800000000000e+00 0.000000000000e+00 4.656612873080e-10 7.770000000000e+02
     4.104060000000e+05 1.000000000000e+00                                      
J07 2019 08 15 19 00 00-1.722946763040e-08 0.000000000000e+00 0.000000000000e+00
     9.000000000000e+00 3.665000000000e+02 0.000000000000e+00-2.439018099030e+00
     1.174211502080e-05 2.589769428600e-04 2.655759453770e-05 6.493387311940e+03
     4.140000000000e+05-2.728775143620e-06-2.835775627080e+00 2.980232238770e-08
     1.035917161540e-03-8.139375000000e+02-1.789573203480e-02 9.207526387580e-10
     0.000000000000e+00 2.000000000000e+00 2.066000000000e+03 1.000000000000e+00
     2.800000000000e+00 0.000000000000e+00-5.587935447690e-09 7.770000000000e+02
     4.104060000000e+05 1.000000000000e+00                                      
J01 2019 08 15 19 00 00-2.590841613710e-04 4.547473508860e-12 0.000000000000e+00
     9.000000000000e+00-2.931250000000e+01 1.894007464440e-09-5.686012000420e-01
    -2.471730113030e-06 7.575063884720e-02 2.625025808810e-05 6.493801383970e+03
     4.140000000000e+05 4.712492227550e-07-2.987061781740e+00-1.005828380580e-07
     7.229633301420e-01-6.047500000000e+02-1.555867158560e+00-2.868690921060e-09
     9.078949603260e-10 2.000000000000e+00 2.066000000000e+03 1.000000000000e+00
     2.800000000000e+00 0.000000000000e+00-5.122274160390e-09 7.770000000000e+02
     4.104060000000e+05 1.000000000000e+00                                      
J02 2019 08 15 20 00 00-2.444256097080e-06-5.684341886080e-13 0.000000000000e+00
     1.300000000000e+01-4.450625000000e+02 1.930437553330e-09-2.517444237570e+00
    -1.398473978040e-05 7.517772517170e-02 1.299008727070e-05 6.493347120290e+03
     4.176000000000e+05-1.402571797370e-06-7.041191063930e-01 4.675239324570e-07
     7.590017069880e-01-2.871250000000e+02-1.579913467790e+00-2.015441094070e-09
    -4.489472718840e-10 2.000000000000e+00 2.066000000000e+03 1.000000000000e+00
     2.800000000000e+00 0.000000000000e+00 1.396983861920e-09 7.810000000000e+02
     4.140060000000e+05 1.000000000000e+00                                      
J03 2019 08 15 20 00 00-6.230548024180e-07-3.410605131650e-13 0.000000000000e+00
     1.300000000000e+01 9.629687500000e+02 2.291881180340e-09 2.049634917190e+00
     2.962723374370e-05 7.446715817790e-02-2.585351467130e-06 6.493073167800e+03
     4.176000000000e+05 6.482005119320e-07 9.866275556950e-01-8.475035429000e-07
     7.113527784010e-01 1.780937500000e+02-1.582523057640e+00-2.811902841330e-09
     5.468084910540e-10 2.000000000000e+00 2.066000000000e+03 1.000000000000e+00
     2.800000000000e+00 0.000000000000e+00 4.656612873080e-10 7.810000000000e+02
     4.140060000000e+05 1.000000000000e+00                                      
J07 2019 08 15 20 00 00-1.722946763040e-08 0.000000000000e+00 0.000000000000e+00
     1.300000000000e+01 3.490000000000e+02 0.000000000000e+00-2.181921075120e+00
     1.118890941140e-05 2.601316664370e-04 2.644397318360e-05 6.493382907870e+03
     4.176000000000e+05-1.735985279080e-06-2.834836329810e+00-8.437782526020e-07
     1.037769215820e-03-8.101875000000e+02-1.341151946650e-02 9.482537842910e-10
     0.000000000000e+00 2.000000000000e+00 2.066000000000e+03 1.000000000000e+00
     2.800000000000e+00 0.000000000000e+00-5.587935447690e-09 7.810000000000e+02
     4.140060000000e+05 1.000000000000e+00                                      
J01 2019 08 15 20 00 00-2.590678632260e-04 4.547473508860e-12 0.000000000000e+00
     1.300000000000e+01-1.290000000000e+02 1.927937449190e-09-3.062041307230e-01
    -4.969537258150e-06 7.573987287470e-02 2.454780042170e-05 6.493768201830e+03
     4.176000000000e+05-4.488974809650e-07-2.987064745610e+00 1.695007085800e-07
     7.229674467930e-01-5.428750000000e+02-1.555792777950e+00-2.451887845260e-09
     4.810914679620e-10 2.000000000000e+00 2.066000000000e+03 1.000000000000e+00
     2.800000000000e+00 0.000000000000e+00-5.122274160390e-09 7.810000000000e+02
     4.140060000000e+05 1.000000000000e+00                                      
J02 2019 08 15 21 00 00-2.445653080940e-06-5.684341886080e-13 0.000000000000e+00
     1.700000000000e+01-3.450312500000e+02 1.972225008230e-09-2.254986054840e+00
    -1.153163611890e-05 7.518511649690e-02 1.222454011440e-05 6.493326732640e+03
     4.212000000000e+05-1.225620508190e-06-7.041282598710e-01-6.984919309620e-07
     7.590001914050e-01-2.498750000000e+02-1.579838784360e+00-1.767216468800e-09
    -4.760912596830e-10 2.000000000000e+00 2.066000000000e+03 1.000000000000e+00
     2.800000000000e+00 0.000000000000e+00 1.396983861920e-09 7.850000000000e+02
     4.176060000000e+05 1.000000000000e+00                                      
J03 2019 08 15 21 00 00-6.244517862800e-07-3.410605131650e-13 0.000000000000e+00
     1.700000000000e+01 1.023968750000e+03 2.055799918030e-09 2.312140567220e+00
     3.094412386420e-05 7.446414930750e-02-2.903863787650e-06 6.493084587100e+03
     4.212000000000e+05 1.046806573870e-06 9.866184080680e-01-4.842877388000e-07
     7.113549991110e-01 1.922500000000e+02-1.582467523800e+00-2.713684464420e-09
     5.857386840820e-10 2.000000000000e+00 2.066000000000e+03 1.000000000000e+00
     2.800000000000e+00 0.000000000000e+00 4.656612873080e-10 7.850000000000e+02
     4.176060000000e+05 1.000000000000e+00                                      
J07 2019 08 15 21 00 00-1.676380634310e-08 0.000000000000e+00 0.000000000000e+00
     1.700000000000e+01 3.070625000000e+02 0.000000000000e+00-1.936163613470e+00
     9.896233677860e-06 2.624135231600e-04 2.552010118960e-05 6.493370895390e+03
     4.212000000000e+05-1.139938831330e-06-2.834090044090e+00-8.270144462590e-07
     1.038503600700e-03-7.802812500000e+02 2.606541121470e-03 1.029328589950e-09
     0.000000000000e+00 2.000000000000e+00 2.066000000000e+03 1.000000000000e+00
     2.800000000000e+00 0.000000000000e+00-5.587935447690e-09 7.850000000000e+02
     4.176060000000e+05 1.000000000000e+00                                      
J01 2019 08 15 21 00 00-2.590515650810e-04 4.547473508860e-12 0.000000000000e+00
     1.700000000000e+01-1.753437500000e+02 2.207591955070e-09-4.375863003690e-02
    -6.223097443580e-06 7.572773424910e-02 2.168677747250e-05 6.493733932500e+03
     4.212000000000e+05-4.675239324570e-07-2.987072744850e+00 2.235174179080e-08
     7.229691920540e-01-4.406562500000e+02-1.555758043890e+00-2.449387741120e-09
     4.093027633890e-10 2.000000000000e+00 2.066000000000e+03 1.000000000000e+00
     2.800000000000e+00 0.000000000000e+00-5.122274160390e-09 7.850000000000e+02
     4.176060000000e+05 1.000000000000e+00                                      
J02 2019 08 15 22 00 00-2.447515726090e-06-5.684341886080e-13 0.000000000000e+00
     2.100000000000e+01-2.668437500000e+02 2.212592163340e-09-1.992519232130e+00
    -9.609386324880e-06 7.518938567960e-02 1.235492527480e-05 6.493312053680e+03
     4.248000000000e+05-5.960464477540e-08-7.041334546930e-01-8.251518011090e-07
     7.589965853110e-01-2.533750000000e+02-1.579773017420e+00-1.860791795160e-09
    -7.000291590240e-10 2.000000000000e+00 2.066000000000e+03 1.000000000000e+00
     2.800000000000e+00 0.000000000000e+00 1.396983861920e-09 7.890000000000e+02
     4.212060000000e+05 1.000000000000e+00                                      
J03 2019 08 15 22 00 00-6.253831088540e-07-3.410605131650e-13 0.000000000000e+00
     2.100000000000e+01 1.023968750000e+03 1.703285234380e-09 2.574693848390e+00
     3.105588257310e-05 7.446650916240e-02-3.514811396600e-06 6.493080484390e+03
     4.248000000000e+05-3.539025783540e-07 9.866176180930e-01-1.005828380580e-07
     7.113592722950e-01 2.283125000000e+02-1.582468988190e+00-2.202234589050e-09
     1.532206679700e-10 2.000000000000e+00 2.066000000000e+03 1.000000000000e+00
     2.800000000000e+00 0.000000000000e+00 4.656612873080e-10 7.890000000000e+02
     4.212060000000e+05 1.000000000000e+00                                      
J07 2019 08 15 22 00 00-1.722946763040e-08 0.000000000000e+00 0.000000000000e+00
     2.100000000000e+01 2.814375000000e+02 0.000000000000e+00-1.692838457930e+00
     9.102746844290e-06 2.636997960510e-04 2.400577068330e-05 6.493358217240e+03
     4.248000000000e+05-1.210719347000e-06-2.834379557050e+00-9.760260581970e-07
     1.038436306470e-03-7.314375000000e+02 2.209460389470e-02 1.113974972960e-09
     0.000000000000e+00 2.000000000000e+00 2.066000000000e+03 1.000000000000e+00
     2.800000000000e+00 0.000000000000e+00-5.587935447690e-09 7.890000000000e+02
     4.212060000000e+05 1.000000000000e+00                                      
J01 2019 08 15 22 00 00-2.590357325970e-04 4.547473508860e-12 0.000000000000e+00
     2.100000000000e+01-1.714062500000e+02 2.293309811270e-09 2.187274534590e-01
    -6.070360541340e-06 7.572390011050e-02 2.056173980240e-05 6.493723344800e+03
     4.248000000000e+05-3.315508365630e-07-2.987079901440e+00-1.937150955200e-07
     7.229703667780e-01-4.061250000000e+02-1.555761358860e+00-2.485460672270e-09
     2.728685089260e-10 2.000000000000e+00 2.066000000000e+03 1.000000000000e+00
     2.800000000000e+00 0.000000000000e+00-5.122274160390e-09 7.890000000000e+02
     4.212060000000e+05 1.000000000000e+00                                      
J02 2019 08 15 23 00 00-2.449844032530e-06-5.684341886080e-13 0.000000000000e+00
     2.500000000000e+01-2.520625000000e+02 2.437244378150e-09-1.729996291870e+00
    -9.134411811830e-06 7.518991176040e-02 1.240521669390e-05 6.493309787750e+03
     4.284000000000e+05 5.308538675310e-07-7.041389069890e-01-9.499490261080e-08
     7.589913626940e-01-2.559375000000e+02-1.579762494650e+00-2.135088935020e-09
    -8.836082344010e-10 2.000000000000e+00 2.066000000000e+03 1.000000000000e+00
     2.800000000000e+00 0.000000000000e+00 1.396983861920e-09 7.930000000000e+02
     4.248060000000e+05 1.000000000000e+00                                      
J03 2019 08 15 23 00 00-6.258487701420e-07-3.410605131650e-13 0.000000000000e+00
     2.500000000000e+01 1.023968750000e+03 1.935437761610e-09 2.837246175740e+00
     3.131292760370e-05 7.447128091010e-02-4.919245839120e-06 6.493071685790e+03
     4.284000000000e+05-2.495944499970e-07 9.866096759100e-01-5.364418029790e-07
     7.113601368790e-01 3.045000000000e+02-1.582463439340e+00-2.261522772930e-09
     1.025042697140e-10 2.000000000000e+00 2.066000000000e+03 1.000000000000e+00
     2.800000000000e+00 0.000000000000e+00 4.656612873080e-10 7.930000000000e+02
     4.248060000000e+05 1.000000000000e+00                                      
J07 2019 08 15 23 00 00-1.769512891770e-08 0.000000000000e+00 0.000000000000e+00
     2.500000000000e+01 2.795625000000e+02 0.000000000000e+00-1.441875845970e+00
     9.043142199520e-06 2.637635916470e-04 2.304464578630e-05 6.493350795750e+03
     4.284000000000e+05-1.084059476850e-06-2.836044135460e+00-1.855194568630e-06
     1.038557728670e-03-7.001250000000e+02 3.532179129440e-02 1.164691371210e-09
     0.000000000000e+00 2.000000000000e+00 2.066000000000e+03 1.000000000000e+00
     2.800000000000e+00 0.000000000000e+00-5.587935447690e-09 7.930000000000e+02
     4.248060000000e+05 1.000000000000e+00                                      
J01 2019 08 15 23 00 00-2.590189687910e-04 4.547473508860e-12 0.000000000000e+00
     2.500000000000e+01-2.205000000000e+02 2.084015379030e-09 4.811736856040e-01
    -7.282942533490e-06 7.572991424240e-02 2.140365540980e-05 6.493741596220e+03
     4.284000000000e+05-4.470348358150e-07-2.987089631310e+00-2.030283212660e-07
     7.229716248870e-01-4.401875000000e+02-1.555723352250e+00-2.437958693620e-09
     3.300137463970e-10 2.000000000000e+00 2.066000000000e+03 1.000000000000e+00
     2.800000000000e+00 0.000000000000e+00-5.122274160390e-09 7.930000000000e+02
     4.248060000000e+05 1.000000000000e+00                                      
