$GPGGA,174623.00,3724.923342,N,12205.010490,W,1,31,0.46,-16.32,M,0.0,M,0.0,0000*79
$GPGSV,3,1,11,2,56,042,42.5,5,44,128,43.1,6,12,048,44.8,12,69,152,42.5*4F
$GPGSV,3,2,11,24,09,199,31.8,25,64,303,40.0,29,38,298,44.4,31,13,313,39.1*70
$GPGSV,3,3,11,6,12,048,41.3,24,09,199,31.3,25,64,303,38.2*6B
$GLGSV,2,1,7,11,59,265,37.0,5,22,067,40.2,6,16,126,33.0,12,26,325,41.0*58
$GLGSV,2,2,7,20,25,047,38.1,21,57,338,38.8,22,23,271,33.3*7C
$QZGSV,1,1,1,194,12,310,36.9*4B
$BDGSV,1,1,3,20,30,097,33.3,26,34,292,40.6,29,60,036,40.4*79
$GAGSV,3,1,9,1,23,164,34.2,12,52,267,34.2,26,16,056,37.7,31,64,214,37.3*64
$GAGSV,3,2,9,1,23,164,28.9,7,05,054,23.9,12,52,267,32.3,26,16,056,37.5*5F
$GAGSV,3,3,9,31,64,214,36.1*7C
$GPRMC,174623.00,A,3724.923342,N,12205.010490,W,000.1,,150819,,,A*65
$GPGGA,174624.00,3724.923069,N,12205.010589,W,1,31,0.46,-16.15,M,0.0,M,0.0,0000*78
$GPGSV,3,1,11,2,56,042,42.2,5,44,128,42.3,6,12,048,44.4,12,69,152,42.7*45
$GPGSV,3,2,11,24,09,199,32.4,25,64,303,40.2,29,38,298,43.4,31,13,313,36.8*7C
$GPGSV,3,3,11,6,12,048,40.8,24,09,199,31.6,25,64,303,37.9*60
$GLGSV,2,1,7,11,59,265,37.3,5,22,067,35.7,6,16,126,33.3,12,26,325,37.2*5C
$GLGSV,2,2,7,20,25,047,38.3,21,57,338,35.4,22,23,271,31.2*7C
$QZGSV,1,1,1,194,12,310,36.5*47
$BDGSV,1,1,3,20,30,097,34.0,26,34,292,39.6,29,60,036,42.3*76
$GAGSV,3,1,9,1,23,164,33.4,12,52,267,35.0,26,16,056,32.3,31,64,214,35.3*65
$GAGSV,3,2,9,1,23,164,27.6,7,05,054,24.6,12,52,267,30.7,26,16,056,35.9*5F
$GAGSV,3,3,9,31,64,214,35.7*79
$GPRMC,174624.00,A,3724.923069,N,12205.010589,W,000.1,,150819,,,A*61
$GPGGA,174625.00,3724.923142,N,12205.010460,W,1,31,0.46,-14.69,M,0.0,M,0.0,0000*7E
$GPGSV,3,1,11,2,56,042,41.6,5,44,128,42.2,6,12,048,44.6,12,69,152,42.4*42
$GPGSV,3,2,11,24,09,199,32.5,25,64,303,39.7,29,38,298,42.8,31,13,313,35.9*79
$GPGSV,3,3,11,6,12,048,40.9,24,09,199,31.3,25,64,303,37.3*6E
$GLGSV,2,1,7,11,59,265,37.6,5,22,067,34.1,6,16,126,33.8,12,26,325,35.2*57
$GLGSV,2,2,7,20,25,047,38.4,21,57,338,34.2,22,23,271,29.2*75
$QZGSV,1,1,1,194,12,310,35.5*44
$BDGSV,1,1,3,20,30,097,34.0,26,34,292,38.8,29,60,036,42.7*7D
$GAGSV,3,1,9,1,23,164,33.8,12,52,267,34.4,26,16,056,27.0,31,64,214,34.0*69
$GAGSV,3,2,9,1,23,164,27.1,7,05,054,25.0,12,52,267,30.3,26,16,056,36.2*53
$GAGSV,3,3,9,31,64,214,35.3*7D
$GPRMC,174625.00,A,3724.923142,N,12205.010460,W,000.0,,150819,,,A*6F
$GPGGA,174626.00,3724.923465,N,12205.011195,W,1,31,0.46,-15.36,M,0.0,M,0.0,0000*78
$GPGSV,3,1,11,2,56,042,40.5,5,44,128,42.9,6,12,048,44.7,12,69,152,42.8*46
$GPGSV,3,2,11,24,09,199,28.8,25,64,303,38.3,29,38,298,41.8,31,13,313,36.8*7B
$GPGSV,3,3,11,6,12,048,42.2,24,09,199,28.6,25,64,303,35.3*68
$GLGSV,2,1,7,11,59,265,36.9,5,22,067,44.5,6,16,126,31.6,12,26,325,41.3*54
$GLGSV,2,2,7,20,25,047,37.4,21,57,338,38.4,22,23,271,37.0*7D
$QZGSV,1,1,1,194,12,310,34.5*45
$BDGSV,1,1,3,20,30,097,38.9,26,34,292,37.9,29,60,036,40.5*76
$GAGSV,3,1,9,1,23,164,35.1,12,52,267,33.2,26,16,056,40.2,31,64,214,33.6*65
$GAGSV,3,2,9,1,23,164,30.2,7,05,054,23.9,12,52,267,29.4,26,16,056,39.1*5A
$GAGSV,3,3,9,31,64,214,34.1*7E
$GPRMC,174626.00,A,3724.923465,N,12205.011195,W,000.2,,150819,,,A*60
$GPGGA,174627.00,3724.924101,N,12205.011400,W,1,31,0.46,-14.35,M,0.0,M,0.0,0000*72
$GPGSV,3,1,11,2,56,042,40.2,5,44,128,42.1,6,12,048,41.6,12,69,152,41.5*43
$GPGSV,3,2,11,24,09,199,36.6,25,64,303,40.6,29,38,298,42.8,31,13,313,38.5*70
$GPGSV,3,3,11,6,12,048,39.4,24,09,199,33.2,25,64,303,37.1*6C
$GLGSV,2,1,7,11,59,265,38.6,5,22,067,41.3,6,16,126,30.8,12,26,325,40.9*52
$GLGSV,2,2,7,20,25,047,36.3,21,57,338,40.4,22,23,271,34.8*7F
$QZGSV,1,1,1,194,12,310,35.8*49
$BDGSV,1,1,3,20,30,097,36.3,26,34,292,40.7,29,60,036,40.5*7C
$GAGSV,3,1,9,1,23,164,34.7,12,52,267,34.1,26,16,056,40.7,31,64,214,36.0*60
$GAGSV,3,2,9,1,23,164,30.1,7,05,054,24.5,12,52,267,31.0,26,16,056,35.6*54
$GAGSV,3,3,9,31,64,214,35.1*7F
$GPRMC,174627.00,A,3724.924101,N,12205.011400,W,000.2,,150819,,,A*68
$GPGGA,174628.00,3724.923477,N,12205.011675,W,1,31,0.46,-15.44,M,0.0,M,0.0,0000*79
$GPGSV,3,1,11,2,56,042,41.8,5,45,128,42.6,6,12,048,40.4,12,69,152,42.0*4B
$GPGSV,3,2,11,24,09,199,38.7,25,64,303,42.6,29,38,298,37.0,31,13,313,38.7*75
$GPGSV,3,3,11,6,12,048,38.1,24,09,199,35.3,25,64,303,35.7*6B
$GLGSV,2,1,7,11,59,265,35.5,5,22,067,40.8,6,16,126,27.1,12,26,325,37.9*59
$GLGSV,2,2,7,20,25,047,37.8,21,57,338,42.4,22,23,271,33.6*7E
$QZGSV,1,1,1,194,12,310,35.4*45
$BDGSV,1,1,3,20,30,097,34.8,26,34,292,36.4,29,60,036,38.8*75
$GAGSV,3,1,9,1,23,164,38.0,12,52,267,35.9,26,16,056,42.3,31,64,214,37.3*66
$GAGSV,3,2,9,1,23,164,31.9,7,05,054,23.6,12,52,267,34.4,26,16,056,35.8*56
$GAGSV,3,3,9,31,64,214,33.3*7B
$GPRMC,174628.00,A,3724.923477,N,12205.011675,W,000.1,,150819,,,A*67
$GPGGA,174629.00,3724.923203,N,12205.011693,W,1,31,0.46,-15.10,M,0.0,M,0.0,0000*74
$GPGSV,3,1,11,2,56,042,39.6,5,45,128,43.1,6,12,048,38.6,12,69,152,41.3*41
$GPGSV,3,2,11,24,09,199,38.6,25,64,303,41.3,29,38,298,42.1,31,13,313,39.2*75
$GPGSV,3,3,11,6,12,048,35.6,24,09,199,35.5,25,64,303,35.0*60
$GLGSV,2,1,7,11,59,265,39.7,5,22,067,39.8,6,16,126,28.4,12,26,325,42.0*58
$GLGSV,2,2,7,20,25,047,36.5,21,57,338,42.7,22,23,271,34.7*77
$QZGSV,1,1,1,194,12,310,37.8*4B
$BDGSV,1,1,3,20,30,097,36.2,26,34,292,42.5,29,60,036,40.0*78
$GAGSV,3,1,9,1,23,164,37.1,12,52,267,32.4,26,16,056,41.0,31,64,214,39.4*6B
$GAGSV,3,2,9,1,23,164,32.3,7,05,054,21.4,12,52,267,32.3,26,16,056,32.7*56
$GAGSV,3,3,9,31,64,214,32.8*71
$GPRMC,174629.00,A,3724.923203,N,12205.011693,W,000.7,261.1,150819,,,A*47
$GPGGA,174630.00,3724.923130,N,12205.011831,W,1,31,0.46,-13.31,M,0.0,M,0.0,0000*7C
$GPGSV,3,1,11,2,56,042,40.4,5,45,128,41.9,6,12,048,35.5,12,69,152,39.6*43
$GPGSV,3,2,11,24,09,199,35.3,25,64,303,41.7,29,38,298,42.8,31,13,313,40.5*79
$GPGSV,3,3,11,6,12,048,31.1,24,09,199,34.9,25,64,303,35.9*67
$GLGSV,2,1,7,11,59,265,41.4,5,22,067,37.1,6,16,126,31.9,12,26,325,42.3*55
$GLGSV,2,2,7,20,25,047,32.5,21,57,338,41.9,22,23,271,36.8*73
$QZGSV,1,1,1,194,12,310,39.2*4F
$BDGSV,1,1,3,20,30,097,39.9,26,34,292,42.9,29,60,036,40.4*74
$GAGSV,3,1,9,1,23,164,38.9,12,52,267,31.6,26,16,056,36.3,31,64,214,39.5*6F
$GAGSV,3,2,9,1,23,164,36.0,7,05,054,17.9,12,52,267,32.5,26,16,056,29.7*55
$GAGSV,3,3,9,31,64,214,33.4*7C
$GPRMC,174630.00,A,3724.923130,N,12205.011831,W,000.6,251.2,150819,,,A*4B
$GPGGA,174631.00,3724.922485,N,12205.011855,W,1,30,0.47,-13.03,M,0.0,M,0.0,0000*74
$GPGSV,3,1,11,2,56,042,39.0,5,45,128,43.2,6,12,048,34.6,12,69,152,39.2*46
$GPGSV,3,2,11,24,09,199,34.2,25,64,303,42.2,29,38,298,41.5,31,13,313,42.2*74
$GPGSV,3,3,11,6,12,048,29.8,24,09,199,32.4,25,64,303,34.8*6C
$GLGSV,2,1,7,11,59,265,41.2,5,22,067,41.0,6,16,126,36.2,12,26,325,41.5*5A
$GLGSV,2,2,7,20,25,047,31.7,21,57,338,41.3,22,23,271,35.7*74
$QZGSV,1,1,1,194,12,310,39.5*48
$BDGSV,1,1,3,20,30,097,39.1,26,34,292,41.9,29,60,036,40.6*7D
$GAGSV,2,1,8,1,23,164,35.4,12,52,267,31.4,26,16,056,36.9,31,64,214,40.8*64
$GAGSV,2,2,8,1,23,164,35.7,12,52,267,32.7,26,16,056,25.0,31,64,214,33.4*67
$GPRMC,174631.00,A,3724.922485,N,12205.011855,W,000.6,244.2,150819,,,A*46
$GPGGA,174632.00,3724.922898,N,12205.013260,W,1,30,0.47,-15.87,M,0.0,M,0.0,0000*73
$GPGSV,3,1,11,2,56,042,40.6,5,45,128,44.1,6,12,048,33.1,12,69,152,38.9*40
$GPGSV,3,2,11,24,09,199,35.2,25,64,303,41.7,29,38,298,38.9,31,13,313,40.4*75
$GPGSV,3,3,11,6,12,048,30.6,24,09,199,33.0,25,64,303,35.4*62
$GLGSV,2,1,7,11,59,265,38.7,5,22,067,40.8,6,16,126,34.1,12,26,325,40.4*59
$GLGSV,2,2,7,20,25,047,34.7,21,57,338,41.6,22,23,271,38.0*7E
$QZGSV,1,1,1,194,12,310,38.7*4B
$BDGSV,1,1,3,20,30,097,42.2,26,34,292,38.5,29,60,036,37.9*7F
$GAGSV,2,1,8,1,23,164,34.2,12,52,267,36.1,26,16,056,38.8,31,64,214,41.6*61
$GAGSV,2,2,8,1,23,164,35.4,12,52,267,35.3,26,16,056,24.2,31,64,214,33.5*65
$GPRMC,174632.00,A,3724.922898,N,12205.013260,W,000.7,224.0,150819,,,A*4E
$GPGGA,174633.00,3724.922196,N,12205.012794,W,1,30,0.47,-13.20,M,0.0,M,0.0,0000*71
$GPGSV,3,1,11,2,56,042,38.6,5,45,128,44.5,6,12,048,36.6,12,69,152,40.7*48
$GPGSV,3,2,11,24,09,199,37.4,25,64,303,42.7,29,38,298,40.0,31,13,313,36.7*76
$GPGSV,3,3,11,6,12,048,34.1,24,09,199,32.9,25,64,303,34.4*68
$GLGSV,2,1,7,11,59,265,35.8,5,22,067,42.5,6,16,126,33.4,12,26,325,36.1*52
$GLGSV,2,2,7,20,25,047,34.2,21,57,338,41.3,22,23,271,38.9*77
$QZGSV,1,1,1,194,12,310,35.8*49
$BDGSV,1,1,3,20,30,097,42.2,26,34,292,37.8,29,60,036,37.9*7D
$GAGSV,2,1,8,1,23,164,37.9,12,52,267,38.1,26,16,056,39.9,31,64,214,41.2*63
$GAGSV,2,2,8,1,23,164,35.5,12,52,267,36.2,26,16,056,27.4,31,64,214,32.7*60
$GPRMC,174633.00,A,3724.922196,N,12205.012794,W,000.6,203.4,150819,,,A*47
$GPGGA,174634.00,3724.922004,N,12205.011953,W,1,31,0.46,-12.80,M,0.0,M,0.0,0000*71
$GPGSV,3,1,11,2,56,042,38.2,5,45,128,44.7,6,12,048,37.4,12,69,152,40.6*4C
$GPGSV,3,2,11,24,09,199,38.5,25,64,303,42.9,29,38,298,41.6,31,13,313,33.7*74
$GPGSV,3,3,11,6,12,048,36.1,24,09,199,34.5,25,64,303,33.7*64
$GLGSV,2,1,7,11,59,265,35.8,5,22,067,42.3,6,16,126,32.6,12,26,325,35.7*52
$GLGSV,2,2,7,20,25,047,36.0,21,57,338,38.8,22,23,271,39.2*78
$QZGSV,1,1,1,194,12,310,32.3*45
$BDGSV,1,1,3,20,30,097,41.6,26,34,292,37.3,29,60,036,38.0*77
$GAGSV,3,1,9,1,23,164,39.8,12,52,267,37.8,26,16,056,41.1,31,64,214,41.0*6F
$GAGSV,3,2,9,1,23,164,36.1,7,05,054,19.0,12,52,267,34.4,26,16,056,29.8*5B
$GAGSV,3,3,9,31,64,214,33.0*78
$GPRMC,174634.00,A,3724.922004,N,12205.011953,W,000.6,191.3,150819,,,A*43
$GPGGA,174635.00,3724.922211,N,12205.012794,W,1,31,0.46,-15.28,M,0.0,M,0.0,0000*75
$GPGSV,3,1,11,2,56,042,36.4,5,45,128,47.2,6,12,048,37.1,12,69,152,40.3*42
$GPGSV,3,2,11,24,09,199,39.5,25,64,303,41.7,29,38,298,42.1,31,13,313,38.1*71
$GPGSV,3,3,11,6,12,048,35.2,24,09,199,36.6,25,64,303,35.1*65
$GLGSV,2,1,7,11,59,265,39.0,5,22,067,40.3,6,16,126,35.8,12,26,325,40.0*58
$GLGSV,2,2,7,20,25,047,34.2,21,57,338,36.4,22,23,271,35.0*74
$QZGSV,1,1,1,194,12,310,33.8*4F
$BDGSV,1,1,3,20,30,097,39.2,26,34,292,38.2,29,60,036,40.6*7B
$GAGSV,3,1,9,1,23,164,39.6,12,52,267,37.1,26,16,056,39.0,31,64,214,40.2*65
$GAGSV,3,2,9,1,23,164,37.8,7,05,054,21.5,12,52,267,31.6,26,16,056,31.8*53
$GAGSV,3,3,9,31,64,214,33.4*7C
$GPRMC,174635.00,A,3724.922211,N,12205.012794,W,000.7,159.8,150819,,,A*4C
$GPGGA,174636.00,3724.921790,N,12205.012333,W,1,31,0.46,-12.20,M,0.0,M,0.0,0000*7F
$GPGSV,3,1,11,2,56,042,35.1,5,45,128,47.7,6,12,048,34.7,12,69,152,39.6*4F
$GPGSV,3,2,11,24,09,199,38.9,25,64,303,39.5,29,38,298,40.6,31,13,313,35.8*70
$GPGSV,3,3,11,6,12,048,35.3,24,09,199,36.1,25,64,303,33.7*63
$GLGSV,2,1,7,11,59,265,40.1,5,22,067,38.5,6,16,126,37.9,12,26,325,39.7*54
$GLGSV,2,2,7,20,25,047,32.0,21,57,338,38.6,22,23,271,33.6*7C
$QZGSV,1,1,1,194,12,310,33.6*41
$BDGSV,1,1,3,20,30,097,42.2,26,34,292,38.6,29,60,036,42.4*73
$GAGSV,3,1,9,1,23,164,40.3,12,52,267,35.5,26,16,056,35.5,31,64,214,40.0*63
$GAGSV,3,2,9,1,23,164,39.1,7,05,054,23.8,12,52,267,28.3,26,16,056,31.5*5B
$GAGSV,3,3,9,31,64,214,33.2*7A
$GPRMC,174636.00,A,3724.921790,N,12205.012333,W,000.6,126.1,150819,,,A*49
$GPGGA,174637.00,3724.921812,N,12205.012410,W,1,31,0.47,-15.75,M,0.0,M,0.0,0000*7B
$GPGSV,3,1,11,2,56,042,33.7,5,45,128,47.6,6,12,048,33.1,12,69,152,37.9*4E
$GPGSV,3,2,11,24,09,199,38.0,25,64,303,39.6,29,38,298,41.8,31,13,313,37.3*7C
$GPGSV,3,3,11,6,12,048,35.4,24,09,199,35.0,25,64,303,34.3*65
$GLGSV,2,1,7,11,59,265,38.9,5,22,067,40.3,6,16,126,38.3,12,26,325,40.6*50
$GLGSV,2,2,7,20,25,047,28.8,21,57,338,39.7,22,23,271,34.9*77
$QZGSV,1,1,1,194,12,310,35.3*42
$BDGSV,1,1,3,20,30,097,43.2,26,34,292,39.0,29,60,036,42.3*72
$GAGSV,3,1,9,1,23,164,40.1,12,52,267,33.6,26,16,056,33.5,31,64,214,40.5*67
$GAGSV,3,2,9,1,23,164,39.8,7,05,054,23.4,12,52,267,27.7,26,16,056,28.9*51
$GAGSV,3,3,9,31,64,214,32.1*78
$GPRMC,174637.00,A,3724.921812,N,12205.012410,W,000.6,115.8,150819,,,A*42
$GPGGA,174638.00,3724.922080,N,12205.012796,W,1,31,0.47,-14.49,M,0.0,M,0.0,0000*77
$GPGSV,3,1,11,2,56,042,35.6,5,45,128,46.4,6,12,048,29.8,12,69,152,37.4*45
$GPGSV,3,2,11,24,09,199,35.9,25,64,303,39.0,29,38,298,41.9,31,13,313,39.2*70
$GPGSV,3,3,11,6,12,048,38.1,24,09,199,32.7,25,64,303,34.0*6E
$GLGSV,2,1,7,11,59,265,37.1,5,22,067,42.0,6,16,126,38.4,12,26,325,40.8*5F
$GLGSV,2,2,7,20,25,047,30.4,21,57,338,40.0,22,23,271,36.5*75
$QZGSV,1,1,1,194,12,310,36.6*44
$BDGSV,1,1,3,20,30,097,43.6,26,34,292,39.6,29,60,036,42.6*75
$GAGSV,3,1,9,1,23,164,39.9,12,52,267,35.0,26,16,056,36.1,31,64,214,40.3*66
$GAGSV,3,2,9,1,23,164,39.3,7,05,054,24.5,12,52,267,30.5,26,16,056,26.0*5F
$GAGSV,3,3,9,31,64,214,31.5*7F
$GPRMC,174638.00,A,3724.922080,N,12205.012796,W,000.6,099.3,150819,,,A*4E
$GPGGA,174639.00,3724.922952,N,12205.011638,W,1,31,0.47,-15.41,M,0.0,M,0.0,0000*7F
$GPGSV,3,1,11,2,56,042,36.6,5,45,128,47.3,6,12,048,36.2,12,69,152,37.6*46
$GPGSV,3,2,11,24,09,199,33.1,25,64,303,39.7,29,38,298,42.1,31,13,313,40.3*7D
$GPGSV,3,3,11,6,12,048,37.3,24,09,199,30.1,25,64,303,34.2*65
$GLGSV,2,1,7,11,59,265,36.6,5,22,067,41.5,6,16,126,39.1,12,26,325,41.9*5B
$GLGSV,2,2,7,20,25,047,34.9,21,57,338,41.1,22,23,271,36.5*7C
$QZGSV,1,1,1,194,12,310,38.2*4E
$BDGSV,1,1,3,20,30,097,43.8,26,34,292,39.5,29,60,036,43.4*7B
$GAGSV,3,1,9,1,23,164,39.1,12,52,267,35.6,26,16,056,38.8,31,64,214,39.8*6A
$GAGSV,3,2,9,1,23,164,37.1,7,05,054,24.7,12,52,267,31.9,26,16,056,25.8*57
$GAGSV,3,3,9,31,64,214,32.3*7A
$GPRMC,174639.00,A,3724.922952,N,12205.011638,W,000.6,078.3,150819,,,A*40
$GPGGA,174640.00,3724.922174,N,12205.011446,W,1,30,0.49,-16.29,M,0.0,M,0.0,0000*74
$GPGSV,3,1,10,2,56,042,36.1,5,45,128,45.8,6,12,048,38.7,12,69,152,38.7*4C
$GPGSV,3,2,10,24,09,199,29.6,25,64,303,40.9,29,38,298,43.0,31,13,313,39.8*75
$GPGSV,3,3,10,6,12,048,37.7,25,64,303,35.3*42
$GLGSV,2,1,7,11,59,265,37.6,5,22,067,41.6,6,16,126,38.9,12,26,325,40.3*5B
$GLGSV,2,2,7,20,25,047,36.9,21,57,338,41.2,22,23,271,38.8*7E
$QZGSV,1,1,1,194,12,310,38.3*4F
$BDGSV,1,1,3,20,30,097,44.5,26,34,292,39.8,29,60,036,43.9*71
$GAGSV,3,1,9,1,23,164,37.6,12,52,267,33.7,26,16,056,40.2,31,64,214,39.0*69
$GAGSV,3,2,9,1,23,164,34.4,7,05,054,27.0,12,52,267,32.3,26,16,056,28.1*58
$GAGSV,3,3,9,31,64,214,32.8*71
$GPRMC,174640.00,A,3724.922174,N,12205.011446,W,000.6,054.9,150819,,,A*4D
$GPGGA,174641.00,3724.922265,N,12205.011125,W,1,30,0.49,-16.14,M,0.0,M,0.0,0000*78
$GPGSV,3,1,10,2,56,042,36.5,5,45,128,45.3,6,12,048,38.7,12,69,152,40.5*4E
$GPGSV,3,2,10,24,09,199,28.4,25,64,303,41.2,29,38,298,42.1,31,13,313,36.9*72
$GPGSV,3,3,10,6,12,048,38.8,25,64,303,35.3*42
$GLGSV,2,1,7,11,59,265,37.5,5,22,067,43.2,6,16,126,37.8,12,26,325,39.1*5C
$GLGSV,2,2,7,20,25,047,37.2,21,57,338,41.9,22,23,271,39.7*71
$QZGSV,1,1,1,194,12,310,36.1*43
$BDGSV,1,1,3,20,30,097,43.8,26,34,292,40.4,29,60,036,44.1*76
$GAGSV,3,1,9,1,23,164,34.6,12,52,267,32.8,26,16,056,40.0,31,64,214,37.7*6F
$GAGSV,3,2,9,1,23,164,30.8,7,05,054,28.7,12,52,267,32.4,26,16,056,31.3*55
$GAGSV,3,3,9,31,64,214,32.3*7A
$GPRMC,174641.00,A,3724.922265,N,12205.011125,W,000.6,030.0,150819,,,A*44
$GPGGA,174642.00,3724.922696,N,12205.011147,W,1,31,0.47,-13.58,M,0.0,M,0.0,0000*75
$GPGSV,3,1,11,2,56,042,38.0,5,45,128,43.8,6,12,048,38.0,12,69,152,41.7*4D
$GPGSV,3,2,11,24,09,199,31.1,25,64,303,40.5,29,38,298,41.3,31,13,313,35.9*7A
$GPGSV,3,3,11,6,12,048,40.4,24,09,199,30.1,25,64,303,36.1*63
$GLGSV,2,1,7,11,59,265,40.6,5,22,067,44.6,6,16,126,34.7,12,26,325,39.9*58
$GLGSV,2,2,7,20,25,047,37.8,21,56,338,42.8,22,23,271,37.9*78
$QZGSV,1,1,1,194,12,310,32.8*4E
$BDGSV,1,1,3,20,30,097,42.2,26,34,292,39.2,29,60,036,43.0*73
$GAGSV,3,1,9,1,23,164,32.8,12,52,267,33.5,26,16,056,39.8,31,64,214,38.4*61
$GAGSV,3,2,9,1,23,164,27.4,7,05,054,29.4,12,52,267,31.7,26,16,056,34.6*5D
$GAGSV,3,3,9,31,64,214,32.7*7E
$GPRMC,174642.00,A,3724.922696,N,12205.011147,W,000.5,,150819,,,A*65
$GPGGA,174643.00,3724.923173,N,12205.012204,W,1,31,0.47,-16.51,M,0.0,M,0.0,0000*72
$GPGSV,3,1,11,2,56,042,39.6,5,45,128,43.4,6,12,048,38.9,12,69,152,42.7*4C
$GPGSV,3,2,11,24,09,199,35.7,25,64,303,42.7,29,38,298,40.4,31,13,313,37.0*75
$GPGSV,3,3,11,6,12,048,37.0,24,09,199,33.3,25,64,303,36.4*63
$GLGSV,2,1,7,11,59,265,39.9,5,22,067,42.0,6,16,126,31.5,12,26,325,40.9*50
$GLGSV,2,2,7,20,25,047,38.5,21,56,338,42.9,22,23,271,36.6*75
$QZGSV,1,1,1,194,12,310,35.4*45
$BDGSV,1,1,3,20,30,097,36.9,26,34,292,38.7,29,60,036,40.8*74
$GAGSV,3,1,9,1,23,164,36.1,12,52,267,32.9,26,16,056,38.4,31,64,214,38.7*6F
$GAGSV,3,2,9,1,23,164,28.7,7,05,054,27.3,12,52,267,32.3,26,16,056,33.6*58
$GAGSV,3,3,9,31,64,214,32.2*7B
$GPRMC,174643.00,A,3724.923173,N,12205.012204,W,000.4,,150819,,,A*6F
$GPGGA,174644.00,3724.922469,N,12205.011809,W,1,31,0.47,-15.11,M,0.0,M,0.0,0000*79
$GPGSV,3,1,11,2,56,042,40.6,5,45,128,42.6,6,12,048,36.5,12,69,152,41.1*46
$GPGSV,3,2,11,24,09,199,35.3,25,64,303,43.1,29,38,298,39.5,31,13,313,39.3*74
$GPGSV,3,3,11,6,12,048,32.8,24,09,199,35.9,25,64,303,34.4*60
$GLGSV,2,1,7,11,59,265,40.1,5,22,067,37.2,6,16,126,32.7,12,26,325,39.2*52
$GLGSV,2,2,7,20,25,047,33.7,21,56,338,42.0,22,23,271,38.1*7C
$QZGSV,1,1,1,194,12,310,36.9*4B
$BDGSV,1,1,3,20,30,097,39.2,26,34,292,40.2,29,60,036,40.7*75
$GAGSV,3,1,9,1,23,164,38.8,12,52,267,34.2,26,16,056,34.1,31,64,214,39.6*6C
$GAGSV,3,2,9,1,23,164,34.5,7,05,054,22.8,12,52,267,33.1,26,16,056,32.1*5C
$GAGSV,3,3,9,31,64,214,32.0*79
$GPRMC,174644.00,A,3724.922469,N,12205.011809,W,000.4,,150819,,,A*63
$GPGGA,174645.00,3724.921528,N,12205.013040,W,1,31,0.47,-13.48,M,0.0,M,0.0,0000*72
$GPGSV,3,1,11,2,56,042,40.0,5,45,128,43.5,6,12,048,34.1,12,69,152,41.2*47
$GPGSV,3,2,11,24,09,199,33.1,25,64,303,42.0,29,38,298,39.8,31,13,313,39.7*79
$GPGSV,3,3,11,6,12,048,29.2,24,09,199,34.8,25,64,303,35.3*66
$GLGSV,2,1,7,11,59,265,41.7,5,22,067,40.1,6,16,126,35.7,12,26,325,39.5*56
$GLGSV,2,2,7,20,25,047,28.9,21,56,338,41.8,22,23,271,38.2*70
$QZGSV,1,1,1,194,12,310,37.4*47
$BDGSV,1,1,3,20,30,097,40.3,26,34,292,40.8,29,60,036,41.6*70
$GAGSV,3,1,9,1,23,164,36.0,12,52,267,33.0,26,16,056,33.3,31,64,214,39.6*6A
$GAGSV,3,2,9,1,23,164,37.4,7,05,054,18.6,12,52,267,32.6,26,16,056,27.5*5F
$GAGSV,3,3,9,31,64,214,33.7*7F
$GPRMC,174645.00,A,3724.921528,N,12205.013040,W,000.5,,150819,,,A*63
$GPGGA,174646.00,3724.922183,N,12205.011852,W,1,30,0.47,-15.42,M,0.0,M,0.0,0000*73
$GPGSV,3,1,11,2,56,042,40.6,5,45,128,43.4,6,12,048,33.7,12,69,152,40.8*4A
$GPGSV,3,2,11,24,09,199,33.8,25,64,303,42.9,29,38,298,36.0,31,13,313,40.1*76
$GPGSV,3,3,11,6,12,048,26.2,24,09,199,34.0,25,64,303,34.1*62
$GLGSV,2,1,7,11,59,265,40.1,5,22,067,41.3,6,16,126,36.0,12,27,325,38.5*56
$GLGSV,2,2,7,20,25,047,26.4,21,56,338,42.2,22,23,271,37.1*76
$QZGSV,1,1,1,194,12,310,38.2*4E
$BDGSV,1,1,3,20,30,097,40.2,26,34,292,40.7,29,60,036,41.0*78
$GAGSV,2,1,8,1,22,164,35.9,12,52,267,34.5,26,16,056,34.1,31,64,214,40.4*6A
$GAGSV,2,2,8,1,22,164,37.3,12,52,267,32.7,26,16,056,25.3,31,64,214,33.7*60
$GPRMC,174646.00,A,3724.922183,N,12205.011852,W,000.5,,150819,,,A*6F
$GPGGA,174647.00,3724.922865,N,12205.012169,W,1,30,0.47,-13.44,M,0.0,M,0.0,0000*71
$GPGSV,3,1,11,2,56,042,42.5,5,45,128,42.4,6,12,048,35.2,12,69,152,42.6*45
$GPGSV,3,2,11,24,09,199,35.1,25,64,303,43.2,29,38,298,31.9,31,13,313,40.4*78
$GPGSV,3,3,11,6,12,048,25.7,24,09,199,35.5,25,64,303,33.2*64
$GLGSV,2,1,7,11,59,265,38.6,5,22,067,39.4,6,16,126,35.5,12,27,325,39.0*54
$GLGSV,2,2,7,20,25,047,26.0,21,56,338,41.6,22,23,271,36.1*74
$QZGSV,1,1,1,194,12,310,39.3*4E
$BDGSV,1,1,3,20,30,097,39.4,26,34,292,39.5,29,60,036,39.2*71
$GAGSV,2,1,8,1,22,164,39.0,12,52,267,37.0,26,16,056,33.0,31,64,214,40.5*6E
$GAGSV,2,2,8,1,22,164,37.0,12,52,267,33.6,26,16,056,28.5,31,64,214,32.9*67
$GPRMC,174647.00,A,3724.922865,N,12205.012169,W,000.2,,150819,,,A*6A
$GPGGA,174648.00,3724.922888,N,12205.011226,W,1,30,0.47,-12.27,M,0.0,M,0.0,0000*72
$GPGSV,3,1,11,2,56,042,42.1,5,45,128,42.9,6,12,048,38.8,12,69,152,43.1*4D
$GPGSV,3,2,11,24,09,199,37.6,25,64,303,42.9,29,38,298,31.6,31,13,313,38.0*73
$GPGSV,3,3,11,6,12,048,34.5,24,09,199,34.0,25,64,303,34.9*6E
$GLGSV,2,1,7,11,59,265,37.4,5,22,067,41.5,6,16,126,33.7,12,27,325,38.2*50
$GLGSV,2,2,7,20,25,047,37.1,21,56,338,41.9,22,23,271,36.3*78
$QZGSV,1,1,1,194,12,310,36.3*41
$BDGSV,1,1,3,20,30,097,38.7,26,34,292,39.5,29,60,036,36.8*76
$GAGSV,2,1,8,1,22,164,38.2,12,52,267,36.1,26,16,056,40.4,31,64,214,39.5*63
$GAGSV,2,2,8,1,22,164,33.9,12,52,267,33.8,26,16,056,34.3,31,64,214,33.3*64
$GPRMC,174648.00,A,3724.922888,N,12205.011226,W,000.7,062.4,150819,,,A*46
$GPGGA,174649.00,3724.922987,N,12205.010738,W,1,31,0.47,-13.26,M,0.0,M,0.0,0000*77
$GPGSV,3,1,11,2,56,042,38.9,5,45,128,45.4,6,12,048,38.4,12,69,152,40.8*44
$GPGSV,3,2,11,24,09,199,33.1,25,64,303,42.4,29,38,298,39.9,31,13,313,37.8*7D
$GPGSV,3,3,11,6,12,048,35.2,24,09,199,29.4,25,64,303,33.8*66
$GLGSV,2,1,7,11,59,265,36.1,5,22,067,45.0,6,16,126,39.4,12,27,325,39.0*5F
$GLGSV,2,2,7,20,25,047,36.9,21,56,338,41.3,22,23,271,39.4*73
$QZGSV,1,1,1,194,12,310,37.3*40
$BDGSV,1,1,3,20,30,097,43.6,26,34,292,39.4,29,60,036,42.0*71
$GAGSV,3,1,9,1,22,164,35.3,12,52,267,35.2,26,16,056,41.1,31,64,214,37.7*67
$GAGSV,3,2,9,1,22,164,31.9,7,05,054,25.4,12,52,267,34.0,26,16,056,30.8*52
$GAGSV,3,3,9,31,64,214,33.7*7F
$GPRMC,174649.00,A,3724.922987,N,12205.010738,W,000.8,126.8,150819,,,A*40
$GPGGA,174650.00,3724.922541,N,12205.012082,W,1,31,0.47,-16.96,M,0.0,M,0.0,0000*73
$GPGSV,3,1,11,2,56,042,39.2,5,45,128,43.8,6,11,048,38.6,12,69,152,42.3*4C
$GPGSV,3,2,11,24,09,199,30.9,25,64,303,40.8,29,38,298,41.0,31,13,313,41.0*77
$GPGSV,3,3,11,6,11,048,36.2,24,09,199,27.5,25,64,303,34.8*6E
$GLGSV,2,1,7,11,59,265,38.4,5,22,067,43.2,6,16,126,40.8,12,27,324,39.3*50
$GLGSV,2,2,7,20,25,047,36.6,21,56,338,41.3,22,23,271,37.4*72
$QZGSV,1,1,1,194,12,310,38.5*49
$BDGSV,1,1,3,20,30,097,43.2,26,34,292,39.1,29,60,036,41.3*70
$GAGSV,3,1,9,1,22,164,40.4,12,52,267,34.4,26,16,056,37.9,31,64,214,40.2*69
$GAGSV,3,2,9,1,22,164,35.6,7,05,054,23.6,12,52,267,32.9,26,16,056,27.0*5C
$GAGSV,3,3,9,31,64,214,32.9*70
$GPRMC,174650.00,A,3724.922541,N,12205.012082,W,000.7,100.5,150819,,,A*4C
$GPGGA,174651.00,3724.922461,N,12205.010959,W,1,31,0.47,-14.27,M,0.0,M,0.0,0000*74
$GPGSV,3,1,11,2,56,042,37.4,5,45,128,44.8,6,11,048,38.1,12,69,152,39.6*4D
$GPGSV,3,2,11,24,09,199,30.3,25,64,303,41.0,29,38,298,41.8,31,13,313,41.0*7C
$GPGSV,3,3,11,6,11,048,37.5,24,09,199,27.8,25,64,303,33.7*6D
$GLGSV,2,1,7,11,59,265,37.8,5,22,067,43.8,6,16,126,40.2,12,27,324,39.1*51
$GLGSV,2,2,7,20,25,047,35.2,21,56,338,41.6,22,23,271,37.0*74
$QZGSV,1,1,1,194,12,310,38.1*4D
$BDGSV,1,1,3,20,30,097,42.4,26,34,292,40.0,29,60,036,42.2*7A
$GAGSV,3,1,9,1,22,164,41.0,12,52,267,35.2,26,16,057,38.1,31,64,214,40.7*68
$GAGSV,3,2,9,1,22,164,36.6,7,05,054,22.9,12,52,267,32.7,26,16,057,26.8*57
$GAGSV,3,3,9,31,64,214,32.8*71
$GPRMC,174651.00,A,3724.922461,N,12205.010959,W,000.7,100.9,150819,,,A*4F
$GPGGA,174652.00,3724.922791,N,12205.011001,W,1,31,0.47,-14.63,M,0.0,M,0.0,0000*7E
$GPGSV,3,1,11,2,56,042,38.3,5,45,128,45.0,6,11,048,36.5,12,69,152,39.7*47
$GPGSV,3,2,11,24,09,199,32.1,25,64,303,40.3,29,38,298,42.4,31,13,313,39.8*76
$GPGSV,3,3,11,6,11,048,37.5,24,09,199,30.1,25,64,303,34.0*62
$GLGSV,2,1,7,11,59,265,38.1,5,22,067,44.0,6,16,126,40.3,12,27,324,38.1*58
$GLGSV,2,2,7,20,25,047,35.0,21,56,338,41.9,22,23,271,37.6*7F
$QZGSV,1,1,1,194,12,310,36.3*41
$BDGSV,1,1,3,20,30,097,42.2,26,34,292,39.4,29,60,036,40.7*71
$GAGSV,3,1,9,1,22,164,42.4,12,52,267,36.8,26,16,057,37.2,31,64,214,41.3*6F
$GAGSV,3,2,9,1,22,164,38.5,7,05,054,24.1,12,52,267,31.8,26,16,057,25.5*56
$GAGSV,3,3,9,31,64,214,31.8*72
$GPRMC,174652.00,A,3724.922791,N,12205.011001,W,000.5,122.4,150819,,,A*4A
$GPGGA,174653.00,3724.922425,N,12205.011024,W,1,31,0.47,-16.01,M,0.0,M,0.0,0000*72
$GPGSV,3,1,11,2,56,042,38.8,5,45,128,46.2,6,11,048,36.7,12,69,152,41.5*42
$GPGSV,3,2,11,24,09,199,36.6,25,64,303,38.7,29,38,298,41.8,31,13,313,36.0*76
$GPGSV,3,3,11,6,11,048,37.1,24,09,199,36.6,25,64,303,35.9*6F
$GLGSV,2,1,7,11,59,265,38.5,5,22,067,40.7,6,16,126,38.5,12,27,324,38.2*55
$GLGSV,2,2,7,20,25,047,31.9,21,56,338,37.7,22,23,271,36.6*7C
$QZGSV,1,1,1,194,12,310,33.1*46
$BDGSV,1,1,3,20,30,097,41.6,26,34,292,38.0,29,60,036,39.8*72
$GAGSV,3,1,9,1,22,164,43.0,12,52,267,37.3,26,16,057,33.8,31,64,214,39.9*6B
$GAGSV,3,2,9,1,22,164,39.6,7,05,054,26.3,12,52,267,31.2,26,16,057,29.0*57
$GAGSV,3,3,9,31,64,214,32.8*71
$GPRMC,174653.00,A,3724.922425,N,12205.011024,W,000.6,200.2,150819,,,A*46
$GPGGA,174654.00,3724.922169,N,12205.011337,W,1,31,0.47,-14.34,M,0.0,M,0.0,0000*7D
$GPGSV,3,1,11,2,56,042,38.0,5,45,128,46.8,6,11,048,38.9,12,69,152,40.1*45
$GPGSV,3,2,11,24,09,199,36.9,25,64,303,40.7,29,38,298,41.0,31,13,313,36.0*7E
$GPGSV,3,3,11,6,11,048,38.6,24,09,199,38.5,25,64,303,34.9*6B
$GLGSV,2,1,7,11,59,265,39.2,5,22,067,39.3,6,16,126,36.5,12,27,324,36.4*5F
$GLGSV,2,2,7,20,25,047,31.4,21,56,338,36.4,22,23,271,33.2*72
$QZGSV,1,1,1,194,12,310,32.8*4E
$BDGSV,1,1,3,20,30,097,40.1,26,34,292,39.6,29,60,036,40.0*75
$GAGSV,3,1,9,1,22,164,40.6,12,52,267,37.6,26,16,057,34.1,31,64,214,40.2*60
$GAGSV,3,2,9,1,22,164,38.9,7,05,054,27.2,12,52,267,30.4,26,16,057,31.7*50
$GAGSV,3,3,9,31,64,214,33.0*78
$GPRMC,174654.00,A,3724.922169,N,12205.011337,W,000.6,177.2,150819,,,A*4E
$GPGGA,174655.00,3724.921594,N,12205.010807,W,1,31,0.47,-12.18,M,0.0,M,0.0,0000*78
$GPGSV,3,1,11,2,56,042,37.7,5,45,128,47.1,6,11,048,37.3,12,69,152,41.3*43
$GPGSV,3,2,11,24,09,199,38.4,25,64,303,38.6,29,38,298,41.8,31,13,313,36.0*7B
$GPGSV,3,3,11,6,11,048,36.7,24,09,199,37.7,25,64,303,36.1*63
$GLGSV,2,1,7,11,59,265,38.6,5,22,067,40.2,6,16,126,37.2,12,27,324,37.9*5F
$GLGSV,2,2,7,20,25,047,31.2,21,56,338,38.1,22,23,271,35.7*7C
$QZGSV,1,1,1,194,12,310,31.7*42
$BDGSV,1,1,3,20,30,097,41.4,26,34,292,37.3,29,60,036,41.3*78
$GAGSV,3,1,9,1,22,164,40.5,12,52,267,37.0,26,16,057,36.0,31,64,214,40.3*67
$GAGSV,3,2,9,1,22,164,39.5,7,05,054,26.5,12,52,267,29.1,26,16,057,31.8*59
$GAGSV,3,3,9,31,64,214,32.3*7A
$GPRMC,174655.00,A,3724.921594,N,12205.010807,W,000.5,138.4,150819,,,A*4D
$GPGGA,174656.00,3724.921853,N,12205.010653,W,1,31,0.47,-11.37,M,0.0,M,0.0,0000*7C
$GPGSV,3,1,11,2,56,042,38.2,5,45,128,44.9,6,11,048,36.6,12,69,152,41.5*40
$GPGSV,3,2,11,24,09,199,36.4,25,64,303,38.6,29,38,298,42.2,31,13,313,39.7*74
$GPGSV,3,3,11,6,11,048,34.5,24,09,199,34.1,25,64,303,35.7*63
$GLGSV,2,1,7,11,59,265,38.2,5,22,067,42.6,6,16,126,38.7,12,27,324,39.5*55
$GLGSV,2,2,7,20,25,047,31.2,21,56,338,40.1,22,23,271,37.2*74
$QZGSV,1,1,1,194,12,310,35.1*40
$BDGSV,1,1,3,20,30,097,42.4,26,34,292,38.6,29,60,036,39.7*7A
$GAGSV,3,1,9,1,22,164,41.4,12,52,267,36.7,26,16,057,36.7,31,64,214,40.8*6D
$GAGSV,3,2,9,1,22,164,39.5,7,05,054,25.4,12,52,267,29.9,26,16,057,29.4*56
$GAGSV,3,3,9,31,64,214,31.7*7D
$GPRMC,174656.00,A,3724.921853,N,12205.010653,W,000.6,076.5,150819,,,A*4E
$GPGGA,174657.00,3724.922270,N,12205.010892,W,1,31,0.47,-13.86,M,0.0,M,0.0,0000*7E
$GPGSV,3,1,11,2,56,042,39.7,5,45,128,44.4,6,11,048,40.5,12,69,152,39.6*47
$GPGSV,3,2,11,24,09,199,32.7,25,64,303,40.8,29,38,298,41.4,31,13,313,40.9*77
$GPGSV,3,3,11,6,11,048,33.1,24,09,199,29.9,25,64,303,34.3*61
$GLGSV,2,1,7,11,59,265,37.3,5,22,067,43.8,6,16,126,39.4,12,27,324,38.1*53
$GLGSV,2,2,7,20,25,047,35.6,21,56,338,41.7,22,23,271,38.3*7D
$QZGSV,1,1,1,194,12,310,37.9*4A
$BDGSV,1,1,3,20,30,097,42.2,26,34,292,40.6,29,60,036,41.0*7B
$GAGSV,3,1,9,1,22,164,39.3,12,52,267,35.0,26,16,057,39.8,31,64,214,40.1*68
$GAGSV,3,2,9,1,22,164,35.6,7,05,054,24.9,12,52,267,31.5,26,16,057,27.1*5B
$GAGSV,3,3,9,31,64,214,33.0*78
$GPRMC,174657.00,A,3724.922270,N,12205.010892,W,000.6,051.8,150819,,,A*4C
$GPGGA,174658.00,3724.922891,N,12205.009292,W,1,31,0.47,-10.74,M,0.0,M,0.0,0000*78
$GPGSV,3,1,11,2,56,042,40.0,5,45,128,44.2,6,11,048,41.4,12,69,152,42.2*40
$GPGSV,3,2,11,24,09,199,30.2,25,64,303,42.9,29,38,298,38.8,31,13,313,38.7*70
$GPGSV,3,3,11,6,11,048,34.8,24,09,199,26.6,25,64,303,34.2*6E
$GLGSV,2,1,7,11,59,264,36.1,5,22,067,43.7,6,16,126,38.1,12,27,324,36.0*55
$GLGSV,2,2,7,20,25,047,37.4,21,56,338,42.2,22,23,271,39.9*70
$QZGSV,1,1,1,194,12,310,36.3*41
$BDGSV,1,1,3,20,30,097,41.8,26,34,292,38.8,29,60,036,41.1*72
$GAGSV,3,1,9,1,22,164,35.5,12,52,267,35.8,26,16,057,39.6,31,64,214,36.7*63
$GAGSV,3,2,9,1,22,164,31.5,7,05,054,27.3,12,52,267,34.0,26,16,057,30.9*5B
$GAGSV,3,3,9,31,64,214,33.9*71
$GPRMC,174658.00,A,3724.922891,N,12205.009292,W,000.5,019.8,150819,,,A*4B
$GPGGA,174659.00,3724.923072,N,12205.009765,W,1,31,0.47,-12.67,M,0.0,M,0.0,0000*70
$GPGSV,3,1,11,2,56,042,41.2,5,45,128,43.6,6,11,048,41.5,12,69,152,43.1*43
$GPGSV,3,2,11,24,09,199,31.4,25,64,303,42.6,29,38,298,34.7,31,13,313,38.2*7E
$GPGSV,3,3,11,6,11,048,39.1,24,09,199,30.0,25,64,303,35.0*68
$GLGSV,2,1,7,11,59,264,38.8,5,22,066,43.0,6,16,126,33.8,12,27,324,35.5*50
$GLGSV,2,2,7,20,25,047,40.2,21,56,338,43.3,22,23,271,37.6*77
$QZGSV,1,1,1,194,12,310,34.8*48
$BDGSV,1,1,3,20,30,097,39.6,26,34,292,37.1,29,60,036,39.6*7D
$GAGSV,3,1,9,1,22,164,36.0,12,52,267,36.1,26,16,057,38.7,31,64,214,37.7*6E
$GAGSV,3,2,9,1,22,164,28.8,7,05,054,29.6,12,52,267,33.8,26,16,057,36.3*56
$GAGSV,3,3,9,31,64,214,32.9*70
$GPRMC,174659.00,A,3724.923072,N,12205.009765,W,000.6,335.3,150819,,,A*46
$GPGGA,174700.00,3724.922107,N,12205.011714,W,1,31,0.47,-18.02,M,0.0,M,0.0,0000*79
$GPGSV,3,1,11,2,56,042,40.3,5,45,128,43.2,6,11,048,40.3,12,69,152,42.2*42
$GPGSV,3,2,11,24,09,199,36.3,25,64,303,42.5,29,38,298,37.3,31,13,313,41.5*73
$GPGSV,3,3,11,6,11,048,36.5,24,09,199,34.2,25,64,303,35.2*67
$GLGSV,2,1,7,11,59,264,38.4,5,22,066,38.4,6,16,126,32.6,12,27,324,36.6*5B
$GLGSV,2,2,7,20,25,047,39.1,21,56,338,42.9,22,23,271,37.5*72
$QZGSV,1,1,1,194,12,310,36.8*4A
$BDGSV,1,1,3,20,30,097,36.9,26,34,292,38.0,29,60,036,40.9*72
$GAGSV,3,1,9,1,22,164,37.3,12,52,267,33.9,26,16,057,35.2,31,64,214,39.9*69
$GAGSV,3,2,9,1,22,164,30.5,7,05,054,26.9,12,52,267,34.1,26,16,057,33.5*5F
$GAGSV,3,3,9,31,64,214,32.9*70
$GPRMC,174700.00,A,3724.922107,N,12205.011714,W,000.7,298.0,150819,,,A*42
$GPGGA,174701.00,3724.921979,N,12205.010739,W,1,31,0.47,-12.52,M,0.0,M,0.0,0000*7B
$GPGSV,3,1,11,2,56,042,40.6,5,45,128,42.4,6,11,048,36.4,12,69,152,40.9*4F
$GPGSV,3,2,11,24,09,199,34.9,25,64,303,42.3,29,38,298,35.4,31,13,313,42.1*7F
$GPGSV,3,3,11,6,11,048,33.2,24,09,199,35.6,25,64,303,34.5*66
$GLGSV,2,1,7,11,59,264,40.0,5,22,066,37.7,6,16,126,33.9,12,27,324,33.3*52
$GLGSV,2,2,7,20,25,047,35.0,21,56,338,42.1,22,23,271,39.2*7E
$QZGSV,1,1,1,194,12,310,38.6*4A
$BDGSV,1,1,3,20,30,097,38.1,26,34,292,36.8,29,60,036,41.2*78
$GAGSV,3,1,9,1,22,164,38.5,12,52,267,35.9,26,16,057,32.4,31,64,214,40.2*62
$GAGSV,3,2,9,1,22,164,34.8,7,05,054,22.7,12,52,267,33.1,26,16,057,29.7*52
$GAGSV,3,3,9,31,64,214,33.1*79
$GPRMC,174701.00,A,3724.921979,N,12205.010739,W,000.5,272.7,150819,,,A*4E
$GPGGA,174702.00,3724.922307,N,12205.011981,W,1,31,0.47,-13.21,M,0.0,M,0.0,0000*71
$GPGSV,3,1,11,2,56,042,40.2,5,45,128,43.0,6,11,048,34.4,12,69,152,40.3*46
$GPGSV,3,2,11,24,09,199,33.1,25,64,303,42.7,29,38,298,38.7,31,13,313,41.0*78
$GPGSV,3,3,11,6,11,048,29.6,24,09,199,33.3,25,64,303,34.3*6C
$GLGSV,2,1,7,11,59,264,38.8,5,22,066,39.5,6,16,126,36.0,12,27,324,32.0*57
$GLGSV,2,2,7,20,25,047,33.3,21,56,339,41.7,22,23,271,39.3*7E
$QZGSV,1,1,1,194,12,310,37.5*46
$BDGSV,1,1,3,20,30,097,39.9,26,34,292,33.5,29,60,036,40.4*7E
$GAGSV,3,1,9,1,22,164,35.9,12,52,267,36.2,26,16,057,33.6,31,64,214,40.0*6A
$GAGSV,3,2,9,1,22,164,36.1,7,05,054,19.1,12,52,267,35.5,26,16,057,24.7*58
$GAGSV,3,3,9,31,64,214,33.4*7C
$GPRMC,174702.00,A,3724.922307,N,12205.011981,W,000.6,246.0,150819,,,A*42
$GPGGA,174703.00,3724.922483,N,12205.011146,W,1,31,0.47,-15.27,M,0.0,M,0.0,0000*78
$GPGSV,3,1,11,2,56,042,41.1,5,45,128,44.3,6,11,048,32.6,12,69,152,40.1*46
$GPGSV,3,2,11,24,09,199,33.9,25,64,303,42.3,29,38,298,39.2,31,13,313,41.2*72
$GPGSV,3,3,11,6,11,048,31.8,24,09,199,33.3,25,64,303,35.0*69
$GLGSV,2,1,7,11,59,264,37.5,5,22,066,38.6,6,16,126,36.3,12,27,324,35.6*55
$GLGSV,2,2,7,20,24,047,33.5,21,56,339,42.4,22,23,271,41.4*71
$QZGSV,1,1,1,194,12,310,37.4*47
$BDGSV,1,1,3,20,30,097,41.6,26,34,292,36.5,29,60,036,38.0*70
$GAGSV,3,1,9,1,22,164,32.9,12,52,267,38.2,26,16,057,34.1,31,64,214,39.4*69
$GAGSV,3,2,9,1,22,164,34.4,7,05,054,21.9,12,52,267,36.0,26,16,057,21.1*59
$GAGSV,3,3,9,31,64,214,34.3*7C
$GPRMC,174703.00,A,3724.922483,N,12205.011146,W,000.6,203.0,150819,,,A*4A
$GPGGA,174704.00,3724.922133,N,12205.010754,W,1,31,0.47,-13.25,M,0.0,M,0.0,0000*71
$GPGSV,3,1,11,2,56,042,39.0,5,45,128,44.6,6,11,048,37.1,12,69,152,40.1*4F
$GPGSV,3,2,11,24,09,199,35.7,25,64,303,43.7,29,38,298,42.9,31,13,313,36.7*7D
$GPGSV,3,3,11,6,11,048,34.6,24,09,199,34.3,25,64,303,33.5*66
$GLGSV,2,1,7,11,59,264,36.5,5,22,066,40.9,6,16,126,35.6,12,27,324,39.0*58
$GLGSV,2,2,7,20,24,048,31.7,21,56,339,40.9,22,23,271,41.1*74
$QZGSV,1,1,1,194,12,310,33.9*4E
$BDGSV,1,1,3,20,30,097,40.8,26,34,292,36.2,29,60,037,37.8*7E
$GAGSV,3,1,9,1,22,164,35.0,12,52,267,37.7,26,16,057,37.0,31,64,214,40.4*61
$GAGSV,3,2,9,1,22,164,33.8,7,05,054,25.3,12,52,267,36.0,26,16,057,26.5*5F
$GAGSV,3,3,9,31,64,214,33.4*7C
$GPRMC,174704.00,A,3724.922133,N,12205.010754,W,000.6,185.2,150819,,,A*48
$GPGGA,174705.00,3724.922136,N,12205.011172,W,1,31,0.47,-14.14,M,0.0,M,0.0,0000*73
$GPGSV,3,1,11,2,56,042,36.7,5,45,128,46.0,6,11,048,40.5,12,69,152,40.4*42
$GPGSV,3,2,11,24,09,199,37.6,25,64,303,43.2,29,38,298,41.2,31,13,313,33.1*70
$GPGSV,3,3,11,6,11,048,36.7,24,09,199,37.0,25,64,303,34.0*67
$GLGSV,2,1,7,11,59,264,38.9,5,22,066,40.4,6,16,126,34.8,12,27,324,37.5*53
$GLGSV,2,2,7,20,24,048,32.2,21,56,339,38.0,22,23,271,36.8*7D
$QZGSV,1,1,1,194,12,310,32.0*46
$BDGSV,1,1,3,20,30,097,39.8,26,34,292,36.8,29,60,037,39.7*7B
$GAGSV,3,1,9,1,22,164,36.5,12,52,267,37.3,26,16,057,36.3,31,64,214,40.0*65
$GAGSV,3,2,9,1,22,164,36.4,7,05,054,26.0,12,52,267,31.9,26,16,057,30.5*5F
$GAGSV,3,3,9,31,64,214,33.4*7C
$GPRMC,174705.00,A,3724.922136,N,12205.011172,W,000.7,139.0,150819,,,A*4B
$GPGGA,174706.00,3724.921426,N,12205.011713,W,1,31,0.47,-16.05,M,0.0,M,0.0,0000*74
$GPGSV,3,1,11,2,56,042,37.0,5,45,128,47.3,6,11,048,37.4,12,69,152,38.5*49
$GPGSV,3,2,11,24,09,199,38.4,25,64,303,40.7,29,38,298,40.9,31,13,313,35.0*76
$GPGSV,3,3,11,6,11,048,36.4,24,09,199,38.1,25,64,303,34.4*6E
$GLGSV,2,1,7,11,59,264,39.7,5,22,066,39.9,6,16,126,36.8,12,27,324,37.5*5D
$GLGSV,2,2,7,20,24,048,30.7,21,56,339,39.0,22,23,271,35.1*71
$QZGSV,1,1,1,194,12,310,30.4*40
$BDGSV,1,1,3,20,30,097,41.7,26,34,292,37.9,29,60,037,42.3*73
$GAGSV,3,1,9,1,22,164,37.8,12,52,267,37.0,26,16,057,37.0,31,64,214,40.9*61
$GAGSV,3,2,9,1,22,164,38.4,7,05,054,26.3,12,52,267,30.0,26,16,057,32.6*5B
$GAGSV,3,3,9,31,64,214,32.7*7E
$GPRMC,174706.00,A,3724.921426,N,12205.011713,W,000.6,116.4,150819,,,A*46
$GPGGA,174707.00,3724.921763,N,12205.010667,W,1,31,0.47,-13.83,M,0.0,M,0.0,0000*7F
$GPGSV,3,1,11,2,56,042,37.3,5,45,128,46.1,6,11,048,34.8,12,69,152,37.0*4C
$GPGSV,3,2,11,24,09,199,37.4,25,64,303,39.4,29,38,298,42.7,31,13,313,39.3*77
$GPGSV,3,3,11,6,11,048,33.5,24,09,199,35.0,25,64,303,34.7*65
$GLGSV,2,1,7,11,59,264,38.1,5,22,066,42.7,6,16,126,38.6,12,27,324,39.4*57
$GLGSV,2,2,7,20,24,048,28.9,21,56,339,40.8,22,23,271,37.8*7B
$QZGSV,1,1,1,194,12,310,34.3*43
$BDGSV,1,1,3,20,30,097,43.2,26,34,292,39.0,29,60,037,42.3*73
$GAGSV,3,1,9,1,22,164,39.1,12,52,267,36.3,26,16,057,36.6,31,64,214,40.9*63
$GAGSV,3,2,9,1,22,164,39.2,7,05,054,25.0,12,52,267,30.0,26,16,057,31.1*58
$GAGSV,3,3,9,31,64,214,31.9*73
$GPRMC,174707.00,A,3724.921763,N,12205.010667,W,000.7,084.1,150819,,,A*48
$GPGGA,174708.00,3724.922569,N,12205.010290,W,1,31,0.47,-15.11,M,0.0,M,0.0,0000*7A
$GPGSV,3,1,11,2,56,042,37.1,5,45,128,46.3,6,11,048,38.6,12,69,152,38.6*47
$GPGSV,3,2,11,24,09,199,34.1,25,64,303,40.3,29,38,298,42.5,31,13,313,41.9*7F
$GPGSV,3,3,11,6,11,048,33.4,24,09,199,31.8,25,64,303,33.5*6D
$GLGSV,2,1,7,11,59,264,37.0,5,22,066,44.3,6,16,126,40.1,12,27,324,39.7*50
$GLGSV,2,2,7,20,24,048,31.9,21,56,339,42.2,22,23,271,36.9*7B
$QZGSV,1,1,1,194,12,310,37.0*43
$BDGSV,1,1,3,20,30,097,43.2,26,34,292,40.7,29,60,037,42.3*7A
$GAGSV,3,1,9,1,22,164,39.2,12,52,267,35.6,26,16,057,39.6,31,64,214,40.2*62
$GAGSV,3,2,9,1,22,164,37.1,7,05,054,24.6,12,52,267,32.1,26,16,057,27.1*56
$GAGSV,3,3,9,31,64,214,32.6*7F
$GPRMC,174708.00,A,3724.922569,N,12205.010290,W,000.7,049.5,150819,,,A*45
$GPGGA,174709.00,3724.922689,N,12205.010969,W,1,30,0.49,-17.42,M,0.0,M,0.0,0000*70
$GPGSV,3,1,10,2,56,042,37.4,5,45,128,45.3,6,11,048,41.2,12,69,152,41.4*46
$GPGSV,3,2,10,24,09,199,31.3,25,64,303,42.0,29,38,298,39.9,31,13,313,38.8*77
$GPGSV,3,3,10,6,11,048,36.3,25,64,303,34.7*41
$GLGSV,2,1,7,11,59,264,37.3,5,22,066,43.7,6,16,126,38.8,12,27,324,38.1*51
$GLGSV,2,2,7,20,24,048,35.4,21,56,339,41.7,22,23,271,39.7*75
$QZGSV,1,1,1,194,12,310,35.3*42
$BDGSV,1,1,3,20,30,097,43.8,26,34,292,39.8,29,60,037,42.5*77
$GAGSV,3,1,9,1,22,164,35.3,12,52,267,35.5,26,16,057,40.1,31,64,214,38.4*6C
$GAGSV,3,2,9,1,22,164,33.7,7,05,054,26.2,12,52,267,33.0,26,16,057,28.2*5E
$GAGSV,3,3,9,31,64,214,32.5*7C
$GPRMC,174709.00,A,3724.922689,N,12205.010969,W,000.6,015.9,150819,,,A*40
$GPGGA,174710.00,3724.921416,N,12205.010365,W,1,30,0.49,-19.06,M,0.0,M,0.0,0000*77
$GPGSV,3,1,10,2,56,042,39.2,5,45,128,43.1,6,11,048,40.8,12,69,152,41.5*40
$GPGSV,3,2,10,24,09,199,30.0,25,64,303,42.5,29,38,298,39.1,31,13,313,38.4*74
$GPGSV,3,3,10,6,11,048,37.1,25,64,303,34.2*47
$GLGSV,2,1,7,11,59,264,37.1,5,22,066,43.3,6,16,126,38.0,12,27,324,35.4*57
$GLGSV,2,2,7,20,24,048,38.0,21,56,339,41.4,22,23,271,40.1*77
$QZGSV,1,1,1,194,12,310,35.3*42
$BDGSV,1,1,3,20,30,097,42.0,26,34,292,38.8,29,60,037,41.2*7B
$GAGSV,3,1,9,1,22,164,33.1,12,52,267,35.9,26,16,057,39.5,31,64,214,37.9*6C
$GAGSV,3,2,9,1,22,164,29.1,7,05,054,27.7,12,52,267,33.9,26,16,057,30.8*5D
$GAGSV,3,3,9,31,64,214,33.7*7F
$GPRMC,174710.00,A,3724.921416,N,12205.010365,W,000.5,,150819,,,A*69
$GPGGA,174711.00,3724.922084,N,12205.010860,W,1,31,0.47,-15.73,M,0.0,M,0.0,0000*75
$GPGSV,3,1,11,2,56,042,39.6,5,45,128,44.2,6,11,048,40.1,12,69,152,38.5*46
$GPGSV,3,2,11,24,09,199,27.8,25,64,303,41.1,29,38,298,41.5,31,13,313,42.9*77
$GPGSV,3,3,11,6,11,048,34.9,24,09,199,26.9,25,64,303,33.7*62
$GLGSV,2,1,7,11,59,264,37.6,5,22,066,42.6,6,16,126,40.1,12,27,324,37.1*5D
$GLGSV,2,2,7,20,24,048,38.5,21,56,339,41.4,22,23,271,37.1*72
$QZGSV,1,1,1,194,12,310,38.2*4E
$BDGSV,1,1,3,20,30,097,42.0,26,34,292,39.3,29,60,037,42.0*70
$GAGSV,3,1,9,1,22,164,39.8,12,52,267,35.5,26,16,057,39.5,31,64,214,40.1*6B
$GAGSV,3,2,9,1,22,164,34.8,7,06,054,24.5,12,52,267,32.9,26,16,057,28.7*5D
$GAGSV,3,3,9,31,64,214,32.9*70
$GPRMC,174711.00,A,3724.922084,N,12205.010860,W,000.4,,150819,,,A*6B
$GPGGA,174712.00,3724.921567,N,12205.009835,W,1,31,0.47,-15.23,M,0.0,M,0.0,0000*70
$GPGSV,3,1,11,2,56,042,37.6,5,45,128,45.6,6,11,048,38.1,12,69,152,38.2*45
$GPGSV,3,2,11,24,09,199,32.5,25,64,303,39.5,29,38,298,42.1,31,13,313,43.0*7A
$GPGSV,3,3,11,6,11,048,34.8,24,09,199,30.2,25,64,303,34.4*6B
$GLGSV,2,1,7,11,59,264,37.0,5,22,066,41.8,6,16,126,40.0,12,27,324,39.3*5B
$GLGSV,2,2,7,20,24,048,35.7,21,56,339,41.1,22,23,271,37.1*78
$QZGSV,1,1,1,194,12,310,37.6*45
$BDGSV,1,1,3,20,30,097,42.8,26,34,292,39.2,29,60,037,42.3*7A
$GAGSV,3,1,9,1,22,164,41.2,12,52,267,36.4,26,16,057,38.6,31,64,214,40.3*6C
$GAGSV,3,2,9,1,22,164,38.3,7,06,054,23.9,12,52,267,32.2,26,16,057,28.3*5E
$GAGSV,3,3,9,31,64,214,32.6*7F
$GPRMC,174712.00,A,3724.921567,N,12205.009835,W,000.5,,150819,,,A*6A
$GPGGA,174713.00,3724.921612,N,12205.009432,W,1,31,0.47,-14.06,M,0.0,M,0.0,0000*7D
$GPGSV,3,1,11,2,56,042,36.5,5,45,128,45.5,6,11,048,37.6,12,69,152,39.3*4C
$GPGSV,3,2,11,24,09,199,38.8,25,64,303,38.5,29,38,298,43.1,31,13,313,39.4*74
$GPGSV,3,3,11,6,11,048,33.6,24,09,199,35.3,25,64,303,35.3*60
$GLGSV,2,1,7,11,59,264,38.7,5,22,066,38.7,6,16,125,38.4,12,27,324,38.9*51
$GLGSV,2,2,7,20,24,048,32.6,21,56,339,39.6,22,23,271,37.6*71
$QZGSV,1,1,1,194,12,310,35.4*45
$BDGSV,1,1,3,20,30,097,41.7,26,34,292,36.2,29,60,037,40.8*70
$GAGSV,3,1,9,1,22,164,40.9,12,52,267,36.1,26,16,057,36.2,31,64,214,40.7*6D
$GAGSV,3,2,9,1,22,164,40.2,7,06,054,25.1,12,52,267,30.7,26,16,057,28.8*52
$GAGSV,3,3,9,31,64,214,33.1*79
$GPRMC,174713.00,A,3724.921612,N,12205.009432,W,000.7,169.6,150819,,,A*45
$GPGGA,174714.00,3724.921014,N,12205.009899,W,1,31,0.47,-13.77,M,0.0,M,0.0,0000*76
$GPGSV,3,1,11,2,56,042,35.7,5,45,128,46.4,6,11,048,36.7,12,69,152,38.4*49
$GPGSV,3,2,11,24,09,199,38.1,25,64,303,38.5,29,38,298,42.8,31,13,313,40.5*7A
$GPGSV,3,3,11,6,11,048,32.6,24,09,199,35.3,25,64,303,35.5*67
$GLGSV,2,1,7,11,59,264,37.8,5,22,066,39.3,6,16,125,38.2,12,27,324,38.8*53
$GLGSV,2,2,7,20,24,048,31.4,21,56,339,40.3,22,23,271,38.6*74
$QZGSV,1,1,1,194,12,310,33.3*44
$BDGSV,1,1,3,20,30,097,41.7,26,34,292,37.1,29,60,037,40.1*7B
$GAGSV,3,1,9,1,22,164,40.0,12,52,267,37.1,26,16,057,37.4,31,64,214,41.2*66
$GAGSV,3,2,9,1,22,164,40.1,7,06,054,24.6,12,52,267,30.4,26,16,057,28.6*5A
$GAGSV,3,3,9,31,64,214,32.2*7B
$GPRMC,174714.00,A,3724.921014,N,12205.009899,W,000.6,106.1,150819,,,A*40
$GPGGA,174715.00,3724.922540,N,12205.009104,W,1,31,0.47,-12.89,M,0.0,M,0.0,0000*7D
$GPGSV,3,1,11,2,56,042,37.7,5,45,128,44.9,6,11,048,38.1,12,69,152,38.6*4E
$GPGSV,3,2,11,24,09,199,34.2,25,64,303,40.2,29,38,298,41.3,31,13,313,43.3*70
$GPGSV,3,3,11,6,11,048,32.8,24,09,199,31.9,25,64,303,34.0*63
$GLGSV,2,1,7,11,59,264,37.0,5,22,066,41.3,6,16,125,39.2,12,27,324,38.6*5B
$GLGSV,2,2,7,20,24,048,37.1,21,56,339,41.6,22,23,271,38.8*7D
$QZGSV,1,1,1,194,12,310,38.3*4F
$BDGSV,1,1,3,20,30,097,40.5,26,34,292,39.4,29,60,037,40.6*74
$GAGSV,3,1,9,1,22,164,39.6,12,52,267,35.6,26,16,057,39.2,31,64,214,40.2*62
$GAGSV,3,2,9,1,22,164,36.9,7,06,054,26.3,12,52,267,31.6,26,16,057,25.1*5D
$GAGSV,3,3,9,31,64,214,33.2*7A
$GPRMC,174715.00,A,3724.922540,N,12205.009104,W,000.7,067.0,150819,,,A*4D
$GPGGA,174716.00,3724.923295,N,12205.011054,W,1,30,0.49,-16.02,M,0.0,M,0.0,0000*75
$GPGSV,3,1,10,2,56,042,37.3,5,45,128,44.3,6,11,048,39.5,12,69,152,41.3*4F
$GPGSV,3,2,10,24,09,199,31.1,25,64,303,42.4,29,38,298,39.6,31,13,313,40.8*71
$GPGSV,3,3,10,6,11,048,36.2,25,64,303,34.9*4E
$GLGSV,2,1,7,11,59,264,38.1,5,22,066,40.6,6,16,125,37.8,12,27,324,34.7*58
$GLGSV,2,2,7,20,24,048,39.0,21,56,339,40.8,22,23,271,40.6*7C
$QZGSV,1,1,1,194,12,310,35.8*49
$BDGSV,1,1,3,20,30,097,41.3,26,34,292,38.2,29,60,037,41.5*76
$GAGSV,3,1,9,1,22,164,35.7,12,52,267,34.9,26,16,057,39.8,31,64,214,37.8*61
$GAGSV,3,2,9,1,22,164,32.7,7,06,054,28.9,12,52,267,32.7,26,16,057,28.1*5C
$GAGSV,3,3,9,31,64,214,32.7*7E
$GPRMC,174716.00,A,3724.923295,N,12205.011054,W,000.5,019.3,150819,,,A*45
$GPGGA,174717.00,3724.921715,N,12205.008380,W,1,30,0.49,-14.69,M,0.0,M,0.0,0000*76
$GPGSV,3,1,10,2,56,042,39.3,5,45,128,42.9,6,11,048,41.2,12,69,152,42.9*4C
$GPGSV,3,2,10,24,09,199,32.8,25,64,303,41.9,29,38,298,37.4,31,13,313,40.5*74
$GPGSV,3,3,10,6,11,048,38.8,25,64,303,36.2*43
$GLGSV,2,1,7,11,59,264,40.9,5,22,066,41.5,6,16,125,34.0,12,27,324,37.2*50
$GLGSV,2,2,7,20,24,048,39.6,21,56,339,42.1,22,23,271,38.4*7C
$QZGSV,1,1,1,194,12,310,34.7*47
$BDGSV,1,1,3,20,30,097,37.4,26,34,292,38.1,29,60,037,40.8*7F
$GAGSV,3,1,9,1,22,164,34.9,12,52,267,34.4,26,16,057,41.0,31,64,214,38.2*61
$GAGSV,3,2,9,1,22,164,29.1,7,06,054,29.9,12,52,267,32.6,26,16,057,33.6*5D
$GAGSV,3,3,9,31,64,214,32.9*70
$GPRMC,174717.00,A,3724.921715,N,12205.008380,W,000.5,348.5,150819,,,A*48
$GPGGA,174718.00,3724.922769,N,12205.009558,W,1,30,0.47,-14.98,M,0.0,M,0.0,0000*73
$GPGSV,3,1,10,5,45,128,43.6,6,11,048,40.5,12,69,152,41.9,24,09,199,36.7*75
$GPGSV,3,2,10,25,64,303,42.1,29,38,298,39.0,31,13,313,42.3,6,11,048,36.6*4F
$GPGSV,3,3,10,24,09,199,34.5,25,64,303,36.0*74
$GLGSV,2,1,7,11,59,264,40.8,5,22,066,39.7,6,16,125,32.0,12,27,324,37.1*59
$GLGSV,2,2,7,20,24,048,38.4,21,56,339,41.9,22,23,271,38.4*74
$QZGSV,1,1,1,194,12,310,36.6*44
$BDGSV,1,1,3,20,30,097,36.0,26,34,292,40.0,29,60,037,40.8*74
$GAGSV,3,1,9,1,22,164,36.6,12,52,267,31.6,26,16,057,39.6,31,64,214,38.8*68
$GAGSV,3,2,9,1,22,164,28.8,7,06,054,28.4,12,52,267,32.2,26,16,057,32.0*5A
$GAGSV,3,3,9,31,64,214,33.4*7C
$GPRMC,174718.00,A,3724.922769,N,12205.009558,W,000.7,318.1,150819,,,A*4E
$GPGGA,174719.00,3724.922713,N,12205.009563,W,1,31,0.47,-11.70,M,0.0,M,0.0,0000*75
$GPGSV,3,1,11,2,56,042,39.0,5,45,128,42.4,6,11,048,37.3,12,69,152,39.5*43
$GPGSV,3,2,11,24,09,199,37.7,25,64,303,40.1,29,38,298,42.4,31,13,313,44.1*74
$GPGSV,3,3,11,6,11,048,33.3,24,09,199,36.3,25,64,303,37.3*64
$GLGSV,2,1,7,11,59,264,42.7,5,22,066,33.9,6,16,125,32.2,12,27,324,38.4*58
$GLGSV,2,2,7,20,24,048,35.4,21,56,339,41.5,22,23,271,42.4*78
$QZGSV,1,1,1,194,12,310,38.1*4D
$BDGSV,1,1,3,20,30,097,38.2,26,34,292,41.7,29,60,037,43.0*75
$GAGSV,3,1,9,1,22,164,36.7,12,52,267,30.1,26,16,057,35.7,31,64,214,36.9*6D
$GAGSV,3,2,9,1,22,164,31.9,7,06,054,25.7,12,52,267,31.8,26,16,057,28.8*57
$GAGSV,3,3,9,31,64,214,35.4*7A
$GPRMC,174719.00,A,3724.922713,N,12205.009563,W,000.6,281.7,150819,,,A*4C
$GPGGA,174720.00,3724.922323,N,12205.010192,W,1,31,0.47,-15.94,M,0.0,M,0.0,0000*74
$GPGSV,3,1,11,2,56,042,39.3,5,45,128,42.8,6,11,048,34.2,12,69,152,41.2*46
$GPGSV,3,2,11,24,09,199,34.5,25,64,303,40.0,29,38,298,37.9,31,13,313,44.9*73
$GPGSV,3,3,11,6,11,048,28.8,24,09,199,36.1,25,64,303,36.5*60
$GLGSV,2,1,7,11,59,264,43.4,5,22,066,36.4,6,16,125,34.8,12,27,324,35.5*52
$GLGSV,2,2,7,20,24,048,31.3,21,56,339,42.3,22,23,271,43.1*7A
$QZGSV,1,1,1,194,12,310,39.1*4C
$BDGSV,1,1,3,20,30,097,38.9,26,34,292,39.8,29,60,037,41.9*75
$GAGSV,3,1,9,1,22,164,35.9,12,52,267,29.9,26,16,057,34.2,31,64,214,37.5*69
$GAGSV,3,2,9,1,22,164,36.3,7,06,054,20.5,12,52,267,32.1,26,16,057,24.1*52
$GAGSV,3,3,9,31,64,214,36.1*7C
$GPRMC,174720.00,A,3724.922323,N,12205.010192,W,000.6,250.6,150819,,,A*4E
$GPGGA,174721.00,3724.922411,N,12205.010268,W,1,31,0.47,-13.20,M,0.0,M,0.0,0000*7C
$GPGSV,3,1,11,2,56,042,40.1,5,45,128,43.9,6,11,048,35.1,12,69,152,41.3*49
$GPGSV,3,2,11,24,09,199,33.9,25,64,303,41.9,29,38,298,35.5,31,13,313,44.3*74
$GPGSV,3,3,11,6,11,048,28.0,24,09,199,34.6,25,64,303,35.2*69
$GLGSV,2,1,7,11,59,264,41.3,5,22,066,38.2,6,16,125,36.0,12,27,324,35.5*55
$GLGSV,2,2,7,20,24,048,34.3,21,56,339,42.1,22,23,271,41.5*7B
$QZGSV,1,1,1,194,12,310,39.3*4E
$BDGSV,1,1,3,20,30,097,40.6,26,34,292,35.5,29,60,037,39.9*7B
$GAGSV,3,1,9,1,22,164,33.5,12,52,267,32.5,26,16,057,33.7,31,64,214,38.3*6E
$GAGSV,3,2,9,1,22,164,35.1,7,06,054,18.7,12,52,267,33.9,26,16,057,21.9*5E
$GAGSV,3,3,9,31,64,214,35.5*7B
$GPRMC,174721.00,A,3724.922411,N,12205.010268,W,000.6,216.2,150819,,,A*49
$GPGGA,174722.00,3724.922957,N,12205.010525,W,1,31,0.47,-12.87,M,0.0,M,0.0,0000*72
$GPGSV,3,1,11,2,56,042,39.5,5,45,128,45.1,6,11,048,36.0,12,69,152,41.0*4C
$GPGSV,3,2,11,24,09,199,35.6,25,64,303,43.2,29,38,298,39.8,31,13,313,40.2*70
$GPGSV,3,3,11,6,11,048,31.5,24,09,199,34.5,25,64,303,33.7*64
$GLGSV,2,1,7,11,59,264,38.3,5,22,066,40.5,6,16,125,33.3,12,27,324,34.7*56
$GLGSV,2,2,7,20,24,048,33.3,21,56,339,41.5,22,23,271,40.6*79
$QZGSV,1,1,1,194,12,310,36.4*46
$BDGSV,1,1,3,20,30,097,40.9,26,34,292,34.9,29,60,037,37.5*7B
$GAGSV,3,1,9,1,22,164,32.4,12,52,267,35.0,26,16,057,36.9,31,64,214,38.6*62
$GAGSV,3,2,9,1,22,164,33.9,7,06,054,22.2,12,52,267,34.5,26,16,057,25.2*58
$GAGSV,3,3,9,31,64,214,36.2*7F
$GPRMC,174722.00,A,3724.922957,N,12205.010525,W,000.6,186.1,150819,,,A*42
$GPGGA,174723.00,3724.922407,N,12205.010175,W,1,31,0.47,-15.26,M,0.0,M,0.0,0000*76
$GPGSV,3,1,11,2,56,042,37.3,5,45,128,44.9,6,11,048,38.8,12,69,152,42.7*4F
$GPGSV,3,2,11,24,09,199,37.4,25,64,303,42.8,29,38,298,40.8,31,13,313,36.6*70
$GPGSV,3,3,11,6,11,048,35.1,24,09,199,36.8,25,64,303,34.4*6F
$GLGSV,2,1,7,11,59,264,40.7,5,22,066,40.9,6,16,125,33.7,12,27,324,37.9*58
$GLGSV,2,2,7,20,24,048,33.8,21,56,339,39.8,22,23,271,39.7*7F
$QZGSV,1,1,1,194,12,310,33.2*45
$BDGSV,1,1,3,20,30,097,40.4,26,34,292,36.1,29,60,037,39.9*7E
$GAGSV,3,1,9,1,22,164,35.4,12,52,267,35.6,26,16,057,39.6,31,64,214,37.2*68
$GAGSV,3,2,9,1,22,164,35.0,7,06,054,25.6,12,52,267,33.4,26,16,057,28.9*54
$GAGSV,3,3,9,31,64,214,35.8*76
$GPRMC,174723.00,A,3724.922407,N,12205.010175,W,000.6,160.1,150819,,,A*42
$GPGGA,174724.00,3724.921930,N,12205.009428,W,1,31,0.47,-14.41,M,0.0,M,0.0,0000*7E
$GPGSV,3,1,11,2,56,042,37.4,5,45,128,47.3,6,11,048,40.0,12,69,152,41.6*44
$GPGSV,3,2,11,24,09,199,37.9,25,64,303,41.7,29,38,298,40.9,31,13,313,36.7*71
$GPGSV,3,3,11,6,11,048,35.3,24,09,199,38.7,25,64,303,34.3*6B
$GLGSV,2,1,7,11,59,264,41.3,5,22,066,39.7,6,16,125,36.4,12,27,324,36.9*5A
$GLGSV,2,2,7,20,24,048,32.1,21,56,339,38.9,22,23,271,33.7*7D
$QZGSV,1,1,1,194,12,310,31.0*45
$BDGSV,1,1,3,20,30,096,39.8,26,34,292,37.6,29,60,037,41.4*79
$GAGSV,3,1,9,1,22,164,36.3,12,52,267,35.5,26,16,057,37.6,31,64,214,37.7*64
$GAGSV,3,2,9,1,22,164,37.9,7,06,054,27.5,12,52,267,31.3,26,16,057,30.7*5C
$GAGSV,3,3,9,31,64,214,35.6*78
$GPRMC,174724.00,A,3724.921930,N,12205.009428,W,000.6,130.1,150819,,,A*4F
$GPGGA,174725.00,3724.921617,N,12205.009506,W,1,31,0.47,-15.75,M,0.0,M,0.0,0000*7E
$GPGSV,3,1,11,2,56,042,36.8,5,45,128,46.8,6,11,048,36.4,12,69,152,39.5*4A
$GPGSV,3,2,11,24,09,199,38.1,25,64,303,39.1,29,38,298,41.8,31,13,313,38.4*72
$GPGSV,3,3,11,6,11,048,31.9,24,09,199,36.0,25,64,303,33.6*6E
$GLGSV,2,1,7,11,59,264,40.7,5,22,066,38.7,6,16,125,38.4,12,27,324,38.2*55
$GLGSV,2,2,7,20,24,048,29.5,21,56,339,40.2,22,23,271,38.0*7B
$QZGSV,1,1,1,194,12,310,31.4*41
$BDGSV,1,1,3,20,30,096,43.3,26,34,292,37.1,29,60,037,43.0*7E
$GAGSV,3,1,9,1,22,164,37.5,12,52,267,34.0,26,16,057,36.3,31,64,214,38.4*6F
$GAGSV,3,2,9,1,22,164,39.5,7,06,054,26.9,12,52,267,28.8,26,16,057,29.1*5E
$GAGSV,3,3,9,31,64,214,34.2*7D
$GPRMC,174725.00,A,3724.921617,N,12205.009506,W,000.6,097.8,150819,,,A*4C
$GPGGA,174726.00,3724.921810,N,12205.009848,W,1,31,0.47,-16.60,M,0.0,M,0.0,0000*74
$GPGSV,3,1,11,2,56,042,38.1,5,45,128,45.4,6,11,048,37.8,12,69,152,37.1*45
$GPGSV,3,2,11,24,09,199,33.6,25,64,303,39.7,29,38,298,42.7,31,13,313,42.3*7E
$GPGSV,3,3,11,6,11,048,34.0,24,09,199,32.9,25,64,303,33.8*61
$GLGSV,2,1,7,11,59,264,36.8,5,22,066,42.4,6,16,125,39.6,12,27,324,39.7*52
$GLGSV,2,2,7,20,24,048,35.0,21,56,339,40.8,22,23,271,37.9*7F
$QZGSV,1,1,1,194,12,310,36.4*46
$BDGSV,1,1,3,20,30,096,43.3,26,34,292,40.1,29,60,037,43.0*7E
$GAGSV,3,1,9,1,22,164,38.9,12,52,267,35.9,26,16,057,38.0,31,64,214,39.5*69
$GAGSV,3,2,9,1,22,164,37.7,7,06,054,27.4,12,52,267,30.6,26,16,057,27.7*51
$GAGSV,3,3,9,31,64,214,32.9*70
$GPRMC,174726.00,A,3724.921810,N,12205.009848,W,000.6,052.1,150819,,,A*41
$GPGGA,174727.00,3724.922538,N,12205.009414,W,1,30,0.49,-13.65,M,0.0,M,0.0,0000*7B
$GPGSV,3,1,10,2,56,042,36.9,5,45,128,45.1,6,11,048,39.2,12,69,152,39.7*4B
$GPGSV,3,2,10,24,09,199,30.3,25,64,303,41.8,29,38,298,40.9,31,13,313,41.4*71
$GPGSV,3,3,10,6,11,048,35.7,25,64,303,34.1*40
$GLGSV,2,1,7,11,59,264,38.0,5,22,066,41.7,6,16,125,39.5,12,27,324,36.5*5A
$GLGSV,2,2,7,20,24,048,38.1,21,56,339,41.2,22,23,271,40.7*76
$QZGSV,1,1,1,194,12,310,37.2*41
$BDGSV,1,1,3,20,30,096,42.0,26,34,292,40.0,29,60,037,42.8*74
$GAGSV,3,1,9,1,22,164,36.6,12,52,267,34.8,26,16,057,40.2,31,64,214,38.2*63
$GAGSV,3,2,9,1,22,164,34.8,7,06,054,28.0,12,52,267,32.4,26,16,057,26.9*59
$GAGSV,3,3,9,31,64,214,32.6*7F
$GPRMC,174727.00,A,3724.922538,N,12205.009414,W,000.7,037.0,150819,,,A*42
$GPGGA,174728.00,3724.922245,N,12205.010109,W,1,30,0.49,-18.09,M,0.0,M,0.0,0000*79
$GPGSV,3,1,10,2,56,042,37.4,5,45,128,44.4,6,11,048,38.7,12,69,152,41.0*4F
$GPGSV,3,2,10,24,09,199,29.5,25,64,303,42.3,29,38,298,40.7,31,13,313,39.7*75
$GPGSV,3,3,10,6,11,048,37.5,25,64,303,35.6*46
$GLGSV,2,1,7,11,59,264,39.0,5,22,066,43.1,6,16,125,38.6,12,27,324,36.1*59
$GLGSV,2,2,7,20,24,048,37.0,21,56,339,40.9,22,23,271,42.2*75
$QZGSV,1,1,1,194,12,310,35.1*40
$BDGSV,1,1,3,20,30,096,41.8,26,34,292,39.5,29,60,037,43.7*7A
$GAGSV,3,1,9,1,22,164,34.6,12,52,267,34.5,26,16,057,40.7,31,64,214,37.7*63
$GAGSV,3,2,9,1,22,164,31.1,7,06,054,28.7,12,52,267,33.4,26,16,057,29.1*54
$GAGSV,3,3,9,31,64,214,31.6*7C
$GPRMC,174728.00,A,3724.922245,N,12205.010109,W,000.5,048.7,150819,,,A*4C
$GPGGA,174729.00,3724.922483,N,12205.009370,W,1,30,0.49,-15.70,M,0.0,M,0.0,0000*73
$GPGSV,3,1,10,2,56,042,37.3,5,45,128,45.4,6,11,048,34.6,12,69,152,38.5*4F
$GPGSV,3,2,10,24,09,199,29.0,25,64,303,42.0,29,38,298,41.1,31,13,313,41.9*75
$GPGSV,3,3,10,6,11,048,37.1,25,64,303,34.2*47
$GLGSV,2,1,7,11,59,264,37.9,5,22,066,43.4,6,16,125,38.8,12,27,324,36.5*51
$GLGSV,2,2,7,20,24,048,35.2,21,56,339,41.3,22,23,271,40.5*7B
$QZGSV,1,1,1,194,12,310,37.5*46
$BDGSV,1,1,3,20,30,096,42.5,26,34,292,39.7,29,60,037,43.3*72
$GAGSV,3,1,9,1,22,164,38.0,12,52,267,35.1,26,16,057,41.1,31,64,214,39.4*66
$GAGSV,3,2,9,1,22,164,33.8,7,06,054,27.9,12,52,267,33.0,26,16,057,29.4*5F
$GAGSV,3,3,9,31,64,214,32.2*7B
$GPRMC,174729.00,A,3724.922483,N,12205.009370,W,000.3,,150819,,,A*66
$GPGGA,174730.00,3724.922820,N,12205.009177,W,1,30,0.49,-13.82,M,0.0,M,0.0,0000*70
$GPGSV,3,1,10,2,56,042,38.5,5,45,128,47.3,6,11,048,32.2,12,69,152,40.0*4B
$GPGSV,3,2,10,24,09,199,30.8,25,64,303,39.4,29,38,298,42.5,31,13,313,42.6*76
$GPGSV,3,3,10,6,11,048,37.2,25,64,303,34.1*47
$GLGSV,2,1,7,11,59,264,38.0,5,22,066,44.3,6,16,125,38.9,12,27,324,39.8*54
$GLGSV,2,2,7,20,24,048,31.4,21,56,339,40.1,22,23,271,37.6*79
$QZGSV,1,1,1,194,12,310,37.0*43
$BDGSV,1,1,3,20,30,096,45.1,26,34,292,39.9,29,60,037,43.2*7E
$GAGSV,3,1,9,1,22,164,39.1,12,52,268,35.9,26,16,057,40.2,31,64,214,38.5*63
$GAGSV,3,2,9,1,22,164,37.4,7,06,054,27.2,12,52,268,32.6,26,16,057,29.6*56
$GAGSV,3,3,9,31,64,214,33.6*7E
$GPRMC,174730.00,A,3724.922820,N,12205.009177,W,000.4,,150819,,,A*69
$GPGGA,174731.00,3724.922689,N,12205.008634,W,1,31,0.47,-13.68,M,0.0,M,0.0,0000*76
$GPGSV,3,1,11,2,56,042,38.2,5,45,128,46.5,6,11,048,36.4,12,69,152,39.5*43
$GPGSV,3,2,11,24,09,199,34.4,25,64,303,39.5,29,38,298,43.3,31,13,313,40.9*74
$GPGSV,3,3,11,6,11,048,36.6,24,09,199,31.2,25,64,303,33.9*6C
$GLGSV,2,1,7,11,59,264,37.5,5,22,066,43.2,6,16,125,38.0,12,27,324,40.9*5E
$GLGSV,2,2,7,20,24,048,31.1,21,56,339,41.2,22,23,271,37.6*7E
$QZGSV,1,1,1,194,12,310,35.6*47
$BDGSV,1,1,3,20,30,096,44.9,26,34,292,39.8,29,60,037,42.1*74
$GAGSV,3,1,9,1,22,164,39.3,12,52,268,36.1,26,16,057,38.0,31,64,214,39.3*60
$GAGSV,3,2,9,1,22,164,38.3,7,06,054,27.0,12,52,268,32.7,26,16,057,29.2*59
$GAGSV,3,3,9,31,64,214,33.1*79
$GPRMC,174731.00,A,3724.922689,N,12205.008634,W,000.4,,150819,,,A*64
$GPGGA,174732.00,3724.922001,N,12205.008738,W,1,31,0.47,-15.86,M,0.0,M,0.0,0000*78
$GPGSV,3,1,11,2,56,042,39.2,5,45,128,46.9,6,11,048,35.5,12,69,152,40.6*41
$GPGSV,3,2,11,24,09,199,38.5,25,64,303,39.5,29,38,298,42.1,31,13,313,38.5*79
$GPGSV,3,3,11,6,11,048,36.2,24,09,199,34.8,25,64,303,33.4*6A
$GLGSV,2,1,7,11,59,264,40.7,5,22,066,39.6,6,16,125,38.0,12,27,324,39.6*54
$GLGSV,2,2,7,20,24,048,27.8,21,56,339,39.6,22,23,271,38.0*72
$QZGSV,1,1,1,194,12,310,32.4*42
$BDGSV,1,1,3,20,30,096,44.5,26,34,292,38.2,29,60,037,42.9*7B
$GAGSV,3,1,9,1,22,164,36.8,12,52,268,34.8,26,16,057,35.4,31,64,214,38.0*64
$GAGSV,3,2,9,1,22,164,38.8,7,06,054,26.2,12,52,268,28.8,26,16,057,29.4*53
$GAGSV,3,3,9,31,64,214,33.7*7F
$GPRMC,174732.00,A,3724.922001,N,12205.008738,W,000.6,166.5,150819,,,A*44
$GPGGA,174733.00,3724.921203,N,12205.009387,W,1,31,0.47,-16.74,M,0.0,M,0.0,0000*75
$GPGSV,3,1,11,2,56,042,38.6,5,45,128,46.7,6,11,048,37.0,12,69,152,40.5*4E
$GPGSV,3,2,11,24,09,199,38.2,25,64,303,38.9,29,38,298,42.4,31,13,313,39.7*75
$GPGSV,3,3,11,6,11,048,34.5,24,09,199,34.0,25,64,303,33.3*60
$GLGSV,2,1,7,11,59,264,40.1,5,22,066,40.5,6,16,125,37.0,12,27,324,40.3*5B
$GLGSV,2,2,7,20,24,048,26.8,21,56,339,40.2,22,23,271,37.6*70
$QZGSV,1,1,1,194,12,310,34.7*47
$BDGSV,1,1,3,20,30,096,44.4,26,34,292,38.6,29,60,037,42.5*72
$GAGSV,3,1,9,1,22,164,35.7,12,52,268,35.1,26,16,057,36.7,31,64,214,38.8*68
$GAGSV,3,2,9,1,22,164,38.9,7,06,054,24.7,12,52,268,27.7,26,16,057,30.4*5D
$GAGSV,3,3,9,31,64,214,33.4*7C
$GPRMC,174733.00,A,3724.921203,N,12205.009387,W,000.6,106.1,150819,,,A*45
$GPGGA,174734.00,3724.923270,N,12205.009211,W,1,31,0.47,-15.42,M,0.0,M,0.0,0000*7C
$GPGSV,3,1,11,2,56,042,39.1,5,45,128,46.2,6,11,048,37.6,12,69,152,41.9*46
$GPGSV,3,2,11,24,08,199,34.3,25,64,303,39.7,29,38,298,41.6,31,13,313,41.8*77
$GPGSV,3,3,11,6,11,048,35.9,24,08,199,31.4,25,64,303,34.8*61
$GLGSV,2,1,7,11,59,264,38.5,5,22,066,42.9,6,16,125,37.5,12,27,324,39.9*5F
$GLGSV,2,2,7,20,24,048,30.4,21,56,339,39.9,22,23,271,38.3*74
$QZGSV,1,1,1,194,12,310,36.3*41
$BDGSV,1,1,3,20,30,096,43.3,26,34,292,39.6,29,60,037,42.2*74
$GAGSV,3,1,9,1,22,164,37.1,12,52,268,35.3,26,16,057,40.1,31,64,214,37.9*67
$GAGSV,3,2,9,1,22,164,36.7,7,06,054,25.5,12,52,268,31.1,26,16,057,28.1*53
$GAGSV,3,3,9,31,64,214,33.2*7A
$GPRMC,174734.00,A,3724.923270,N,12205.009211,W,000.7,051.6,150819,,,A*4F
$GPGGA,174735.00,3724.922930,N,12205.008200,W,1,30,0.49,-15.97,M,0.0,M,0.0,0000*75
$GPGSV,3,1,10,2,56,042,36.2,5,45,128,44.5,6,11,048,40.0,12,69,152,42.1*43
$GPGSV,3,2,10,24,08,199,31.2,25,64,303,40.8,29,38,298,41.5,31,13,313,37.4*7D
$GPGSV,3,3,10,6,11,048,39.1,25,64,303,36.7*4E
$GLGSV,2,1,7,11,59,264,39.7,5,22,066,44.2,6,16,125,35.7,12,27,324,38.5*5C
$GLGSV,2,2,7,20,24,048,32.9,21,56,339,40.5,22,23,271,40.8*7D
$QZGSV,1,1,1,194,12,310,34.3*43
$BDGSV,1,1,3,20,30,096,41.8,26,34,292,39.7,29,60,037,42.7*79
$GAGSV,3,1,9,1,22,164,34.8,12,52,268,33.9,26,16,057,41.8,31,64,214,38.0*6F
$GAGSV,3,2,9,1,22,164,32.9,7,06,054,28.7,12,52,268,32.3,26,16,057,28.7*51
$GAGSV,3,3,9,31,64,214,32.5*7C
$GPRMC,174735.00,A,3724.922930,N,12205.008200,W,000.7,016.0,150819,,,A*44
$GPGGA,174736.00,3724.924224,N,12205.006837,W,1,30,0.49,-8.38,M,0.0,M,0.0,0000*47
$GPGSV,3,1,10,2,56,042,35.1,5,45,128,43.0,6,11,048,40.1,12,69,152,42.1*40
$GPGSV,3,2,10,24,08,199,32.2,25,64,303,40.1,29,38,298,40.6,31,13,313,39.5*7A
$GPGSV,3,3,10,6,11,048,42.1,25,64,303,37.7*43
$GLGSV,2,1,7,11,59,264,42.6,5,22,066,44.6,6,16,125,32.5,12,27,324,38.5*50
$GLGSV,2,2,7,20,24,048,36.3,21,56,339,41.2,22,23,271,38.8*7A
$QZGSV,1,1,1,194,12,310,35.8*49
$BDGSV,1,1,3,20,30,096,40.0,26,34,292,40.1,29,60,037,41.8*74
$GAGSV,3,1,9,1,22,164,33.4,12,52,268,33.4,26,16,057,42.3,31,64,214,37.7*69
$GAGSV,3,2,9,1,22,164,28.8,7,06,054,30.6,12,52,268,32.3,26,16,057,33.1*5F
$GAGSV,3,3,9,31,64,214,33.7*7F
$GPRMC,174736.00,A,3724.924224,N,12205.006837,W,000.5,344.5,150819,,,A*4C
$GPGGA,174737.00,3724.922300,N,12205.009756,W,1,31,0.47,-17.14,M,0.0,M,0.0,0000*7F
$GPGSV,3,1,11,2,56,042,36.5,5,45,128,43.5,6,11,048,39.1,12,69,152,40.8*46
$GPGSV,3,2,11,24,08,199,37.0,25,64,303,38.5,29,38,298,42.5,31,13,313,41.5*79
$GPGSV,3,3,11,6,11,048,39.9,24,08,199,34.8,25,64,303,37.9*66
$GLGSV,2,1,7,11,59,264,42.9,5,22,066,41.9,6,16,125,31.0,12,27,324,40.6*5F
$GLGSV,2,2,7,20,24,048,36.7,21,56,339,41.0,22,23,271,38.8*7C
$QZGSV,1,1,1,194,12,310,35.3*42
$BDGSV,1,1,3,20,30,096,36.3,26,34,292,40.1,29,60,037,42.8*75
$GAGSV,3,1,9,1,22,164,34.0,12,52,268,31.5,26,16,057,40.5,31,64,214,37.1*6B
$GAGSV,3,2,9,1,22,164,26.9,7,06,054,29.1,12,52,268,31.2,26,16,057,32.2*5F
$GAGSV,3,3,9,31,64,214,34.2*7D
$GPRMC,174737.00,A,3724.922300,N,12205.009756,W,000.6,303.9,150819,,,A*47
$GPGGA,174738.00,3724.922759,N,12205.008367,W,1,31,0.47,-14.44,M,0.0,M,0.0,0000*79
$GPGSV,3,1,11,2,56,042,37.4,5,45,128,42.5,6,11,048,36.8,12,69,152,39.8*4F
$GPGSV,3,2,11,24,08,199,37.4,25,64,303,38.3,29,38,298,44.0,31,13,313,43.6*79
$GPGSV,3,3,11,6,11,048,34.5,24,08,199,36.5,25,64,303,38.3*6D
$GLGSV,2,1,7,11,59,264,43.2,5,22,066,34.3,6,16,125,31.1,12,27,324,40.3*59
$GLGSV,2,2,7,20,24,048,33.6,21,56,339,41.1,22,23,271,42.0*7C
$QZGSV,1,1,1,194,12,310,38.0*4C
$BDGSV,1,1,3,20,30,096,38.1,26,34,292,42.5,29,60,037,44.0*71
$GAGSV,3,1,9,1,22,164,35.6,12,52,268,31.1,26,16,057,34.2,31,64,214,35.2*6D
$GAGSV,3,2,9,1,22,164,30.8,7,06,054,25.8,12,52,268,32.2,26,16,057,28.8*5E
$GAGSV,3,3,9,31,64,214,36.6*7B
$GPRMC,174738.00,A,3724.922759,N,12205.008367,W,000.7,273.4,150819,,,A*4D
$GPGGA,174739.00,3724.921908,N,12205.009656,W,1,30,0.47,-14.34,M,0.0,M,0.0,0000*71
$GPGSV,3,1,11,2,56,042,39.0,5,45,128,42.8,6,11,048,32.7,12,69,152,41.8*4C
$GPGSV,3,2,11,24,08,199,34.6,25,64,303,39.0,29,38,298,42.4,31,13,313,43.3*7D
$GPGSV,3,3,11,6,11,048,30.1,24,08,199,35.2,25,64,303,37.1*64
$GLGSV,2,1,7,11,59,264,42.6,5,22,066,37.8,6,16,125,35.8,12,27,324,39.1*55
$GLGSV,2,2,7,20,24,048,31.4,21,56,339,41.1,22,23,271,43.4*79
$QZGSV,1,1,1,194,12,310,39.5*48
$BDGSV,1,1,3,20,30,096,39.6,26,34,292,42.5,29,60,037,42.5*74
$GAGSV,2,1,8,1,22,164,34.1,12,52,268,31.5,26,16,057,32.5,31,64,214,35.2*6E
$GAGSV,2,2,8,1,22,164,34.6,12,52,268,31.8,26,16,057,23.8,31,64,214,37.0*6A
$GPRMC,174739.00,A,3724.921908,N,12205.009656,W,000.6,241.9,150819,,,A*4E
$GPGGA,174740.00,3724.922847,N,12205.009749,W,1,31,0.47,-14.35,M,0.0,M,0.0,0000*79
$GPGSV,3,1,11,2,56,042,40.5,5,45,128,44.8,6,11,048,29.4,12,69,152,43.2*40
$GPGSV,3,2,11,24,08,199,35.1,25,64,303,40.6,29,38,298,42.0,31,13,313,43.2*76
$GPGSV,3,3,11,6,11,048,28.8,24,08,199,34.6,25,64,303,36.5*64
$GLGSV,2,1,7,11,59,264,42.2,5,22,066,38.8,6,16,125,36.5,12,27,324,38.6*56
$GLGSV,2,2,7,20,24,048,31.2,21,56,339,41.7,22,23,271,43.7*7A
$QZGSV,1,1,1,194,12,310,39.0*4D
$BDGSV,1,1,3,20,30,096,40.7,26,34,292,41.8,29,60,037,40.1*73
$GAGSV,3,1,9,1,22,164,31.0,12,52,268,33.6,26,16,057,34.3,31,64,214,34.8*60
$GAGSV,3,2,9,1,22,164,34.0,7,06,054,21.7,12,52,268,31.8,26,16,057,24.0*54
$GAGSV,3,3,9,31,64,214,37.1*7D
$GPRMC,174740.00,A,3724.922847,N,12205.009749,W,000.5,213.4,150819,,,A*4F
$GPGGA,174741.00,3724.922153,N,12205.009180,W,1,31,0.47,-16.75,M,0.0,M,0.0,0000*71
$GPGSV,3,1,11,2,56,042,38.0,5,45,128,45.2,6,11,048,35.7,12,69,152,43.4*49
$GPGSV,3,2,11,24,08,199,38.3,25,64,303,41.1,29,38,298,41.3,31,13,313,38.3*72
$GPGSV,3,3,11,6,11,048,34.6,24,08,199,35.1,25,64,303,35.6*61
$GLGSV,2,1,7,11,59,264,41.8,5,22,066,41.9,6,16,125,33.4,12,27,324,37.5*58
$GLGSV,2,2,7,20,24,048,29.8,21,56,339,39.4,22,23,271,43.4*76
$QZGSV,1,1,1,194,12,310,35.1*40
$BDGSV,1,1,3,20,30,096,41.2,26,34,292,39.2,29,60,037,40.1*72
$GAGSV,3,1,9,1,22,164,29.7,12,52,268,33.4,26,16,057,36.8,31,64,214,35.1*6D
$GAGSV,3,2,9,1,22,164,31.6,7,06,054,25.0,12,52,268,33.3,26,16,057,28.1*50
$GAGSV,3,3,9,31,64,214,37.3*7F
$GPRMC,174741.00,A,3724.922153,N,12205.009180,W,000.6,176.5,150819,,,A*43
$GPGGA,174742.00,3724.922220,N,12205.009538,W,1,31,0.47,-17.95,M,0.0,M,0.0,0000*7D
$GPGSV,3,1,11,2,56,042,38.3,5,45,128,45.9,6,11,048,40.6,12,69,152,44.6*47
$GPGSV,3,2,11,24,08,199,37.9,25,64,303,39.6,29,38,298,41.0,31,13,313,35.6*74
$GPGSV,3,3,11,6,11,048,37.1,24,08,199,37.5,25,64,303,35.4*61
$GLGSV,2,1,7,11,59,264,42.4,5,22,066,40.1,6,16,125,34.8,12,27,324,36.4*55
$GLGSV,2,2,7,20,24,048,30.7,21,56,339,39.7,22,23,271,37.2*77
$QZGSV,1,1,1,194,12,310,31.9*4C
$BDGSV,1,1,3,20,30,096,41.4,26,34,292,36.5,29,60,037,41.4*78
$GAGSV,3,1,9,1,22,164,30.0,12,52,268,34.7,26,16,057,36.8,31,64,214,34.7*61
$GAGSV,3,2,9,1,22,164,34.2,7,06,054,26.9,12,52,268,30.8,26,16,057,31.1*5B
$GAGSV,3,3,9,31,64,214,37.4*78
$GPRMC,174742.00,A,3724.922220,N,12205.009538,W,000.6,141.0,150819,,,A*41
$GPGGA,174743.00,3724.922430,N,12205.009197,W,1,31,0.47,-16.32,M,0.0,M,0.0,0000*76
$GPGSV,3,1,11,2,56,042,40.8,5,45,128,47.2,6,11,048,37.5,12,69,152,43.2*4A
$GPGSV,3,2,11,24,08,199,39.5,25,64,303,39.8,29,38,298,41.6,31,13,313,35.7*7F
$GPGSV,3,3,11,6,11,048,38.3,24,08,199,37.7,25,64,303,33.3*6F
$GLGSV,2,1,7,11,59,264,42.0,5,22,066,38.0,6,16,125,37.0,12,27,324,37.0*51
$GLGSV,2,2,7,20,24,048,28.3,21,56,339,38.3,22,23,271,34.2*7C
$QZGSV,1,1,1,194,12,310,30.6*42
$BDGSV,1,1,3,20,30,096,43.1,26,34,292,38.8,29,60,037,42.1*7A
$GAGSV,3,1,9,1,22,164,30.5,12,52,268,34.3,26,16,057,34.2,31,64,214,36.4*69
$GAGSV,3,2,9,1,22,164,36.9,7,06,054,28.1,12,52,268,27.3,26,16,057,31.0*58
$GAGSV,3,3,9,31,64,214,36.3*7E
$GPRMC,174743.00,A,3724.922430,N,12205.009197,W,000.5,127.9,150819,,,A*4C
$GPGGA,174744.00,3724.921682,N,12205.008523,W,1,31,0.47,-13.97,M,0.0,M,0.0,0000*79
$GPGSV,3,1,11,2,56,042,40.1,5,45,128,47.1,6,11,048,34.4,12,69,152,40.8*4B
$GPGSV,3,2,11,24,08,199,38.1,25,64,303,40.0,29,38,298,42.9,31,13,313,39.2*79
$GPGSV,3,3,11,6,11,048,35.8,24,08,199,35.1,25,64,303,33.6*68
$GLGSV,2,1,7,11,59,264,40.0,5,22,066,40.9,6,16,125,37.4,12,27,324,40.3*52
$GLGSV,2,2,7,20,24,048,25.4,21,56,339,39.6,22,23,271,37.3*70
$QZGSV,1,1,1,194,12,310,34.2*42
$BDGSV,1,1,3,20,30,096,44.4,26,34,292,38.4,29,60,037,41.9*7F
$GAGSV,3,1,9,1,22,164,33.9,12,52,268,35.3,26,16,057,34.4,31,64,214,37.8*6C
$GAGSV,3,2,9,1,22,164,38.7,7,06,054,26.3,12,52,268,27.6,26,16,057,30.1*51
$GAGSV,3,3,9,31,64,214,34.1*7E
$GPRMC,174744.00,A,3724.921682,N,12205.008523,W,000.6,091.8,150819,,,A*47
$GPGGA,174745.00,3724.922709,N,12205.008387,W,1,31,0.47,-16.33,M,0.0,M,0.0,0000*7A
$GPGSV,3,1,11,2,56,042,38.4,5,45,128,45.8,6,11,048,35.8,12,69,152,40.2*4D
$GPGSV,3,2,11,24,08,199,34.0,25,64,303,39.0,29,38,298,42.4,31,13,313,41.3*79
$GPGSV,3,3,11,6,11,048,35.9,24,08,199,32.5,25,64,303,34.9*62
$GLGSV,2,1,7,11,59,264,38.0,5,22,066,43.7,6,16,125,37.8,12,27,324,40.1*5E
$GLGSV,2,2,7,20,24,048,29.7,21,56,339,40.4,22,23,271,36.7*76
$QZGSV,1,1,1,194,12,310,37.1*42
$BDGSV,1,1,3,20,30,096,43.2,26,34,292,39.6,29,60,037,41.9*7D
$GAGSV,3,1,9,1,22,164,36.6,12,52,268,36.1,26,16,057,39.2,31,64,214,38.6*6D
$GAGSV,3,2,9,1,22,164,37.6,7,06,054,26.3,12,52,268,30.8,26,16,057,28.3*5C
$GAGSV,3,3,9,31,64,214,33.5*7D
$GPRMC,174745.00,A,3724.922709,N,12205.008387,W,000.6,061.7,150819,,,A*4F
$GPGGA,174746.00,3724.922022,N,12205.007918,W,1,31,0.47,-14.56,M,0.0,M,0.0,0000*75
$GPGSV,3,1,11,2,56,042,36.5,5,45,128,45.6,6,11,048,36.8,12,69,152,39.3*40
$GPGSV,3,2,11,24,08,199,31.9,25,64,303,40.8,29,38,298,41.3,31,13,313,42.8*7F
$GPGSV,3,3,11,6,11,048,36.2,24,08,199,30.9,25,64,303,34.5*68
$GLGSV,2,1,7,11,59,264,36.7,5,22,066,43.9,6,16,125,38.7,12,27,324,38.8*5F
$GLGSV,2,2,7,20,24,048,33.7,21,56,339,41.5,22,23,271,37.4*7F
$QZGSV,1,1,1,194,12,310,38.3*4F
$BDGSV,1,1,3,20,30,096,42.3,26,34,292,40.8,29,60,037,42.8*7F
$GAGSV,3,1,9,1,22,164,38.1,12,52,268,35.2,26,16,057,40.0,31,64,214,38.8*66
$GAGSV,3,2,9,1,22,164,37.0,7,06,054,26.2,12,52,268,31.6,26,16,057,27.4*5C
$GAGSV,3,3,9,31,64,214,32.8*71
$GPRMC,174746.00,A,3724.922022,N,12205.007918,W,000.4,,150819,,,A*6D
$GPGGA,174747.00,3724.921952,N,12205.008435,W,1,31,0.47,-15.29,M,0.0,M,0.0,0000*7D
$GPGSV,3,1,11,2,56,042,36.8,5,45,128,47.1,6,11,048,32.9,12,69,152,40.3*43
$GPGSV,3,2,11,24,08,199,37.7,25,64,303,39.2,29,38,298,42.0,31,13,313,39.6*71
$GPGSV,3,3,11,6,11,048,37.0,24,08,199,36.0,25,64,303,34.6*67
$GLGSV,2,1,7,11,59,264,40.3,5,22,066,41.1,6,16,125,36.9,12,27,324,39.2*5B
$GLGSV,2,2,7,20,24,048,30.6,21,56,339,40.0,22,23,271,36.9*75
$QZGSV,1,1,1,194,12,310,34.5*45
$BDGSV,1,1,3,20,30,096,42.1,26,34,292,39.3,29,60,037,43.0*71
$GAGSV,3,1,9,1,22,164,35.6,12,52,268,35.2,26,16,057,35.6,31,64,214,38.4*64
$GAGSV,3,2,9,1,22,164,38.1,7,06,054,25.7,12,52,268,29.7,26,16,057,30.8*56
$GAGSV,3,3,9,31,64,214,34.0*7F
$GPRMC,174747.00,A,3724.921952,N,12205.008435,W,000.8,191.4,150819,,,A*43
$GPGGA,174748.00,3724.921966,N,12205.009151,W,1,31,0.47,-16.54,M,0.0,M,0.0,0000*7A
$GPGSV,3,1,11,2,56,042,37.8,5,45,128,46.7,6,11,048,36.6,12,69,152,43.3*4D
$GPGSV,3,2,11,24,08,199,37.7,25,64,303,41.0,29,38,298,41.0,31,13,313,34.3*77
$GPGSV,3,3,11,6,11,048,36.7,24,08,199,38.0,25,64,303,34.9*60
$GLGSV,2,1,7,11,59,264,42.6,5,22,066,40.8,6,16,125,33.1,12,27,324,37.8*5D
$GLGSV,2,2,7,20,24,048,32.6,21,56,339,39.2,22,23,271,36.4*76
$QZGSV,1,1,1,194,12,310,31.8*4D
$BDGSV,1,1,3,20,30,096,41.0,26,34,292,37.3,29,60,037,41.2*7D
$GAGSV,3,1,9,1,22,164,33.8,12,52,268,34.1,26,16,057,36.9,31,64,214,35.3*68
$GAGSV,3,2,9,1,22,164,34.5,7,06,054,26.0,12,52,268,30.1,26,16,057,32.2*5C
$GAGSV,3,3,9,31,64,214,36.9*74
$GPRMC,174748.00,A,3724.921966,N,12205.009151,W,000.8,225.0,150819,,,A*45
$GPGGA,174749.00,3724.921659,N,12205.009365,W,1,31,0.47,-12.57,M,0.0,M,0.0,0000*7A
$GPGSV,3,1,11,2,56,042,37.8,5,45,128,45.0,6,11,048,33.2,12,69,152,44.0*4C
$GPGSV,3,2,11,24,08,199,35.8,25,64,303,40.3,29,38,299,41.1,31,13,313,42.2*78
$GPGSV,3,3,11,6,11,048,33.5,24,08,199,35.1,25,64,303,35.9*6A
$GLGSV,2,1,7,11,59,264,41.8,5,22,066,40.4,6,16,125,34.1,12,27,324,36.6*54
$GLGSV,2,2,7,20,24,048,32.1,21,56,339,41.2,22,23,271,42.4*7D
$QZGSV,1,1,1,194,12,310,37.7*44
$BDGSV,1,1,3,20,30,096,42.2,26,34,292,40.9,29,60,037,39.1*7A
$GAGSV,3,1,9,1,22,164,32.8,12,52,268,32.0,26,16,057,34.6,31,64,214,34.8*69
$GAGSV,3,2,9,1,22,164,33.2,7,06,054,23.8,12,52,268,31.6,26,16,057,30.6*51
$GAGSV,3,3,9,31,64,214,36.9*74
$GPRMC,174749.00,A,3724.921659,N,12205.009365,W,000.9,272.1,150819,,,A*40
$GPGGA,174750.00,3724.921339,N,12205.009046,W,1,31,0.47,-13.08,M,0.0,M,0.0,0000*78
$GPGSV,3,1,11,2,56,042,39.3,5,45,128,43.4,6,11,048,31.6,12,69,152,43.1*4B
$GPGSV,3,2,11,24,08,199,35.4,25,64,303,39.6,29,38,299,42.5,31,13,313,44.4*78
$GPGSV,3,3,11,6,11,048,29.5,24,08,199,34.5,25,64,303,36.7*69
$GLGSV,2,1,7,11,59,264,43.3,5,22,066,39.7,6,16,125,34.8,12,27,324,37.5*5B
$GLGSV,2,2,7,20,24,048,30.2,21,56,339,41.2,22,23,271,42.7*7F
$QZGSV,1,1,1,194,12,310,39.6*4B
$BDGSV,1,1,3,20,30,096,40.6,26,34,292,42.0,29,60,037,41.6*7F
$GAGSV,3,1,9,1,22,164,34.1,12,52,268,31.8,26,16,057,33.2,31,64,214,35.0*67
$GAGSV,3,2,9,1,22,164,35.8,7,06,054,19.4,12,52,268,31.7,26,16,057,26.0*58
$GAGSV,3,3,9,31,64,214,36.1*7C
$GPRMC,174750.00,A,3724.921339,N,12205.009046,W,000.7,302.8,150819,,,A*48
$GPGGA,174751.00,3724.922348,N,12205.009019,W,1,31,0.47,-13.67,M,0.0,M,0.0,0000*7F
$GPGSV,3,1,11,2,56,042,39.1,5,45,128,42.1,6,11,048,34.5,12,69,152,40.0*49
$GPGSV,3,2,11,24,08,199,36.4,25,64,303,40.5,29,38,299,40.6,31,13,313,43.6*72
$GPGSV,3,3,11,6,11,048,29.9,24,08,199,35.5,25,64,303,36.2*61
$GLGSV,2,1,7,11,59,264,42.5,5,22,066,37.7,6,16,125,33.1,12,27,324,35.1*5A
$GLGSV,2,2,7,20,24,048,32.8,21,56,339,41.4,22,23,271,41.2*77
$QZGSV,1,1,1,194,12,310,38.5*49
$BDGSV,1,1,3,20,30,096,39.4,26,34,292,41.7,29,60,037,42.9*7B
$GAGSV,3,1,9,1,22,164,36.5,12,52,268,30.8,26,16,057,32.6,31,64,214,37.5*62
$GAGSV,3,2,9,1,22,164,34.8,7,06,054,20.4,12,52,268,31.9,26,16,057,27.7*5B
$GAGSV,3,3,9,31,64,214,35.2*7C
$GPRMC,174751.00,A,3724.922348,N,12205.009019,W,000.7,330.1,150819,,,A*4E
$GPGGA,174752.00,3724.921808,N,12205.008958,W,1,31,0.47,-11.78,M,0.0,M,0.0,0000*71
$GPGSV,3,1,11,2,56,042,38.4,5,45,128,43.8,6,11,048,40.9,12,69,152,39.5*41
$GPGSV,3,2,11,24,08,199,38.2,25,64,303,40.0,29,38,299,41.5,31,13,313,43.4*7F
$GPGSV,3,3,11,6,11,048,36.1,24,08,199,34.9,25,64,303,37.3*6A
$GLGSV,2,1,7,11,59,264,41.7,5,22,066,36.9,6,16,125,31.7,12,27,324,36.3*51
$GLGSV,2,2,7,20,24,048,37.5,21,56,339,41.4,22,23,271,38.9*7A
$QZGSV,1,1,1,194,12,310,37.6*45
$BDGSV,1,1,3,20,30,096,38.8,26,34,291,41.2,29,60,037,42.0*79
$GAGSV,3,1,9,1,22,164,34.3,12,52,268,31.1,26,16,057,39.2,31,64,214,37.3*67
$GAGSV,3,2,9,1,22,164,31.9,7,06,054,26.8,12,52,268,31.7,26,16,057,30.6*5C
$GAGSV,3,3,9,31,64,214,34.6*79
$GPRMC,174752.00,A,3724.921808,N,12205.008958,W,000.4,,150819,,,A*60
$GPGGA,174753.00,3724.922051,N,12205.008429,W,1,31,0.47,-14.82,M,0.0,M,0.0,0000*7C
$GPGSV,3,1,11,2,56,042,38.1,5,45,128,44.6,6,11,048,40.4,12,69,152,43.1*49
$GPGSV,3,2,11,24,08,199,34.5,25,64,303,40.3,29,38,299,41.1,31,13,313,39.7*7D
$GPGSV,3,3,11,6,11,048,39.5,24,08,199,31.4,25,64,303,36.6*6D
$GLGSV,2,1,7,11,59,263,40.5,5,22,066,43.1,6,16,125,35.1,12,27,324,36.8*56
$GLGSV,2,2,7,20,24,048,35.8,21,56,339,38.6,22,23,271,40.6*79
$QZGSV,1,1,1,194,12,310,34.6*46
$BDGSV,1,1,3,20,30,096,42.4,26,34,291,40.5,29,60,037,42.5*7B
$GAGSV,3,1,9,1,22,164,33.0,12,52,268,33.3,26,16,057,40.8,31,64,214,38.3*68
$GAGSV,3,2,9,1,22,164,27.8,7,06,054,29.9,12,52,268,31.4,26,16,057,29.6*5F
$GAGSV,3,3,9,31,64,214,33.0*78
$GPRMC,174753.00,A,3724.922051,N,12205.008429,W,000.6,122.8,150819,,,A*48
$GPGGA,174754.00,3724.922609,N,12205.009045,W,1,31,0.47,-14.68,M,0.0,M,0.0,0000*7B
$GPGSV,3,1,11,2,56,042,39.6,5,45,128,45.5,6,11,048,38.5,12,69,152,41.2*42
$GPGSV,3,2,11,24,08,199,31.3,25,64,303,39.0,29,38,299,42.3,31,13,313,42.5*7C
$GPGSV,3,3,11,6,11,048,36.7,24,08,199,28.8,25,64,303,34.6*66
$GLGSV,2,1,7,11,59,263,38.6,5,22,066,43.5,6,16,125,38.6,12,27,324,38.5*57
$GLGSV,2,2,7,20,24,048,32.4,21,56,339,40.1,22,23,271,38.8*7B
$QZGSV,1,1,1,194,12,310,38.0*4C
$BDGSV,1,1,3,20,30,096,44.5,26,34,291,40.7,29,60,037,41.7*7F
$GAGSV,3,1,9,1,22,164,36.5,12,52,268,34.3,26,16,057,39.9,31,64,214,37.4*68
$GAGSV,3,2,9,1,22,164,34.9,7,06,054,27.6,12,52,268,32.2,26,16,057,28.1*5E
$GAGSV,3,3,9,31,64,214,32.1*78
$GPRMC,174754.00,A,3724.922609,N,12205.009045,W,000.5,138.7,150819,,,A*4C
$GPGGA,174755.00,3724.921497,N,12205.008808,W,1,31,0.47,-16.30,M,0.0,M,0.0,0000*73
$GPGSV,3,1,11,2,56,042,41.0,5,45,128,45.7,6,11,048,37.3,12,69,152,42.9*48
$GPGSV,3,2,11,24,08,199,29.5,25,64,302,39.2,29,38,299,42.9,31,13,313,42.6*79
$GPGSV,3,3,11,6,11,048,36.1,24,08,199,27.2,25,64,302,34.4*66
$GLGSV,2,1,7,11,59,263,37.6,5,22,066,44.1,6,16,125,38.4,12,27,324,39.0*5D
$GLGSV,2,2,7,20,24,048,31.4,21,56,339,39.4,22,23,271,38.0*7B
$QZGSV,1,1,1,194,12,310,38.0*4C
$BDGSV,1,1,3,20,30,096,44.2,26,34,291,40.6,29,60,037,42.0*7D
$GAGSV,3,1,9,1,22,164,36.3,12,52,268,34.5,26,16,057,39.6,31,64,213,37.0*64
$GAGSV,3,2,9,1,22,164,35.8,7,06,054,26.7,12,52,268,32.2,26,16,057,28.6*59
$GAGSV,3,3,9,31,64,213,33.1*7E
$GPRMC,174755.00,A,3724.921497,N,12205.008808,W,000.6,094.3,150819,,,A*4B
$GPGGA,174756.00,3724.921910,N,12205.008670,W,1,30,0.49,-14.88,M,0.0,M,0.0,0000*7D
$GPGSV,3,1,10,2,56,042,39.2,5,45,128,45.2,6,11,048,37.9,12,69,152,42.6*44
$GPGSV,3,2,10,24,08,199,29.2,25,64,302,40.6,29,38,299,41.1,31,13,313,41.8*73
$GPGSV,3,3,10,6,11,048,37.7,25,64,302,35.3*40
$GLGSV,2,1,7,11,59,263,39.4,5,22,066,44.1,6,16,125,37.4,12,27,324,36.7*56
$GLGSV,2,2,7,20,24,048,33.8,21,56,339,39.8,22,23,271,40.4*72
$QZGSV,1,1,1,194,12,310,36.8*4A
$BDGSV,1,1,3,20,30,096,42.8,26,34,291,40.7,29,60,037,43.2*73
$GAGSV,3,1,9,1,22,164,35.0,12,52,268,33.6,26,16,057,40.5,31,64,213,37.7*6A
$GAGSV,3,2,9,1,22,164,33.4,7,06,054,27.8,12,52,268,32.2,26,16,057,30.0*52
$GAGSV,3,3,9,31,64,213,32.8*76
$GPRMC,174756.00,A,3724.921910,N,12205.008670,W,000.6,045.7,150819,,,A*43
$GPGGA,174757.00,3724.922434,N,12205.007945,W,1,30,0.49,-14.52,M,0.0,M,0.0,0000*75
$GPGSV,3,1,10,2,56,042,38.4,5,45,128,43.4,6,11,048,40.8,12,68,152,43.1*45
$GPGSV,3,2,10,24,08,199,30.8,25,64,302,40.1,29,38,299,41.1,31,13,313,38.8*78
$GPGSV,3,3,10,6,11,048,40.2,25,64,302,36.8*4D
$GLGSV,2,1,7,11,59,263,42.0,5,22,066,43.7,6,16,125,33.7,12,27,324,37.1*5F
$GLGSV,2,2,7,20,24,048,35.6,21,56,339,40.2,22,23,271,40.2*78
$QZGSV,1,1,1,194,12,310,36.5*47
$BDGSV,1,1,3,20,30,096,41.0,26,34,291,40.3,29,60,037,42.5*7A
$GAGSV,3,1,9,1,22,164,32.7,12,52,268,33.6,26,16,057,42.2,31,64,213,37.7*6F
$GAGSV,3,2,9,1,22,164,28.1,7,06,054,30.4,12,52,268,31.4,26,16,057,31.1*52
$GAGSV,3,3,9,31,64,213,33.1*7E
$GPRMC,174757.00,A,3724.922434,N,12205.007945,W,000.6,358.2,150819,,,A*46
$GPGGA,174758.00,3724.922941,N,12205.007550,W,1,31,0.47,-13.50,M,0.0,M,0.0,0000*77
$GPGSV,3,1,11,2,56,042,36.3,5,45,128,44.0,6,11,048,40.4,12,68,152,42.1*43
$GPGSV,3,2,11,24,08,199,34.4,25,64,302,38.3,29,38,299,41.2,31,13,313,39.3*75
$GPGSV,3,3,11,6,11,048,41.2,24,08,199,31.5,25,64,302,38.0*6D
$GLGSV,2,1,7,11,59,263,42.8,5,22,066,44.3,6,16,125,29.0,12,27,324,39.7*50
$GLGSV,2,2,7,20,24,048,33.8,21,56,339,40.6,22,23,271,37.7*71
$QZGSV,1,1,1,194,12,310,34.0*40
$BDGSV,1,1,3,20,30,096,38.0,26,34,291,39.6,29,60,037,42.0*7A
$GAGSV,3,1,9,1,22,164,31.9,12,52,268,34.9,26,16,057,42.4,31,64,213,36.2*68
$GAGSV,3,2,9,1,22,164,25.1,7,06,054,31.0,12,52,268,30.7,26,16,057,32.3*59
$GAGSV,3,3,9,31,64,213,35.0*79
$GPRMC,174758.00,A,3724.922941,N,12205.007550,W,000.7,355.0,150819,,,A*40
$GPGGA,174759.00,3724.922657,N,12205.007592,W,1,31,0.47,-13.97,M,0.0,M,0.0,0000*7B
$GPGSV,3,1,11,2,56,042,36.8,5,45,128,43.7,6,11,048,38.7,12,68,152,42.0*45
$GPGSV,3,2,11,24,08,199,35.2,25,64,302,37.9,29,38,299,42.2,31,13,313,40.1*78
$GPGSV,3,3,11,6,11,048,43.0,24,08,199,32.0,25,64,302,38.8*63
$GLGSV,2,1,7,11,59,263,42.9,5,22,066,45.2,6,16,125,26.9,12,27,324,40.2*5C
$GLGSV,2,2,7,20,24,048,35.6,21,56,339,39.8,22,23,271,38.9*78
$QZGSV,1,1,1,194,12,310,32.8*4E
$BDGSV,1,1,3,20,30,096,38.1,26,34,291,39.9,29,60,037,42.0*74
$GAGSV,3,1,9,1,22,164,31.3,12,52,268,34.6,26,16,057,43.4,31,64,213,35.5*68
$GAGSV,3,2,9,1,22,164,23.9,7,06,054,30.3,12,52,268,31.1,26,16,057,33.3*53
$GAGSV,3,3,9,31,64,213,35.3*7A
$GPRMC,174759.00,A,3724.922657,N,12205.007592,W,000.8,005.3,150819,,,A*4D
$GPGGA,174800.00,3724.923632,N,12205.008462,W,1,31,0.47,-11.82,M,0.0,M,0.0,0000*7D
$GPGSV,3,1,11,2,56,042,37.6,5,45,128,43.9,6,11,048,37.2,12,68,152,42.7*49
$GPGSV,3,2,11,24,08,199,33.7,25,64,302,37.5,29,38,299,42.4,31,13,313,40.5*75
$GPGSV,3,3,11,6,11,048,43.5,24,08,199,31.3,25,64,302,38.0*6E
$GLGSV,2,1,7,11,59,263,42.3,5,22,066,43.5,6,16,125,26.4,12,27,324,39.5*53
$GLGSV,2,2,7,20,24,048,35.3,21,56,339,38.7,22,23,271,38.8*72
$QZGSV,1,1,1,194,12,310,33.0*47
$BDGSV,1,1,3,20,30,096,40.1,26,34,291,39.7,29,60,037,42.6*73
$GAGSV,3,1,9,1,22,164,30.4,12,52,268,33.5,26,16,057,42.0,31,64,213,35.9*63
$GAGSV,3,2,9,1,22,164,23.8,7,06,054,30.8,12,52,268,31.3,26,16,057,34.7*58
$GAGSV,3,3,9,31,64,213,35.0*79
$GPRMC,174800.00,A,3724.923632,N,12205.008462,W,000.4,,150819,,,A*69
$GPGGA,174801.00,3724.921609,N,12205.008884,W,1,30,0.49,-17.38,M,0.0,M,0.0,0000*7A
$GPGSV,3,1,10,2,56,042,38.0,5,45,128,43.5,6,11,048,35.8,12,68,152,43.0*43
$GPGSV,3,2,10,24,08,199,31.8,25,64,302,40.2,29,38,299,41.1,31,13,313,39.4*77
$GPGSV,3,3,10,6,11,048,42.9,25,64,302,37.1*4C
$GLGSV,2,1,7,11,59,263,41.8,5,22,066,43.3,6,16,125,32.8,12,27,324,36.8*56
$GLGSV,2,2,7,20,24,048,34.7,21,56,339,39.2,22,23,271,40.5*71
$QZGSV,1,1,1,194,12,310,33.4*43
$BDGSV,1,1,3,20,30,096,42.7,26,34,291,40.6,29,60,037,43.3*7C
$GAGSV,3,1,9,1,22,164,32.1,12,52,268,34.1,26,16,057,41.5,31,64,213,37.5*6F
$GAGSV,3,2,9,1,22,164,24.3,7,06,054,30.8,12,52,268,32.1,26,16,057,34.9*5B
$GAGSV,3,3,9,31,64,213,33.7*78
$GPRMC,174801.00,A,3724.921609,N,12205.008884,W,000.5,099.8,150819,,,A*41
$GPGGA,174802.00,3724.922960,N,12205.007582,W,1,30,0.49,-14.44,M,0.0,M,0.0,0000*76
$GPGSV,3,1,10,2,56,042,39.2,5,45,128,46.3,6,11,048,37.3,12,68,152,42.7*4C
$GPGSV,3,2,10,24,08,199,31.0,25,64,302,39.5,29,38,299,42.3,31,13,313,42.7*78
$GPGSV,3,3,10,6,11,048,40.2,25,64,302,35.7*41
$GLGSV,2,1,7,11,59,263,38.9,5,22,066,44.5,6,16,125,37.2,12,27,324,37.8*56
$GLGSV,2,2,7,20,24,048,33.6,21,56,339,38.7,22,23,271,38.8*71
$QZGSV,1,1,1,194,12,310,37.6*45
$BDGSV,1,1,3,20,30,096,42.0,26,34,291,41.8,29,60,037,43.8*7F
$GAGSV,3,1,9,1,22,164,36.4,12,52,268,34.2,26,16,057,40.3,31,64,213,37.1*6E
$GAGSV,3,2,9,1,22,164,34.6,7,06,054,27.6,12,52,268,31.9,26,16,057,33.6*54
$GAGSV,3,3,9,31,64,213,32.3*7D
$GPRMC,174802.00,A,3724.922960,N,12205.007582,W,000.5,112.2,150819,,,A*4D
$GPGGA,174803.00,3724.923535,N,12205.007828,W,1,30,0.49,-13.36,M,0.0,M,0.0,0000*75
$GPGSV,3,1,10,2,56,042,36.4,5,45,128,45.1,6,11,048,36.7,12,68,152,40.0*44
$GPGSV,3,2,10,24,08,199,30.2,25,64,302,41.0,29,38,299,41.8,31,13,313,43.1*7E
$GPGSV,3,3,10,6,11,048,40.2,25,64,302,34.6*41
$GLGSV,2,1,7,11,59,263,39.0,5,22,066,44.2,6,16,125,35.9,12,27,324,38.0*57
$GLGSV,2,2,7,20,24,048,34.4,21,56,340,40.3,22,23,271,39.5*7D
$QZGSV,1,1,1,194,12,310,36.3*41
$BDGSV,1,1,3,20,30,096,41.8,26,34,291,41.4,29,60,037,43.0*70
$GAGSV,3,1,9,1,22,164,38.6,12,52,268,34.5,26,16,057,40.7,31,64,213,38.0*6F
$GAGSV,3,2,9,1,22,164,35.1,7,06,054,26.4,12,52,268,32.4,26,16,057,33.1*58
$GAGSV,3,3,9,31,64,213,32.7*79
$GPRMC,174803.00,A,3724.923535,N,12205.007828,W,000.3,,150819,,,A*64
$GPGGA,174804.00,3724.923969,N,12205.008187,W,1,31,0.47,-13.12,M,0.0,M,0.0,0000*7D
$GPGSV,3,1,11,2,56,042,37.7,5,45,128,43.0,6,11,048,37.9,12,68,152,42.1*4C
$GPGSV,3,2,11,24,08,199,35.5,25,64,302,41.4,29,38,299,38.9,31,13,313,39.2*78
$GPGSV,3,3,11,6,11,048,43.9,24,08,199,26.9,25,64,302,35.9*6A
$GLGSV,2,1,7,11,59,263,41.6,5,22,066,42.5,6,16,125,32.7,12,27,324,34.5*5F
$GLGSV,2,2,7,20,24,048,37.1,21,56,340,42.2,22,23,271,38.8*74
$QZGSV,1,1,1,194,12,310,34.4*44
$BDGSV,1,1,3,20,30,096,39.1,26,34,291,40.0,29,60,037,42.1*73
$GAGSV,3,1,9,1,22,164,34.4,12,52,268,32.8,26,16,057,41.8,31,64,213,37.2*69
$GAGSV,3,2,9,1,22,164,30.7,7,06,054,29.6,12,52,268,32.4,26,16,057,36.7*55
$GAGSV,3,3,9,31,64,213,33.3*7C
$GPRMC,174804.00,A,3724.923969,N,12205.008187,W,000.4,,150819,,,A*62
$GPGGA,174805.00,3724.923041,N,12205.008097,W,1,31,0.47,-14.91,M,0.0,M,0.0,0000*73
$GPGSV,3,1,11,2,56,042,35.9,5,45,128,42.9,6,11,048,37.5,12,68,152,42.3*46
$GPGSV,3,2,11,24,08,199,34.8,25,64,302,39.8,29,38,299,39.9,31,13,313,39.8*7C
$GPGSV,3,3,11,6,11,048,43.5,24,08,199,31.6,25,64,302,37.0*64
$GLGSV,2,1,7,11,59,263,43.0,5,22,066,42.2,6,16,125,28.6,12,27,324,37.9*59
$GLGSV,2,2,7,20,24,048,35.0,21,56,340,41.6,22,23,271,38.2*7A
$QZGSV,1,1,1,194,12,310,33.5*42
$BDGSV,1,1,3,20,30,096,36.7,26,34,291,39.8,29,60,037,42.1*7C
$GAGSV,3,1,9,1,22,164,34.6,12,52,268,32.3,26,16,057,41.7,31,64,213,36.9*65
$GAGSV,3,2,9,1,22,164,27.6,7,06,054,29.8,12,52,268,31.0,26,16,057,36.2*5E
$GAGSV,3,3,9,31,64,213,34.2*7A
$GPRMC,174805.00,A,3724.923041,N,12205.008097,W,000.7,007.9,150819,,,A*43
$GPGGA,174806.00,3724.923636,N,12205.007879,W,1,31,0.47,-14.93,M,0.0,M,0.0,0000*73
$GPGSV,3,1,11,2,56,042,36.8,5,45,128,43.3,6,11,048,36.1,12,68,152,41.9*43
$GPGSV,3,2,11,24,08,199,33.1,25,64,302,41.2,29,38,299,39.5,31,13,313,38.8*7A
$GPGSV,3,3,11,6,11,048,42.7,24,08,199,29.5,25,64,302,36.7*6B
$GLGSV,2,1,7,11,59,263,40.9,5,22,066,44.3,6,16,125,32.8,12,27,324,35.1*5B
$GLGSV,2,2,7,20,24,048,34.4,21,56,340,42.5,22,23,271,39.0*7C
$QZGSV,1,1,1,194,12,310,34.9*49
$BDGSV,1,1,3,20,30,096,38.3,26,34,291,39.2,29,60,037,42.7*7A
$GAGSV,3,1,9,1,22,164,33.1,12,52,268,34.2,26,16,057,39.8,31,64,213,37.4*6E
$GAGSV,3,2,9,1,22,164,27.0,7,06,054,28.7,12,52,268,32.4,26,16,057,36.7*54
$GAGSV,3,3,9,31,64,213,33.1*7E
$GPRMC,174806.00,A,3724.923636,N,12205.007879,W,000.5,,150819,,,A*63
$GPGGA,174807.00,3724.923251,N,12205.007306,W,1,31,0.47,-14.29,M,0.0,M,0.0,0000*75
$GPGSV,3,1,11,2,56,042,37.7,5,45,128,44.5,6,11,048,36.5,12,68,152,38.5*4A
$GPGSV,3,2,11,24,08,199,35.7,25,64,302,41.1,29,38,299,42.3,31,13,313,42.3*75
$GPGSV,3,3,11,6,11,048,40.0,24,08,199,30.5,25,64,302,34.4*67
$GLGSV,2,1,7,11,59,263,38.6,5,22,066,43.8,6,16,125,36.9,12,27,324,38.6*58
$GLGSV,2,2,7,20,24,048,32.5,21,56,340,41.4,22,23,271,38.8*70
$QZGSV,1,1,1,194,12,310,36.3*41
$BDGSV,1,1,3,20,30,096,42.3,26,34,291,40.3,29,60,037,42.6*79
$GAGSV,3,1,9,1,22,164,37.2,12,52,268,35.5,26,16,057,37.9,31,64,213,38.5*6E
$GAGSV,3,2,9,1,22,164,37.3,7,06,054,26.9,12,52,268,32.5,26,16,057,33.6*53
$GAGSV,3,3,9,31,64,213,33.6*79
$GPRMC,174807.00,A,3724.923251,N,12205.007306,W,000.7,177.3,150819,,,A*4A
$GPGGA,174808.00,3724.922641,N,12205.007270,W,1,31,0.47,-15.53,M,0.0,M,0.0,0000*72
$GPGSV,3,1,11,2,56,042,37.7,5,45,128,46.8,6,11,048,37.1,12,68,152,42.4*4C
$GPGSV,3,2,11,24,08,199,40.0,25,64,302,39.6,29,38,299,42.2,31,13,313,37.9*71
$GPGSV,3,3,11,6,11,048,39.6,24,08,199,38.7,25,64,302,34.9*68
$GLGSV,2,1,7,11,59,263,42.5,5,22,066,40.7,6,16,125,35.0,12,27,324,36.8*50
$GLGSV,2,2,7,20,24,048,30.8,21,56,340,39.6,22,23,271,35.1*76
$QZGSV,1,1,1,194,12,310,33.2*45
$BDGSV,1,1,3,20,30,096,41.6,26,34,291,39.2,29,60,037,42.6*70
$GAGSV,3,1,9,1,22,164,34.7,12,52,268,35.1,26,16,057,36.4,31,64,213,35.7*6F
$GAGSV,3,2,9,1,22,164,36.5,7,06,053,25.6,12,52,268,29.2,26,16,057,34.9*5A
$GAGSV,3,3,9,31,64,213,36.3*79
$GPRMC,174808.00,A,3724.922641,N,12205.007270,W,000.9,206.8,150819,,,A*41
$GPGGA,174809.00,3724.922669,N,12205.008052,W,1,31,0.47,-14.11,M,0.0,M,0.0,0000*73
$GPGSV,3,1,11,2,56,042,37.0,5,45,128,46.1,6,11,048,37.5,12,68,153,43.3*41
$GPGSV,3,2,11,24,08,199,39.2,25,64,302,40.6,29,38,299,41.4,31,13,312,33.4*7E
$GPGSV,3,3,11,6,11,048,38.1,24,08,199,38.1,25,64,302,35.9*69
$GLGSV,2,1,7,11,59,263,43.0,5,22,066,42.1,6,16,125,32.2,12,27,324,36.2*5F
$GLGSV,2,2,7,20,24,048,31.9,21,56,340,39.7,22,23,271,34.1*76
$QZGSV,1,1,1,194,12,310,29.4*48
$BDGSV,1,1,3,20,30,096,41.1,26,34,291,36.0,29,60,037,41.0*7F
$GAGSV,3,1,9,1,22,164,31.7,12,52,268,35.4,26,16,057,39.1,31,64,213,35.3*61
$GAGSV,3,2,9,1,22,164,33.4,7,06,053,25.4,12,52,268,30.4,26,16,057,33.4*58
$GAGSV,3,3,9,31,64,213,37.3*78
$GPRMC,174809.00,A,3724.922669,N,12205.008052,W,000.8,195.2,150819,,,A*45
$GPGGA,174810.00,3724.921978,N,12205.007676,W,1,31,0.47,-15.15,M,0.0,M,0.0,0000*7D
$GPGSV,3,1,11,2,56,042,38.1,5,45,128,45.9,6,11,048,37.6,12,68,153,43.8*4C
$GPGSV,3,2,11,24,08,199,38.6,25,64,302,39.7,29,38,299,40.9,31,13,312,32.3*7E
$GPGSV,3,3,11,6,11,048,37.5,24,08,199,38.0,25,64,302,35.7*6D
$GLGSV,2,1,7,11,59,263,43.2,5,22,066,41.0,6,16,125,33.2,12,27,324,36.4*58
$GLGSV,2,2,7,20,24,048,31.3,21,56,340,39.5,22,23,271,34.2*7D
$QZGSV,1,1,1,194,12,310,28.0*4D
$BDGSV,1,1,3,20,30,096,40.9,26,34,291,35.0,29,60,037,41.2*77
$GAGSV,3,1,9,1,22,164,27.4,12,52,268,34.9,26,16,057,38.6,31,64,213,34.3*6E
$GAGSV,3,2,9,1,22,164,32.5,7,06,053,25.1,12,52,268,29.9,26,16,057,33.1*5D
$GAGSV,3,3,9,31,64,213,37.1*7A
$GPRMC,174810.00,A,3724.921978,N,12205.007676,W,000.9,179.7,150819,,,A*48
$GPGGA,174811.00,3724.921686,N,12205.007538,W,1,31,0.47,-15.61,M,0.0,M,0.0,0000*78
$GPGSV,3,1,11,2,56,042,38.8,5,45,128,46.2,6,11,048,37.8,12,68,153,43.5*4E
$GPGSV,3,2,11,24,08,199,38.3,25,64,302,39.6,29,38,299,42.7,31,13,312,34.9*7A
$GPGSV,3,3,11,6,11,048,37.2,24,08,199,38.4,25,64,302,35.5*6C
$GLGSV,2,1,7,11,59,263,42.5,5,22,066,40.4,6,16,125,35.0,12,27,324,37.1*5B
$GLGSV,2,2,7,20,24,048,29.3,21,56,340,39.0,22,23,271,31.7*71
$QZGSV,1,1,1,194,12,310,28.1*4C
$BDGSV,1,1,3,20,30,096,40.2,26,34,291,38.0,29,60,037,41.7*74
$GAGSV,3,1,9,1,22,164,25.5,12,52,268,34.6,26,16,057,37.5,31,64,213,35.3*6F
$GAGSV,3,2,9,1,22,164,34.1,7,06,053,26.8,12,52,268,28.6,26,16,057,33.1*5B
$GAGSV,3,3,9,31,64,213,37.3*78
$GPRMC,174811.00,A,3724.921686,N,12205.007538,W,000.7,165.5,150819,,,A*4F
$GPGGA,174812.00,3724.922530,N,12205.008650,W,1,31,0.47,-16.14,M,0.0,M,0.0,0000*75
$GPGSV,3,1,11,2,56,042,38.9,5,45,128,46.7,6,11,048,34.2,12,68,153,41.2*46
$GPGSV,3,2,11,24,08,199,38.3,25,64,302,38.8,29,38,299,41.8,31,13,312,37.7*74
$GPGSV,3,3,11,6,11,048,36.6,24,08,199,35.7,25,64,302,35.1*63
$GLGSV,2,1,7,11,59,263,41.0,5,22,066,42.5,6,16,125,36.0,12,27,324,40.2*5E
$GLGSV,2,2,7,20,24,048,26.6,21,56,340,38.5,22,23,271,36.2*7D
$QZGSV,1,1,1,194,12,310,34.7*47
$BDGSV,1,1,3,20,30,096,43.6,26,34,291,38.2,29,60,037,42.0*75
$GAGSV,3,1,9,1,22,164,26.7,12,52,268,36.0,26,16,057,35.5,31,64,213,38.2*64
$GAGSV,3,2,9,1,22,164,37.3,7,06,053,25.7,12,52,268,29.7,26,16,057,32.3*55
$GAGSV,3,3,9,31,64,213,34.9*71
$GPRMC,174812.00,A,3724.922530,N,12205.008650,W,000.5,042.7,150819,,,A*47
$GPGGA,174813.00,3724.922733,N,12205.007464,W,1,31,0.47,-13.03,M,0.0,M,0.0,0000*7C
$GPGSV,3,1,11,2,56,042,38.6,5,45,128,46.5,6,11,048,32.3,12,68,153,42.2*4F
$GPGSV,3,2,11,24,08,199,34.2,25,64,302,37.8,29,38,299,41.6,31,13,312,42.4*79
$GPGSV,3,3,11,6,11,048,35.4,24,08,199,31.3,25,64,302,35.7*64
$GLGSV,2,1,7,11,59,263,38.8,5,22,066,45.1,6,16,125,36.6,12,27,324,39.4*55
$GLGSV,2,2,7,20,24,048,28.2,21,56,340,38.9,22,23,271,38.7*70
$QZGSV,1,1,1,194,12,310,38.5*49
$BDGSV,1,1,3,20,30,096,44.1,26,34,291,40.0,29,60,037,43.1*78
$GAGSV,3,1,9,1,22,164,36.6,12,52,268,34.8,26,16,057,38.0,31,64,213,37.4*6F
$GAGSV,3,2,9,1,22,164,35.6,7,06,053,26.5,12,52,268,31.6,26,16,057,30.7*5D
$GAGSV,3,3,9,31,64,213,32.9*77
$GPRMC,174813.00,A,3724.922733,N,12205.007464,W,000.6,027.9,150819,,,A*43
$GPGGA,174814.00,3724.922391,N,12205.007750,W,1,31,0.47,-14.95,M,0.0,M,0.0,0000*7B
$GPGSV,3,1,11,2,56,042,41.2,5,45,127,46.1,6,11,048,33.0,12,68,153,43.6*49
$GPGSV,3,2,11,24,08,199,30.9,25,64,302,38.8,29,38,299,42.1,31,13,312,41.5*7F
$GPGSV,3,3,11,6,11,048,36.8,24,08,199,25.7,25,64,302,35.8*65
$GLGSV,2,1,7,11,59,263,39.8,5,23,066,45.6,6,16,125,36.2,12,27,324,38.3*50
$GLGSV,2,2,7,20,24,048,29.1,21,56,340,36.8,22,23,272,40.8*7E
$QZGSV,1,1,1,194,12,310,37.4*47
$BDGSV,1,1,3,20,30,096,44.3,26,34,291,40.9,29,60,037,43.0*72
$GAGSV,3,1,9,1,22,164,36.0,12,52,268,32.1,26,16,057,39.2,31,64,213,37.8*69
$GAGSV,3,2,9,1,22,164,34.7,7,06,053,27.3,12,52,268,31.6,26,16,057,29.9*5C
$GAGSV,3,3,9,31,64,213,32.0*7E
$GPRMC,174814.00,A,3724.922391,N,12205.007750,W,000.5,,150819,,,A*6D
$GPGGA,174815.00,3724.923567,N,12205.008398,W,1,30,0.49,-13.05,M,0.0,M,0.0,0000*7A
$GPGSV,3,1,10,2,56,042,42.1,5,45,127,45.1,6,11,048,32.2,12,68,153,44.6*4F
$GPGSV,3,2,10,24,08,199,28.3,25,64,302,38.3,29,38,299,43.6,31,13,312,42.1*77
$GPGSV,3,3,10,6,11,048,35.9,25,64,302,36.5*49
$GLGSV,2,1,7,11,59,263,39.4,5,23,066,45.7,6,16,125,36.9,12,27,324,37.8*52
$GLGSV,2,2,7,20,24,048,28.8,21,56,340,37.2,22,23,272,40.0*75
$QZGSV,1,1,1,194,12,310,36.4*46
$BDGSV,1,1,3,20,30,096,45.3,26,34,291,40.9,29,60,037,42.8*7A
$GAGSV,3,1,9,1,22,164,36.2,12,52,268,32.9,26,16,057,39.5,31,64,213,36.8*65
$GAGSV,3,2,9,1,22,164,34.6,7,06,053,26.7,12,52,268,31.5,26,16,057,30.0*5A
$GAGSV,3,3,9,31,64,213,31.8*75
$GPRMC,174815.00,A,3724.923567,N,12205.008398,W,000.4,,150819,,,A*6C
$GPGGA,174816.00,3724.923523,N,12205.007049,W,1,30,0.49,-13.38,M,0.0,M,0.0,0000*77
$GPGSV,3,1,10,2,56,042,40.9,5,45,127,45.5,6,11,048,33.8,12,68,153,43.8*43
$GPGSV,3,2,10,24,08,199,27.9,25,64,302,38.9,29,38,299,42.4,31,13,312,41.9*70
$GPGSV,3,3,10,6,11,048,36.0,25,64,302,36.1*47
$GLGSV,2,1,7,11,59,263,39.9,5,23,066,45.5,6,16,125,35.9,12,27,324,37.3*55
$GLGSV,2,2,7,20,24,048,29.8,21,56,340,37.6,22,23,272,39.8*76
$QZGSV,1,1,1,194,12,310,35.9*48
$BDGSV,1,1,3,20,30,096,45.1,26,34,291,41.7,29,60,037,42.6*79
$GAGSV,3,1,9,1,22,164,37.6,12,52,268,33.2,26,16,057,38.5,31,64,213,36.9*6A
$GAGSV,3,2,9,1,22,164,33.6,7,06,053,26.7,12,52,268,31.8,26,16,057,30.6*56
$GAGSV,3,3,9,31,64,213,31.6*7B
$GPRMC,174816.00,A,3724.923523,N,12205.007049,W,000.7,068.5,150819,,,A*49
$GPGGA,174817.00,3724.922819,N,12205.006875,W,1,31,0.47,-13.27,M,0.0,M,0.0,0000*74
$GPGSV,3,1,11,2,56,042,41.1,5,45,127,45.7,6,11,048,34.6,12,68,153,44.2*4D
$GPGSV,3,2,11,24,08,199,29.5,25,64,302,39.6,29,38,299,41.3,31,13,312,39.1*7E
$GPGSV,3,3,11,6,11,048,38.6,24,08,199,18.9,25,64,302,36.9*67
$GLGSV,2,1,7,11,59,263,40.3,5,23,066,45.1,6,16,125,33.5,12,27,324,36.7*5A
$GLGSV,2,2,7,20,24,048,30.2,21,56,340,38.0,22,23,272,40.6*7D
$QZGSV,1,1,1,194,12,310,36.5*47
$BDGSV,1,1,3,20,30,096,44.5,26,34,291,40.8,29,60,037,42.8*7C
$GAGSV,3,1,9,1,22,164,34.8,12,52,268,33.5,26,16,057,37.5,31,64,213,37.6*61
$GAGSV,3,2,9,1,22,164,32.2,7,06,053,26.6,12,52,268,31.7,26,16,057,31.4*5E
$GAGSV,3,3,9,31,64,213,31.3*7E
$GPRMC,174817.00,A,3724.922819,N,12205.006875,W,000.6,039.8,150819,,,A*43
$GPGGA,174818.00,3724.923969,N,12205.006696,W,1,31,0.47,-13.07,M,0.0,M,0.0,0000*7D
$GPGSV,3,1,11,2,56,042,38.3,5,45,127,44.3,6,11,048,37.5,12,68,153,41.8*4B
$GPGSV,3,2,11,24,08,199,34.3,25,64,302,38.1,29,38,299,43.3,31,13,312,40.3*7C
$GPGSV,3,3,11,6,11,048,41.0,24,08,199,32.9,25,64,302,37.9*66
$GLGSV,2,1,7,11,59,263,41.9,5,23,066,44.5,6,16,125,30.7,12,27,324,37.4*57
$GLGSV,2,2,7,20,24,048,31.9,21,56,340,38.4,22,23,272,38.7*7D
$QZGSV,1,1,1,194,12,310,33.5*42
$BDGSV,1,1,3,20,30,096,39.5,26,34,291,41.6,29,60,037,41.7*75
$GAGSV,3,1,9,1,22,164,35.1,12,52,268,34.3,26,16,057,38.7,31,64,213,36.0*62
$GAGSV,3,2,9,1,22,164,29.3,7,06,053,28.2,12,52,268,30.5,26,16,057,33.1*5B
$GAGSV,3,3,9,31,64,213,34.6*7E
$GPRMC,174818.00,A,3724.923969,N,12205.006696,W,000.7,295.7,150819,,,A*42
$GPGGA,174819.00,3724.922724,N,12205.008051,W,1,31,0.47,-14.97,M,0.0,M,0.0,0000*77
$GPGSV,3,1,11,2,56,042,39.5,5,45,127,43.0,6,11,048,37.0,12,68,153,41.4*41
$GPGSV,3,2,11,24,08,199,36.3,25,64,302,35.7,29,38,299,44.9,31,13,312,43.2*7A
$GPGSV,3,3,11,6,11,048,35.3,24,08,199,36.3,25,64,302,38.8*66
$GLGSV,2,1,7,11,59,263,41.5,5,23,066,38.0,6,16,125,28.6,12,27,324,39.1*56
$GLGSV,2,2,7,20,24,048,31.8,21,56,340,38.7,22,23,272,40.7*70
$QZGSV,1,1,1,194,12,310,35.8*49
$BDGSV,1,1,3,20,30,096,38.9,26,34,291,43.4,29,60,037,43.4*79
$GAGSV,3,1,9,1,22,164,35.1,12,52,268,33.9,26,16,057,35.5,31,64,213,36.0*60
$GAGSV,3,2,9,1,22,164,31.4,7,06,053,25.5,12,52,268,31.3,26,16,057,29.3*51
$GAGSV,3,3,9,31,64,213,37.5*7E
$GPRMC,174819.00,A,3724.922724,N,12205.008051,W,000.7,252.3,150819,,,A*49
$GPGGA,174820.00,3724.922287,N,12205.007707,W,1,30,0.47,-15.10,M,0.0,M,0.0,0000*75
$GPGSV,3,1,11,2,56,042,40.0,5,45,127,43.9,6,11,048,33.5,12,68,153,44.3*40
$GPGSV,3,2,11,24,08,199,33.8,25,64,302,36.7,29,38,299,42.3,31,13,312,45.5*7A
$GPGSV,3,3,11,6,11,048,31.8,24,08,199,35.2,25,64,302,37.7*6B
$GLGSV,2,1,7,11,59,263,42.2,5,23,066,38.9,6,16,125,34.0,12,27,324,38.3*53
$GLGSV,2,2,7,20,24,048,30.2,21,56,340,40.7,22,23,272,42.5*74
$QZGSV,1,1,1,194,12,310,36.8*4A
$BDGSV,1,1,2,26,34,291,43.2,29,60,037,41.4*5E
$GAGSV,3,1,9,1,22,164,33.7,12,52,268,33.5,26,16,057,33.0,31,64,213,36.0*6F
$GAGSV,3,2,9,1,22,164,33.8,7,06,053,21.0,12,52,268,31.0,26,16,057,24.3*50
$GAGSV,3,3,9,31,64,213,37.8*73
$GPRMC,174820.00,A,3724.922287,N,12205.007707,W,000.8,220.6,150819,,,A*4B
$GPGGA,174821.00,3724.922643,N,12205.007680,W,1,31,0.47,-14.22,M,0.0,M,0.0,0000*77
$GPGSV,3,1,11,2,55,042,38.5,5,45,127,45.6,6,11,048,31.2,12,68,153,44.9*4F
$GPGSV,3,2,11,24,08,199,35.8,25,64,302,38.8,29,38,299,41.2,31,13,312,42.8*75
$GPGSV,3,3,11,6,11,048,33.9,24,08,199,35.2,25,64,302,36.4*6A
$GLGSV,2,1,7,11,59,263,41.5,5,23,066,41.9,6,16,125,32.7,12,27,324,35.9*5F
$GLGSV,2,2,7,20,24,048,29.8,21,56,340,39.7,22,23,272,43.3*7F
$QZGSV,1,1,1,194,12,310,36.4*46
$BDGSV,1,1,3,20,30,096,42.1,26,34,291,41.9,29,60,037,40.4*70
$GAGSV,3,1,9,1,22,164,31.1,12,52,268,33.5,26,16,057,34.5,31,64,213,38.1*66
$GAGSV,3,2,9,1,22,164,31.3,7,06,053,22.7,12,52,268,31.9,26,16,057,26.7*52
$GAGSV,3,3,9,31,64,213,37.8*73
$GPRMC,174821.00,A,3724.922643,N,12205.007680,W,000.8,176.0,150819,,,A*4E
$GPGGA,174822.00,3724.922099,N,12205.007436,W,1,31,0.47,-12.44,M,0.0,M,0.0,0000*7C
$GPGSV,3,1,11,2,55,042,38.5,5,45,127,46.3,6,11,048,34.1,12,68,153,44.9*4F
$GPGSV,3,2,11,24,08,199,37.3,25,64,302,39.6,29,38,299,40.5,31,13,312,35.7*7A
$GPGSV,3,3,11,6,11,048,37.0,24,08,199,37.4,25,64,302,36.0*67
$GLGSV,2,1,7,11,59,263,42.7,5,23,066,41.6,6,16,125,32.9,12,27,324,37.3*57
$GLGSV,2,2,7,20,24,048,31.0,21,56,340,40.3,22,23,272,39.3*79
$QZGSV,1,1,1,194,12,310,33.4*43
$BDGSV,1,1,3,20,30,096,41.2,26,34,291,37.4,29,60,037,40.8*70
$GAGSV,3,1,9,1,22,164,30.2,12,52,268,35.2,26,16,057,38.0,31,64,213,35.1*61
$GAGSV,3,2,9,1,22,164,31.4,7,06,053,26.0,12,52,268,30.6,26,16,057,30.7*5F
$GAGSV,3,3,9,31,64,213,37.8*73
$GPRMC,174822.00,A,3724.922099,N,12205.007436,W,000.6,151.5,150819,,,A*4D
$GPGGA,174823.00,3724.922328,N,12205.007306,W,1,31,0.47,-14.67,M,0.0,M,0.0,0000*77
$GPGSV,3,1,11,2,55,042,38.6,5,45,127,46.9,6,11,048,35.5,12,68,153,42.4*48
$GPGSV,3,2,11,24,08,199,37.7,25,64,302,40.1,29,38,299,41.3,31,13,312,37.0*75
$GPGSV,3,3,11,6,11,048,38.2,24,08,199,37.9,25,64,302,33.9*6B
$GLGSV,2,1,7,11,58,263,42.2,5,23,066,40.8,6,16,125,35.0,12,27,324,35.7*54
$GLGSV,2,2,7,20,24,048,29.2,21,56,340,39.5,22,23,272,35.7*72
$QZGSV,1,1,1,194,12,310,31.6*43
$BDGSV,1,1,3,20,30,096,42.5,26,34,291,38.4,29,60,037,41.9*7B
$GAGSV,3,1,9,1,22,164,26.8,12,52,268,34.5,26,16,057,35.1,31,64,213,36.6*62
$GAGSV,3,2,9,1,22,164,36.1,7,06,053,25.7,12,52,268,28.3,26,16,057,31.6*55
$GAGSV,3,3,9,31,64,213,36.3*79
$GPRMC,174823.00,A,3724.922328,N,12205.007306,W,000.6,116.3,150819,,,A*44
$GPGGA,174824.00,3724.921919,N,12205.007589,W,1,31,0.47,-16.65,M,0.0,M,0.0,0000*7A
$GPGSV,3,1,11,2,55,042,41.2,5,45,127,47.1,6,11,048,34.1,12,68,153,43.2*49
$GPGSV,3,2,11,24,08,199,36.9,25,64,302,38.9,29,38,299,42.0,31,13,312,38.2*70
$GPGSV,3,3,11,6,11,048,35.8,24,08,199,33.7,25,64,302,33.8*67
$GLGSV,2,1,7,11,58,263,40.7,5,23,066,42.2,6,16,125,34.7,12,27,324,38.7*50
$GLGSV,2,2,7,20,24,048,26.0,21,56,340,38.7,22,23,272,37.0*79
$QZGSV,1,1,1,194,12,310,33.1*46
$BDGSV,1,1,3,20,30,096,45.8,26,34,291,39.3,29,60,037,42.1*7C
$GAGSV,3,1,9,1,22,164,29.7,12,52,268,35.7,26,16,057,32.3,31,64,213,37.1*62
$GAGSV,3,2,9,1,22,164,38.1,7,06,053,23.5,12,52,268,29.3,26,16,057,31.0*58
$GAGSV,3,3,9,31,64,213,35.2*7B
$GPRMC,174824.00,A,3724.921919,N,12205.007589,W,000.7,082.1,150819,,,A*46
$GPGGA,174825.00,3724.922412,N,12205.007116,W,1,31,0.47,-13.20,M,0.0,M,0.0,0000*78
$GPGSV,3,1,11,2,55,042,42.1,5,45,127,45.9,6,11,048,36.0,12,68,153,45.0*44
$GPGSV,3,2,11,24,08,199,33.7,25,64,302,37.6,29,38,299,42.9,31,13,312,41.3*7D
$GPGSV,3,3,11,6,11,048,36.6,24,08,199,30.3,25,64,302,36.0*60
$GLGSV,2,1,7,11,58,263,39.4,5,23,066,44.1,6,16,125,35.6,12,27,324,39.3*5D
$GLGSV,2,2,7,20,24,048,25.7,21,56,340,37.7,22,23,272,36.8*7B
$QZGSV,1,1,1,194,12,310,37.3*40
$BDGSV,1,1,3,20,30,096,45.8,26,34,291,40.8,29,60,037,40.8*72
$GAGSV,3,1,9,1,22,164,33.8,12,52,268,35.3,26,16,057,34.1,31,64,213,35.9*6C
$GAGSV,3,2,9,1,22,164,36.0,7,06,053,23.7,12,52,268,31.1,26,16,057,30.5*5A
$GAGSV,3,3,9,31,64,213,33.6*79
$GPRMC,174825.00,A,3724.922412,N,12205.007116,W,000.6,050.0,150819,,,A*4F
$GPGGA,174826.00,3724.922834,N,12205.008248,W,1,30,0.49,-15.77,M,0.0,M,0.0,0000*7F
$GPGSV,3,1,10,2,55,042,42.7,5,45,127,46.1,6,11,048,37.7,12,68,153,44.8*47
$GPGSV,3,2,10,24,08,199,29.8,25,64,302,37.7,29,38,299,43.7,31,13,312,40.5*71
$GPGSV,3,3,10,6,11,048,37.9,25,64,302,36.5*4B
$GLGSV,2,1,7,11,58,263,40.2,5,23,066,43.8,6,16,125,35.1,12,27,324,38.7*59
$GLGSV,2,2,7,20,24,048,26.3,21,56,340,35.6,22,23,272,38.8*71
$QZGSV,1,1,1,194,12,310,36.1*43
$BDGSV,1,1,3,20,30,096,46.0,26,34,291,41.3,29,60,037,41.9*73
$GAGSV,3,1,9,1,22,164,36.0,12,52,268,33.1,26,16,057,34.6,31,64,213,36.4*6C
$GAGSV,3,2,9,1,22,164,34.1,7,06,053,24.4,12,52,268,31.5,26,16,057,30.2*5E
$GAGSV,3,3,9,31,64,213,32.0*7E
$GPRMC,174826.00,A,3724.922834,N,12205.008248,W,000.3,,150819,,,A*6D
$GPGGA,174827.00,3724.924300,N,12205.006912,W,1,30,0.49,-14.23,M,0.0,M,0.0,0000*7E
$GPGSV,3,1,10,2,55,042,41.7,5,45,127,45.4,6,11,048,36.7,12,68,153,44.8*43
$GPGSV,3,2,10,24,08,199,29.2,25,64,302,38.4,29,38,299,43.6,31,13,312,38.0*7C
$GPGSV,3,3,10,6,11,048,37.2,25,64,302,38.5*4E
$GLGSV,2,1,7,11,58,263,38.0,5,23,066,42.2,6,16,125,35.3,12,27,324,38.2*58
$GLGSV,2,2,7,20,24,048,25.2,21,56,340,36.7,22,23,272,37.2*74
$QZGSV,1,1,1,194,12,310,33.8*4F
$BDGSV,1,1,3,20,30,096,46.3,26,34,291,39.2,29,60,037,39.4*7C
$GAGSV,3,1,9,1,22,164,35.5,12,52,268,33.1,26,16,057,32.5,31,64,213,36.3*68
$GAGSV,3,2,9,1,22,164,34.6,7,06,053,23.9,12,52,268,30.9,26,16,057,30.6*5A
$GAGSV,3,3,9,31,64,213,35.0*79
$GPRMC,174827.00,A,3724.924300,N,12205.006912,W,000.1,,150819,,,A*6E
