$GPGGA,174623.00,3724.924179,N,12205.009280,W,7,,0.40,-13.30,M,0.0,M,0.0,0000*7E
$GPRMC,174623.00,A,3724.924179,N,12205.009280,W,000.8,,150819,,,A*6E
$GPGGA,174624.00,3724.924060,N,12205.009159,W,7,,0.40,-13.29,M,0.0,M,0.0,0000*7F
$GPRMC,174624.00,A,3724.924060,N,12205.009159,W,000.4,,150819,,,A*6B
$GPGGA,174625.00,3724.924060,N,12205.009039,W,7,,0.40,-13.28,M,0.0,M,0.0,0000*78
$GPRMC,174625.00,A,3724.924060,N,12205.009039,W,000.3,,150819,,,A*6A
$GPGGA,174626.00,3724.924179,N,12205.009039,W,7,,0.40,-13.34,M,0.0,M,0.0,0000*7F
$GPRMC,174626.00,A,3724.924179,N,12205.009039,W,000.3,,150819,,,A*60
$GPGGA,174627.00,3724.924120,N,12205.009159,W,7,,0.40,-13.10,M,0.0,M,0.0,0000*73
$GPRMC,174627.00,A,3724.924120,N,12205.009159,W,000.2,,150819,,,A*6B
$GPGGA,174628.00,3724.924120,N,12205.009280,W,7,,0.40,-13.11,M,0.0,M,0.0,0000*7A
$GPRMC,174628.00,A,3724.924120,N,12205.009280,W,000.2,,150819,,,A*63
$GPGGA,174629.00,3724.924060,N,12205.009580,W,7,,0.40,-13.16,M,0.0,M,0.0,0000*7E
$GPRMC,174629.00,A,3724.924060,N,12205.009580,W,000.4,,150819,,,A*66
$GPGGA,174630.00,3724.924060,N,12205.009819,W,7,,0.40,-13.17,M,0.0,M,0.0,0000*7A
$GPRMC,174630.00,A,3724.924060,N,12205.009819,W,000.5,,150819,,,A*62
$GPGGA,174631.00,3724.923999,N,12205.010000,W,7,,0.40,-13.13,M,0.0,M,0.0,0000*7F
$GPRMC,174631.00,A,3724.923999,N,12205.010000,W,000.5,,150819,,,A*63
$GPGGA,174632.00,3724.923880,N,12205.010179,W,7,,0.40,-13.11,M,0.0,M,0.0,0000*78
$GPRMC,174632.00,A,3724.923880,N,12205.010179,W,000.6,,150819,,,A*65
$GPGGA,174633.00,3724.923699,N,12205.010300,W,7,,0.40,-13.10,M,0.0,M,0.0,0000*72
$GPRMC,174633.00,A,3724.923699,N,12205.010300,W,000.6,,150819,,,A*6E
$GPGGA,174634.00,3724.923519,N,12205.010359,W,7,,0.40,-13.13,M,0.0,M,0.0,0000*71
$GPRMC,174634.00,A,3724.923519,N,12205.010359,W,000.6,,150819,,,A*6E
$GPGGA,174635.00,3724.923339,N,12205.010240,W,7,,0.40,-13.17,M,0.0,M,0.0,0000*79
$GPRMC,174635.00,A,3724.923339,N,12205.010240,W,000.6,,150819,,,A*62
$GPGGA,174636.00,3724.923280,N,12205.010059,W,7,,0.40,-13.14,M,0.0,M,0.0,0000*70
$GPRMC,174636.00,A,3724.923280,N,12205.010059,W,000.6,,150819,,,A*68
$GPGGA,174637.00,3724.923220,N,12205.009819,W,7,,0.40,-13.15,M,0.0,M,0.0,0000*7E
$GPRMC,174637.00,A,3724.923220,N,12205.009819,W,000.6,,150819,,,A*67
$GPGGA,174638.00,3724.923280,N,12205.009699,W,7,,0.40,-13.12,M,0.0,M,0.0,0000*7A
$GPRMC,174638.00,A,3724.923280,N,12205.009699,W,000.6,,150819,,,A*64
$GPGGA,174639.00,3724.923280,N,12205.009520,W,7,,0.40,-13.16,M,0.0,M,0.0,0000*7E
$GPRMC,174639.00,A,3724.923280,N,12205.009520,W,000.6,,150819,,,A*64
$GPGGA,174640.00,3724.923400,N,12205.009280,W,7,,0.40,-13.16,M,0.0,M,0.0,0000*73
$GPRMC,174640.00,A,3724.923400,N,12205.009280,W,000.6,,150819,,,A*69
$GPGGA,174641.00,3724.923519,N,12205.009220,W,7,,0.40,-13.14,M,0.0,M,0.0,0000*73
$GPRMC,174641.00,A,3724.923519,N,12205.009220,W,000.6,,150819,,,A*6B
$GPGGA,174642.00,3724.923699,N,12205.009220,W,7,,0.40,-13.14,M,0.0,M,0.0,0000*7B
$GPRMC,174642.00,A,3724.923699,N,12205.009220,W,000.6,,150819,,,A*63
$GPGGA,174643.00,3724.923760,N,12205.009340,W,7,,0.40,-13.17,M,0.0,M,0.0,0000*79
$GPRMC,174643.00,A,3724.923760,N,12205.009340,W,000.5,,150819,,,A*61
$GPGGA,174644.00,3724.923699,N,12205.009459,W,7,,0.40,-13.16,M,0.0,M,0.0,0000*77
$GPRMC,174644.00,A,3724.923699,N,12205.009459,W,000.4,,150819,,,A*6F
$GPGGA,174645.00,3724.923699,N,12205.009640,W,7,,0.40,-13.17,M,0.0,M,0.0,0000*7D
$GPRMC,174645.00,A,3724.923699,N,12205.009640,W,000.5,,150819,,,A*65
$GPGGA,174646.00,3724.923760,N,12205.009819,W,7,,0.40,-13.18,M,0.0,M,0.0,0000*74
$GPRMC,174646.00,A,3724.923760,N,12205.009819,W,000.5,,150819,,,A*63
$GPGGA,174647.00,3724.923819,N,12205.009819,W,7,,0.40,-13.17,M,0.0,M,0.0,0000*7B
$GPRMC,174647.00,A,3724.923819,N,12205.009819,W,000.4,,150819,,,A*62
$GPGGA,174648.00,3724.923880,N,12205.009640,W,7,,0.40,-13.15,M,0.0,M,0.0,0000*74
$GPRMC,174648.00,A,3724.923880,N,12205.009640,W,000.6,,150819,,,A*6D
$GPGGA,174649.00,3724.923699,N,12205.009459,W,7,,0.40,-13.28,M,0.0,M,0.0,0000*77
$GPRMC,174649.00,A,3724.923699,N,12205.009459,W,000.7,,150819,,,A*61
$GPGGA,174650.00,3724.923699,N,12205.009220,W,7,,0.40,-13.26,M,0.0,M,0.0,0000*79
$GPRMC,174650.00,A,3724.923699,N,12205.009220,W,000.7,,150819,,,A*61
$GPGGA,174651.00,3724.923639,N,12205.008920,W,7,,0.40,-13.24,M,0.0,M,0.0,0000*7A
$GPRMC,174651.00,A,3724.923639,N,12205.008920,W,000.7,,150819,,,A*60
$GPGGA,174652.00,3724.923519,N,12205.008799,W,7,,0.40,-13.25,M,0.0,M,0.0,0000*75
$GPRMC,174652.00,A,3724.923519,N,12205.008799,W,000.6,,150819,,,A*6F
$GPGGA,174653.00,3724.923400,N,12205.008920,W,7,,0.40,-13.27,M,0.0,M,0.0,0000*73
$GPRMC,174653.00,A,3724.923400,N,12205.008920,W,000.6,,150819,,,A*6B
$GPGGA,174654.00,3724.923220,N,12205.008920,W,7,,0.40,-13.28,M,0.0,M,0.0,0000*7F
$GPRMC,174654.00,A,3724.923220,N,12205.008920,W,000.6,,150819,,,A*68
$GPGGA,174655.00,3724.923100,N,12205.008799,W,7,,0.40,-13.31,M,0.0,M,0.0,0000*7B
$GPRMC,174655.00,A,3724.923100,N,12205.008799,W,000.6,,150819,,,A*64
$GPGGA,174656.00,3724.923159,N,12205.008620,W,7,,0.40,-13.30,M,0.0,M,0.0,0000*76
$GPRMC,174656.00,A,3724.923159,N,12205.008620,W,000.6,,150819,,,A*68
$GPGGA,174657.00,3724.923220,N,12205.008560,W,7,,0.40,-13.30,M,0.0,M,0.0,0000*7D
$GPRMC,174657.00,A,3724.923220,N,12205.008560,W,000.5,,150819,,,A*60
$GPGGA,174658.00,3724.923339,N,12205.008439,W,7,,0.40,-13.33,M,0.0,M,0.0,0000*75
$GPRMC,174658.00,A,3724.923339,N,12205.008439,W,000.5,,150819,,,A*6B
$GPGGA,174659.00,3724.923400,N,12205.008439,W,7,,0.40,-13.34,M,0.0,M,0.0,0000*7E
$GPRMC,174659.00,A,3724.923400,N,12205.008439,W,000.6,,150819,,,A*64
$GPGGA,174700.00,3724.923519,N,12205.008620,W,7,,0.40,-13.35,M,0.0,M,0.0,0000*71
$GPRMC,174700.00,A,3724.923519,N,12205.008620,W,000.6,,150819,,,A*6A
$GPGGA,174702.00,3724.923580,N,12205.009099,W,7,,0.40,-13.35,M,0.0,M,0.0,0000*76
$GPRMC,174702.00,A,3724.923580,N,12205.009099,W,000.6,,150819,,,A*6D
$GPGGA,174703.00,3724.923400,N,12205.009220,W,7,,0.40,-13.34,M,0.0,M,0.0,0000*7F
$GPRMC,174703.00,A,3724.923400,N,12205.009220,W,000.6,,150819,,,A*65
$GPGGA,174704.00,3724.923339,N,12205.009220,W,7,,0.40,-13.34,M,0.0,M,0.0,0000*75
$GPRMC,174704.00,A,3724.923339,N,12205.009220,W,000.6,,150819,,,A*6F
$GPGGA,174705.00,3724.923159,N,12205.009039,W,7,,0.40,-13.31,M,0.0,M,0.0,0000*7F
$GPRMC,174705.00,A,3724.923159,N,12205.009039,W,000.6,,150819,,,A*60
$GPGGA,174706.00,3724.923040,N,12205.008920,W,7,,0.40,-13.27,M,0.0,M,0.0,0000*72
$GPRMC,174706.00,A,3724.923040,N,12205.008920,W,000.6,,150819,,,A*6A
$GPGGA,174707.00,3724.923040,N,12205.008620,W,7,,0.40,-13.25,M,0.0,M,0.0,0000*7E
$GPRMC,174707.00,A,3724.923040,N,12205.008620,W,000.6,,150819,,,A*64
$GPGGA,174708.00,3724.923159,N,12205.008500,W,7,,0.40,-13.31,M,0.0,M,0.0,0000*7C
$GPRMC,174708.00,A,3724.923159,N,12205.008500,W,000.6,,150819,,,A*63
$GPGGA,174709.00,3724.923339,N,12205.008439,W,7,,0.40,-13.29,M,0.0,M,0.0,0000*7B
$GPRMC,174709.00,A,3724.923339,N,12205.008439,W,000.6,,150819,,,A*6D
$GPGGA,174710.00,3724.923339,N,12205.008260,W,7,,0.40,-13.28,M,0.0,M,0.0,0000*78
$GPRMC,174710.00,A,3724.923339,N,12205.008260,W,000.6,,150819,,,A*6F
$GPGGA,174711.00,3724.923280,N,12205.008200,W,7,,0.40,-13.36,M,0.0,M,0.0,0000*73
$GPRMC,174711.00,A,3724.923280,N,12205.008200,W,000.5,,150819,,,A*68
$GPGGA,174712.00,3724.923220,N,12205.008079,W,7,,0.40,-13.33,M,0.0,M,0.0,0000*73
$GPRMC,174712.00,A,3724.923220,N,12205.008079,W,000.5,,150819,,,A*6D
$GPGGA,174713.00,3724.923040,N,12205.008019,W,7,,0.40,-13.37,M,0.0,M,0.0,0000*74
$GPRMC,174713.00,A,3724.923040,N,12205.008019,W,000.6,,150819,,,A*6D
$GPGGA,174714.00,3724.922979,N,12205.007840,W,7,,0.40,-13.37,M,0.0,M,0.0,0000*7A
$GPRMC,174714.00,A,3724.922979,N,12205.007840,W,000.6,,150819,,,A*63
$GPGGA,174715.00,3724.923040,N,12205.007659,W,7,,0.40,-13.38,M,0.0,M,0.0,0000*70
$GPRMC,174715.00,A,3724.923040,N,12205.007659,W,000.6,,150819,,,A*66
$GPGGA,174716.00,3724.923220,N,12205.007540,W,7,,0.40,-13.34,M,0.0,M,0.0,0000*70
$GPRMC,174716.00,A,3724.923220,N,12205.007540,W,000.6,,150819,,,A*6A
$GPGGA,174717.00,3724.923400,N,12205.007600,W,7,,0.40,-13.42,M,0.0,M,0.0,0000*73
$GPRMC,174717.00,A,3724.923400,N,12205.007600,W,000.6,,150819,,,A*68
$GPGGA,174718.00,3724.923519,N,12205.007719,W,7,,0.40,-13.41,M,0.0,M,0.0,0000*7F
$GPRMC,174718.00,A,3724.923519,N,12205.007719,W,000.6,,150819,,,A*67
$GPGGA,174719.00,3724.923519,N,12205.007960,W,7,,0.40,-13.41,M,0.0,M,0.0,0000*7E
$GPRMC,174719.00,A,3724.923519,N,12205.007960,W,000.6,,150819,,,A*66
$GPGGA,174720.00,3724.923459,N,12205.008079,W,7,,0.40,-13.42,M,0.0,M,0.0,0000*7C
$GPRMC,174720.00,A,3724.923459,N,12205.008079,W,000.6,,150819,,,A*67
$GPGGA,174721.00,3724.923400,N,12205.008200,W,7,,0.40,-13.43,M,0.0,M,0.0,0000*7C
$GPRMC,174721.00,A,3724.923400,N,12205.008200,W,000.6,,150819,,,A*66
$GPGGA,174722.00,3724.923220,N,12205.008260,W,7,,0.40,-13.42,M,0.0,M,0.0,0000*7C
$GPRMC,174722.00,A,3724.923220,N,12205.008260,W,000.6,,150819,,,A*67
$GPGGA,174723.00,3724.923040,N,12205.008200,W,7,,0.40,-13.43,M,0.0,M,0.0,0000*7E
$GPRMC,174723.00,A,3724.923040,N,12205.008200,W,000.6,,150819,,,A*64
$GPGGA,174724.00,3724.922920,N,12205.007960,W,7,,0.40,-13.45,M,0.0,M,0.0,0000*73
$GPRMC,174724.00,A,3724.922920,N,12205.007960,W,000.6,,150819,,,A*6F
$GPGGA,174725.00,3724.922920,N,12205.007779,W,7,,0.40,-13.43,M,0.0,M,0.0,0000*72
$GPRMC,174725.00,A,3724.922920,N,12205.007779,W,000.6,,150819,,,A*68
$GPGGA,174726.00,3724.923040,N,12205.007600,W,7,,0.40,-13.38,M,0.0,M,0.0,0000*7C
$GPRMC,174726.00,A,3724.923040,N,12205.007600,W,000.6,,150819,,,A*6A
$GPGGA,174727.00,3724.923220,N,12205.007479,W,7,,0.40,-13.39,M,0.0,M,0.0,0000*74
$GPRMC,174727.00,A,3724.923220,N,12205.007479,W,000.6,,150819,,,A*63
$GPGGA,174728.00,3724.923339,N,12205.007300,W,7,,0.40,-13.38,M,0.0,M,0.0,0000*7A
$GPRMC,174728.00,A,3724.923339,N,12205.007300,W,000.6,,150819,,,A*6C
$GPGGA,174729.00,3724.923339,N,12205.007180,W,7,,0.40,-13.39,M,0.0,M,0.0,0000*70
$GPRMC,174729.00,A,3724.923339,N,12205.007180,W,000.5,,150819,,,A*64
$GPGGA,174730.00,3724.923280,N,12205.007119,W,7,,0.40,-13.40,M,0.0,M,0.0,0000*75
$GPRMC,174730.00,A,3724.923280,N,12205.007119,W,000.4,,150819,,,A*6E
$GPGGA,174731.00,3724.923159,N,12205.007059,W,7,,0.40,-13.43,M,0.0,M,0.0,0000*75
$GPRMC,174731.00,A,3724.923159,N,12205.007059,W,000.4,,150819,,,A*6D
$GPGGA,174732.00,3724.922979,N,12205.006999,W,7,,0.40,-13.41,M,0.0,M,0.0,0000*7B
$GPRMC,174732.00,A,3724.922979,N,12205.006999,W,000.6,,150819,,,A*63
$GPGGA,174733.00,3724.922979,N,12205.006820,W,7,,0.40,-13.41,M,0.0,M,0.0,0000*79
$GPRMC,174733.00,A,3724.922979,N,12205.006820,W,000.6,,150819,,,A*61
$GPGGA,174734.00,3724.923100,N,12205.006699,W,7,,0.40,-13.43,M,0.0,M,0.0,0000*77
$GPRMC,174734.00,A,3724.923100,N,12205.006699,W,000.6,,150819,,,A*6D
$GPGGA,174735.00,3724.923280,N,12205.006580,W,7,,0.40,-13.41,M,0.0,M,0.0,0000*74
$GPRMC,174735.00,A,3724.923280,N,12205.006580,W,000.6,,150819,,,A*6C
$GPGGA,174736.00,3724.923400,N,12205.006580,W,7,,0.40,-13.45,M,0.0,M,0.0,0000*7D
$GPRMC,174736.00,A,3724.923400,N,12205.006580,W,000.6,,150819,,,A*61
$GPGGA,174737.00,3724.923519,N,12205.006759,W,7,,0.40,-13.47,M,0.0,M,0.0,0000*71
$GPRMC,174737.00,A,3724.923519,N,12205.006759,W,000.6,,150819,,,A*6F
$GPGGA,174738.00,3724.923519,N,12205.006999,W,7,,0.40,-13.45,M,0.0,M,0.0,0000*7E
$GPRMC,174738.00,A,3724.923519,N,12205.006999,W,000.6,,150819,,,A*62
$GPGGA,174739.00,3724.923459,N,12205.007180,W,7,,0.40,-13.46,M,0.0,M,0.0,0000*78
$GPRMC,174739.00,A,3724.923459,N,12205.007180,W,000.6,,150819,,,A*67
$GPGGA,174740.00,3724.923280,N,12205.007300,W,7,,0.40,-13.47,M,0.0,M,0.0,0000*7F
$GPRMC,174740.00,A,3724.923280,N,12205.007300,W,000.6,,150819,,,A*61
$GPGGA,174741.00,3724.923100,N,12205.007300,W,7,,0.40,-13.45,M,0.0,M,0.0,0000*77
$GPRMC,174741.00,A,3724.923100,N,12205.007300,W,000.6,,150819,,,A*6B
$GPGGA,174742.00,3724.922979,N,12205.007180,W,7,,0.40,-13.46,M,0.0,M,0.0,0000*7A
$GPRMC,174742.00,A,3724.922979,N,12205.007180,W,000.6,,150819,,,A*65
$GPGGA,174743.00,3724.922920,N,12205.006999,W,7,,0.40,-13.48,M,0.0,M,0.0,0000*78
$GPRMC,174743.00,A,3724.922920,N,12205.006999,W,000.6,,150819,,,A*69
$GPGGA,174744.00,3724.922920,N,12205.006820,W,7,,0.40,-13.47,M,0.0,M,0.0,0000*73
$GPRMC,174744.00,A,3724.922920,N,12205.006820,W,000.6,,150819,,,A*6D
$GPGGA,174745.00,3724.922979,N,12205.006640,W,7,,0.40,-13.44,M,0.0,M,0.0,0000*75
$GPRMC,174745.00,A,3724.922979,N,12205.006640,W,000.6,,150819,,,A*68
$GPGGA,174746.00,3724.922979,N,12205.006520,W,7,,0.40,-13.45,M,0.0,M,0.0,0000*72
$GPRMC,174746.00,A,3724.922979,N,12205.006520,W,000.5,,150819,,,A*6D
$GPGGA,174747.00,3724.922740,N,12205.006580,W,7,,0.40,-13.49,M,0.0,M,0.0,0000*71
$GPRMC,174747.00,A,3724.922740,N,12205.006580,W,000.7,,150819,,,A*60
$GPGGA,174749.00,3724.922619,N,12205.007059,W,7,,0.40,-13.47,M,0.0,M,0.0,0000*7C
$GPRMC,174749.00,A,3724.922619,N,12205.007059,W,000.8,,150819,,,A*6C
$GPGGA,174750.00,3724.922740,N,12205.007240,W,7,,0.40,-13.48,M,0.0,M,0.0,0000*7C
$GPRMC,174750.00,A,3724.922740,N,12205.007240,W,000.7,,150819,,,A*6C
$GPGGA,174751.00,3724.922920,N,12205.007359,W,7,,0.40,-13.52,M,0.0,M,0.0,0000*77
$GPRMC,174751.00,A,3724.922920,N,12205.007359,W,000.7,,150819,,,A*6C
$GPGGA,174752.00,3724.922979,N,12205.007240,W,7,,0.40,-13.52,M,0.0,M,0.0,0000*71
$GPRMC,174752.00,A,3724.922979,N,12205.007240,W,000.6,,150819,,,A*6B
$GPGGA,174753.00,3724.922920,N,12205.007059,W,7,,0.40,-13.52,M,0.0,M,0.0,0000*76
$GPRMC,174753.00,A,3724.922920,N,12205.007059,W,000.6,,150819,,,A*6C
$GPGGA,174754.00,3724.922799,N,12205.006940,W,7,,0.40,-13.52,M,0.0,M,0.0,0000*7D
$GPRMC,174754.00,A,3724.922799,N,12205.006940,W,000.6,,150819,,,A*67
$GPGGA,174755.00,3724.922799,N,12205.006759,W,7,,0.40,-13.49,M,0.0,M,0.0,0000*70
$GPRMC,174755.00,A,3724.922799,N,12205.006759,W,000.6,,150819,,,A*60
$GPGGA,174756.00,3724.922920,N,12205.006580,W,7,,0.40,-13.50,M,0.0,M,0.0,0000*71
$GPRMC,174756.00,A,3724.922920,N,12205.006580,W,000.6,,150819,,,A*69
$GPGGA,174757.00,3724.923100,N,12205.006580,W,7,,0.40,-13.52,M,0.0,M,0.0,0000*79
$GPRMC,174757.00,A,3724.923100,N,12205.006580,W,000.6,,150819,,,A*63
$GPGGA,174758.00,3724.923280,N,12205.006580,W,7,,0.40,-13.52,M,0.0,M,0.0,0000*7D
$GPRMC,174758.00,A,3724.923280,N,12205.006580,W,000.7,,150819,,,A*66
$GPGGA,174759.00,3724.923519,N,12205.006580,W,7,,0.40,-13.52,M,0.0,M,0.0,0000*7B
$GPRMC,174759.00,A,3724.923519,N,12205.006580,W,000.8,,150819,,,A*6F
$GPGGA,174800.00,3724.923639,N,12205.006520,W,7,,0.40,-13.49,M,0.0,M,0.0,0000*79
$GPRMC,174800.00,A,3724.923639,N,12205.006520,W,000.6,,150819,,,A*69
$GPGGA,174801.00,3724.923580,N,12205.006280,W,7,,0.40,-13.54,M,0.0,M,0.0,0000*78
$GPRMC,174801.00,A,3724.923580,N,12205.006280,W,000.6,,150819,,,A*64
$GPGGA,174802.00,3724.923580,N,12205.006160,W,7,,0.40,-13.54,M,0.0,M,0.0,0000*76
$GPRMC,174802.00,A,3724.923580,N,12205.006160,W,000.5,,150819,,,A*69
$GPGGA,174803.00,3724.923580,N,12205.006039,W,7,,0.40,-13.58,M,0.0,M,0.0,0000*76
$GPRMC,174803.00,A,3724.923580,N,12205.006039,W,000.4,,150819,,,A*64
$GPGGA,174804.00,3724.923699,N,12205.006160,W,7,,0.40,-13.58,M,0.0,M,0.0,0000*77
$GPRMC,174804.00,A,3724.923699,N,12205.006160,W,000.4,,150819,,,A*65
$GPGGA,174805.00,3724.923880,N,12205.006160,W,7,,0.40,-13.56,M,0.0,M,0.0,0000*7E
$GPRMC,174805.00,A,3724.923880,N,12205.006160,W,000.6,,150819,,,A*60
$GPGGA,174806.00,3724.923880,N,12205.005979,W,7,,0.40,-13.59,M,0.0,M,0.0,0000*71
$GPRMC,174806.00,A,3724.923880,N,12205.005979,W,000.5,,150819,,,A*63
$GPGGA,174807.00,3724.923699,N,12205.005979,W,7,,0.40,-13.63,M,0.0,M,0.0,0000*7F
$GPRMC,174807.00,A,3724.923699,N,12205.005979,W,000.6,,150819,,,A*67
$GPGGA,174809.00,3724.923280,N,12205.006220,W,7,,0.40,-13.62,M,0.0,M,0.0,0000*78
$GPRMC,174809.00,A,3724.923280,N,12205.006220,W,000.8,,150819,,,A*6F
$GPGGA,174810.00,3724.922979,N,12205.006220,W,7,,0.40,-13.63,M,0.0,M,0.0,0000*7D
$GPRMC,174810.00,A,3724.922979,N,12205.006220,W,000.9,,150819,,,A*6A
$GPGGA,174811.00,3724.922799,N,12205.006160,W,7,,0.40,-13.61,M,0.0,M,0.0,0000*79
$GPRMC,174811.00,A,3724.922799,N,12205.006160,W,000.8,,150819,,,A*6D
$GPGGA,174812.00,3724.922920,N,12205.006039,W,7,,0.40,-13.60,M,0.0,M,0.0,0000*7A
$GPRMC,174812.00,A,3724.922920,N,12205.006039,W,000.6,,150819,,,A*61
$GPGGA,174813.00,3724.923040,N,12205.005920,W,7,,0.40,-13.57,M,0.0,M,0.0,0000*73
$GPRMC,174813.00,A,3724.923040,N,12205.005920,W,000.6,,150819,,,A*6C
$GPGGA,174814.00,3724.923100,N,12205.005800,W,7,,0.40,-13.60,M,0.0,M,0.0,0000*76
$GPRMC,174814.00,A,3724.923100,N,12205.005800,W,000.5,,150819,,,A*6E
$GPGGA,174815.00,3724.923100,N,12205.005679,W,7,,0.40,-13.63,M,0.0,M,0.0,0000*74
$GPRMC,174815.00,A,3724.923100,N,12205.005679,W,000.5,,150819,,,A*6F
$GPGGA,174816.00,3724.923220,N,12205.005439,W,7,,0.40,-13.61,M,0.0,M,0.0,0000*72
$GPRMC,174816.00,A,3724.923220,N,12205.005439,W,000.6,,150819,,,A*68
$GPGGA,174817.00,3724.923339,N,12205.005319,W,7,,0.40,-13.59,M,0.0,M,0.0,0000*74
$GPRMC,174817.00,A,3724.923339,N,12205.005319,W,000.6,,150819,,,A*65
$GPGGA,174818.00,3724.923400,N,12205.005560,W,7,,0.40,-13.62,M,0.0,M,0.0,0000*76
$GPRMC,174818.00,A,3724.923400,N,12205.005560,W,000.7,,150819,,,A*6E
$GPGGA,174819.00,3724.923339,N,12205.005800,W,7,,0.40,-13.63,M,0.0,M,0.0,0000*70
$GPRMC,174819.00,A,3724.923339,N,12205.005800,W,000.7,,150819,,,A*69
$GPGGA,174820.00,3724.923220,N,12205.005979,W,7,,0.40,-13.64,M,0.0,M,0.0,0000*7B
$GPRMC,174820.00,A,3724.923220,N,12205.005979,W,000.7,,150819,,,A*65
$GPGGA,174821.00,3724.922979,N,12205.005979,W,7,,0.40,-13.61,M,0.0,M,0.0,0000*79
$GPRMC,174821.00,A,3724.922979,N,12205.005979,W,000.8,,150819,,,A*6D
$GPGGA,174822.00,3724.922859,N,12205.005860,W,7,,0.40,-13.60,M,0.0,M,0.0,0000*71
$GPRMC,174822.00,A,3724.922859,N,12205.005860,W,000.7,,150819,,,A*6B
$GPGGA,174823.00,3724.922799,N,12205.005679,W,7,,0.40,-13.60,M,0.0,M,0.0,0000*75
$GPRMC,174823.00,A,3724.922799,N,12205.005679,W,000.7,,150819,,,A*6F
$GPGGA,174824.00,3724.922799,N,12205.005439,W,7,,0.40,-13.63,M,0.0,M,0.0,0000*77
$GPRMC,174824.00,A,3724.922799,N,12205.005439,W,000.7,,150819,,,A*6E
$GPGGA,174825.00,3724.922920,N,12205.005319,W,7,,0.40,-13.65,M,0.0,M,0.0,0000*79
$GPRMC,174825.00,A,3724.922920,N,12205.005319,W,000.6,,150819,,,A*67
$GPGGA,174826.00,3724.922979,N,12205.005260,W,7,,0.40,-13.69,M,0.0,M,0.0,0000*75
$GPRMC,174826.00,A,3724.922979,N,12205.005260,W,000.4,,150819,,,A*65
