     3.05           NAVIGATION DATA     J                   RINEX VERSION / TYPE
ssrcrin-16.1.0x     BKG Frankfurt       20260419 181003 UTC PGM / RUN BY / DATE 
gfzrnx-2.2.0        FILE PROCESSING     20260421 091028 UTC COMMENT             
BDSA   3.2596e-08  6.7055e-08 -1.0133e-06  1.5497e-06       IONOSPHERIC CORR    
BDSA   2.8871e-08  5.9605e-08 -8.9407e-07  1.5497E-06 C 40  IONOSPHERIC CORR    
BDSA   2.9802e-08  5.2154e-08 -8.9407e-07  1.4901E-06 E 40  IONOSPHERIC CORR    
BDSA   2.2352e-08  1.9372e-07 -1.4901e-06  2.2054E-06 G 30  IONOSPHERIC CORR    
BDSA   2.6077e-08  1.5646e-07 -1.3113e-06  1.9670E-06 H 11  IONOSPHERIC CORR    
BDSA   2.8871e-08  1.1921e-07 -1.1325e-06  1.7881E-06 I 23  IONOSPHERIC CORR    
BDSA   2.8871e-08  1.1921e-07 -1.1325e-06  1.7881E-06 J 42  IONOSPHERIC CORR    
BDSA   3.7253e-08  5.9605e-08 -1.1325e-06  1.9073E-06 K 38  IONOSPHERIC CORR    
BDSA   2.5146e-08  1.5646e-07 -1.3709e-06  2.0862E-06 M 12  IONOSPHERIC CORR    
BDSA   3.0734e-08  9.6858e-08 -1.0729e-06  1.7285E-06 N 27  IONOSPHERIC CORR    
BDSA   2.8871e-08  1.1921e-07 -1.1325e-06  1.7881E-06 O 12  IONOSPHERIC CORR    
BDSA   2.8871e-08  1.1921e-07 -1.1325e-06  1.7881E-06 P 12  IONOSPHERIC CORR    
BDSA   2.7940e-08  1.0431e-07 -1.1325e-06  1.7881E-06 Q 13  IONOSPHERIC CORR    
BDSA   2.8871e-08  1.1921e-07 -1.1325e-06  1.7881E-06 R 12  IONOSPHERIC CORR    
BDSA   2.9802e-08  1.0431e-07 -1.1325e-06  1.7285E-06 S     IONOSPHERIC CORR    
BDSA   2.8871e-08  2.6077e-07 -1.9073e-06  2.8610E-06 U 05  IONOSPHERIC CORR    
BDSA   2.7940e-08  1.0431e-07 -1.1325e-06  1.7881E-06 W 16  IONOSPHERIC CORR    
BDSA   2.7940e-08  1.0431e-07 -1.1325e-06  1.7881E-06 X 16  IONOSPHERIC CORR    
BDSB   1.1264e+05  2.6214e+05 -3.9322e+05  6.5536e+04       IONOSPHERIC CORR    
BDSB   1.3312e+05 -5.5706e+05  3.6700e+06 -2.8180E+06 C 40  IONOSPHERIC CORR    
BDSB   1.2902e+05 -4.9152e+05  3.4079e+06 -2.6870E+06 E 40  IONOSPHERIC CORR    
BDSB   1.4950e+05 -5.5706e+05  3.2768e+06 -2.4904E+06 G 30  IONOSPHERIC CORR    
BDSB   1.4541e+05 -8.5197e+05  4.9807e+06 -3.6700E+06 H 11  IONOSPHERIC CORR    
BDSB   1.3722e+05 -7.3728e+05  4.5875e+06 -3.4734E+06 I 23  IONOSPHERIC CORR    
BDSB   1.3722e+05 -7.3728e+05  4.5875e+06 -3.4734E+06 J 42  IONOSPHERIC CORR    
BDSB   1.1878e+05 -4.7514e+05  3.2113e+06 -2.4904E+06 K 38  IONOSPHERIC CORR    
BDSB   1.3722e+05 -7.2090e+05  4.4564e+06 -3.3423E+06 M 12  IONOSPHERIC CORR    
BDSB   1.3312e+05 -7.5366e+05  4.7186e+06 -3.5389E+06 N 27  IONOSPHERIC CORR    
BDSB   1.3722e+05 -7.3728e+05  4.5875e+06 -3.4734E+06 O 12  IONOSPHERIC CORR    
BDSB   1.3722e+05 -7.3728e+05  4.5875e+06 -3.4734E+06 P 12  IONOSPHERIC CORR    
BDSB   1.3517e+05 -5.7344e+05  3.6045e+06 -2.8180E+06 Q 13  IONOSPHERIC CORR    
BDSB   1.3722e+05 -7.3728e+05  4.5875e+06 -3.4734E+06 R 12  IONOSPHERIC CORR    
BDSB   1.4336e+05 -8.1920e+05  4.7841e+06 -3.5389E+06 S     IONOSPHERIC CORR    
BDSB   1.5770e+05 -8.5197e+05  3.8011e+06 -1.9661E+06 U 05  IONOSPHERIC CORR    
BDSB   1.2083e+05 -5.0790e+05  3.7356e+06 -3.0147E+06 W 16  IONOSPHERIC CORR    
BDSB   1.2083e+05 -5.0790e+05  3.7356e+06 -3.0147E+06 X 16  IONOSPHERIC CORR    
GAL    9.7750e+01  5.0781e-02  1.8616e-03           0       IONOSPHERIC CORR    
GPSA   1.5832e-08  1.4901e-08 -1.1921e-07 -1.1921E-07       IONOSPHERIC CORR    
GPSB   1.0650e+05  6.5536e+04 -1.9661e+05 -1.9661E+05       IONOSPHERIC CORR    
IRNA   5.1223e-08  2.8312e-07 -1.0133e-06 -7.5102E-06       IONOSPHERIC CORR    
IRNB   1.3722e+05 -9.3389e+05  1.7039e+06  8.3231E+06       IONOSPHERIC CORR    
QZSA   1.9560e-08  7.4510e-09 -4.1720e-07  -.9537E-06       IONOSPHERIC CORR    
QZSB   1.0440e+05 -4.9150e+04  3.9320e+05   .2490E+07       IONOSPHERIC CORR    
BDUT  0.0000000000e+00 0.000000000e+00     14 1059          TIME SYSTEM CORR    
GAGP -9.6042640507E-10-3.019806627E-14  86400 2415          TIME SYSTEM CORR    
GAUT  0.0000000000E+00 0.000000000E+00      0 2415          TIME SYSTEM CORR    
GLGP  2.7939677238E-09 0.000000000E+00 507618 2414          TIME SYSTEM CORR    
GLUT  9.3132257462e-10 0.000000000e+00 233472 2415          TIME SYSTEM CORR    
GPUT  9.3132257462E-10 1.154631946E-14 233472 2415          TIME SYSTEM CORR    
IRUT  1.3271346688E-08 8.881784197E-16    288 1391          TIME SYSTEM CORR    
QZUT  -.9313225746E-09  .000000000E+00 180224 2415          TIME SYSTEM CORR    
    18                                                      LEAP SECONDS        
                                                            END OF HEADER
J02 2026 04 19 03 00 00-2.233777195215e-06-2.273736754432e-13 0.000000000000e+00
     9.000000000000e+00 1.023968750000e+03-3.443357715384e-09-2.163040752404e+00
     3.334879875183e-05 7.392582553439e-02 2.549402415752e-05 6.494000783920e+03
     1.080000000000e+04-6.146728992462e-06 6.443840635827e-01-9.054318070412e-06
     6.903793271272e-01-5.495312500000e+02-1.554742320847e+00 3.310495038264e-09
     2.320810956806e-09 2.000000000000e+00 2.415000000000e+03 1.000000000000e+00
     2.800000000000e+00 1.000000000000e+00 1.396983861923e-09 7.770000000000e+02
     7.380000000000e+03 0.000000000000e+00                                      
J02 2026 04 19 15 00 00-2.242624759674e-06-2.273736754432e-13 0.000000000000e+00
     5.700000000000e+01 4.452500000000e+02 1.633639476213e-09 9.859868531672e-01
     1.657567918301e-05 7.392091653310e-02 1.817196607590e-05 6.493962926865e+03
     5.400000000000e+04-1.434236764908e-07 6.443333676196e-01-6.444752216339e-07
     6.903332773919e-01-4.000000000000e+02-1.554365165937e+00-2.233664469662e-09
    -1.753644474903e-10 2.000000000000e+00 2.415000000000e+03 1.000000000000e+00
     2.800000000000e+00 1.000000000000e+00 1.396983861923e-09 8.250000000000e+02
     5.041800000000e+04 0.000000000000e+00                                      
J02 2026 04 19 16 00 00-2.243556082249e-06-2.273736754432e-13 0.000000000000e+00
     6.100000000000e+01 4.969687500000e+02 2.476888886650e-09 1.248615136689e+00
     1.773610711098e-05 7.391686039045e-02 2.120435237885e-05 6.493928598404e+03
     5.760000000000e+04-9.164214134216e-07 6.443267552299e-01-1.825392246246e-07
     6.903279538330e-01-5.214375000000e+02-1.554539592585e+00-2.890477542849e-09
    -2.850118718885e-10 2.000000000000e+00 2.415000000000e+03 1.000000000000e+00
     2.800000000000e+00 1.000000000000e+00 1.396983861923e-09 8.290000000000e+02
     5.401800000000e+04 0.000000000000e+00                                      
J02 2026 04 19 17 00 00-2.244953066111e-06-2.273736754432e-13 0.000000000000e+00
     6.500000000000e+01 4.801250000000e+02 3.151917004280e-09 1.511284744721e+00
     1.733936369419e-05 7.391630578786e-02 2.514198422432e-05 6.493890893936e+03
     6.120000000000e+04-1.408159732819e-06 6.443158345464e-01-1.247972249985e-06
     6.903245203643e-01-6.810312500000e+02-1.554746788599e+00-3.248706750248e-09
    -1.460775132862e-10 2.000000000000e+00 2.415000000000e+03 1.000000000000e+00
     2.800000000000e+00 1.000000000000e+00 1.396983861923e-09 8.330000000000e+02
     5.761800000000e+04 0.000000000000e+00                                      
J02 2026 04 19 18 00 00-2.245884388685e-06-2.273736754432e-13 0.000000000000e+00
     6.900000000000e+01 4.218437500000e+02 3.311209353732e-09 1.773884965086e+00
     1.602992415428e-05 7.391853397712e-02 2.749264240265e-05 6.493867084503e+03
     6.480000000000e+04-3.520399332047e-07 6.443047558678e-01-2.223998308182e-06
     6.903248948713e-01-7.727500000000e+02-1.554879386030e+00-3.124415858747e-09
     4.428755904031e-11 2.000000000000e+00 2.415000000000e+03 1.000000000000e+00
     2.800000000000e+00 1.000000000000e+00 1.396983861923e-09 8.370000000000e+02
     6.121800000000e+04 0.000000000000e+00                                      
J03 2026 04 19 09 00 00-2.771615982056e-06-4.547473508865e-13 0.000000000000e+00
     3.300000000000e+01-1.024000000000e+03 1.119689496705e-09-2.303241368825e+00
    -3.312714397907e-05 7.457955647260e-02-1.724809408188e-05 6.493528728485e+03
     3.240000000000e+04-3.878027200699e-06 2.395057524857e+00-2.110376954079e-06
     7.005186206924e-01 6.524687500000e+02-1.563863237638e+00-1.098260032653e-09
     8.743221333120e-10 2.000000000000e+00 2.415000000000e+03 1.000000000000e+00
     2.800000000000e+00 1.000000000000e+00 4.656612873077e-10 8.010000000000e+02
     2.970000000000e+04 0.000000000000e+00                                      
J03 2026 04 19 15 00 00-2.781860530376e-06-4.547473508865e-13 0.000000000000e+00
     5.700000000000e+01-5.450312500000e+02 3.238349175956e-09-7.283786388654e-01
    -1.825764775276e-05 7.459812541492e-02-8.486211299896e-06 6.493508596420e+03
     5.400000000000e+04 4.786998033524e-07 2.395005955531e+00-1.151114702225e-06
     7.004933253759e-01 3.694687500000e+02-1.563653766787e+00-4.120528779420e-09
     2.425101015191e-10 2.000000000000e+00 2.415000000000e+03 1.000000000000e+00
     2.800000000000e+00 1.000000000000e+00 4.656612873077e-10 8.250000000000e+02
     5.041800000000e+04 0.000000000000e+00                                      
J03 2026 04 19 16 00 00-2.783723175526e-06-4.547473508865e-13 0.000000000000e+00
     6.100000000000e+01-4.273437500000e+02 2.600465462682e-09-4.657550279036e-01
    -1.502409577370e-05 7.460816216189e-02-8.245930075645e-06 6.493544324875e+03
     5.760000000000e+04 4.637986421585e-07 2.394997012713e+00-1.676380634308e-08
     7.004954349037e-01 3.607500000000e+02-1.563771378086e+00-3.634437103179e-09
     9.214669542259e-11 2.000000000000e+00 2.415000000000e+03 1.000000000000e+00
     2.800000000000e+00 1.000000000000e+00 4.656612873077e-10 8.290000000000e+02
     5.401800000000e+04 0.000000000000e+00                                      
J03 2026 04 19 17 00 00-2.785120159388e-06-4.547473508865e-13 0.000000000000e+00
     6.500000000000e+01-4.051875000000e+02 2.357241045694e-09-2.032304111452e-01
    -1.433864235878e-05 7.461089175195e-02-7.841736078262e-06 6.493552928925e+03
     6.120000000000e+04-2.384185791016e-07 2.394989297283e+00 4.842877388000e-08
     7.004959147409e-01 3.480000000000e+02-1.563793740252e+00-3.360497121051e-09
    -2.171519023912e-10 2.000000000000e+00 2.415000000000e+03 1.000000000000e+00
     2.800000000000e+00 1.000000000000e+00 4.656612873077e-10 8.330000000000e+02
     5.761800000000e+04 0.000000000000e+00                                      
J03 2026 04 19 18 00 00-2.786517143250e-06-4.547473508865e-13 0.000000000000e+00
     6.900000000000e+01-4.130625000000e+02 2.545463171615e-09 5.927016840613e-02
    -1.453980803490e-05 7.460287841968e-02-9.760260581970e-06 6.493530788422e+03
     6.480000000000e+04-2.700835466385e-07 2.394977968446e+00-5.401670932770e-08
     7.004950486934e-01 4.199375000000e+02-1.563788005613e+00-3.351568177696e-09
    -2.760829285336e-10 2.000000000000e+00 2.415000000000e+03 1.000000000000e+00
     2.800000000000e+00 1.000000000000e+00 4.656612873077e-10 8.370000000000e+02
     6.121800000000e+04 0.000000000000e+00                                      
J04 2026 04 19 15 00 00 1.359730958939e-07 1.136868377216e-13 0.000000000000e+00
     5.700000000000e+01 6.193437500000e+02 3.792657979428e-09-2.495570585503e+00
     1.744367182255e-05 7.491964520887e-02 1.879408955574e-05 6.493313636780e+03
     5.400000000000e+04 2.758577466011e-06-2.210372502796e+00 1.732259988785e-07
     6.513540051088e-01-4.501250000000e+02-1.554067312890e+00-3.409070572902e-09
     3.978737158944e-10 2.000000000000e+00 2.415000000000e+03 1.000000000000e+00
     2.800000000000e+00 1.600000000000e+01-3.259629011154e-09 8.250000000000e+02
     5.041800000000e+04 0.000000000000e+00                                      
J04 2026 04 19 16 00 00 1.355074346066e-07 1.136868377216e-13 0.000000000000e+00
     6.100000000000e+01 5.790312500000e+02 4.182317067436e-09-2.232997143854e+00
     1.628324389458e-05 7.491638720967e-02 1.875497400761e-05 6.493323354721e+03
     5.760000000000e+04 2.363696694374e-06-2.210380295760e+00 2.142041921616e-06
     6.513545493143e-01-4.547500000000e+02-1.554106033406e+00-3.953736117551e-09
     4.035882396416e-10 2.000000000000e+00 2.415000000000e+03 1.000000000000e+00
     2.800000000000e+00 1.600000000000e+01-3.259629011154e-09 8.290000000000e+02
     5.401800000000e+04 0.000000000000e+00                                      
J04 2026 04 19 17 00 00 1.359730958939e-07 1.136868377216e-13 0.000000000000e+00
     6.500000000000e+01 4.655000000000e+02 3.708368754158e-09-1.970359265052e+00
     1.348741352558e-05 7.491048774682e-02 1.829490065575e-05 6.493344741821e+03
     6.120000000000e+04 3.594905138016e-07-2.210397122244e+00 1.978129148483e-06
     6.513596592872e-01-4.362812500000e+02-1.554204443905e+00-3.684796343701e-09
     7.993190091308e-10 2.000000000000e+00 2.415000000000e+03 1.000000000000e+00
     2.800000000000e+00 1.600000000000e+01-3.259629011154e-09 8.330000000000e+02
     5.761800000000e+04 0.000000000000e+00                                      
J04 2026 04 19 18 00 00 1.364387571812e-07 1.136868377216e-13 0.000000000000e+00
     6.900000000000e+01 3.525937500000e+02 2.806902633047e-09-1.707687467032e+00
     1.065060496330e-05 7.490585499909e-02 1.659616827965e-05 6.493371061325e+03
     6.480000000000e+04-9.499490261078e-08-2.210413101698e+00 5.327165126801e-07
     6.513682115063e-01-3.611562500000e+02-1.554341279410e+00-2.969052244372e-09
     1.084688038754e-09 2.000000000000e+00 2.415000000000e+03 1.000000000000e+00
     2.800000000000e+00 1.600000000000e+01-3.259629011154e-09 8.370000000000e+02
     6.121800000000e+04 0.000000000000e+00                                      
J07 2026 04 19 15 00 00-5.122274160385e-09 0.000000000000e+00 0.000000000000e+00
     5.700000000000e+01-3.226875000000e+02 0.000000000000e+00-2.805388807064e+00
    -1.080706715584e-05 1.350736711174e-04 2.422183752060e-05 6.493362335205e+03
     5.400000000000e+04-2.384185791016e-06 1.032074880347e-01-4.084780812263e-06
     1.274353790522e-03-7.376250000000e+02 2.573421276434e+00 1.053972473613e-09
     0.000000000000e+00 0.000000000000e+00 2.415000000000e+03 1.000000000000e+00
     2.800000000000e+00 1.000000000000e+00-4.656612873077e-09 8.250000000000e+02
     5.394600000000e+04 1.000000000000e+00 0.000000000000e+00 0.000000000000e+00
J07 2026 04 19 16 00 00-5.587935447693e-09 0.000000000000e+00 0.000000000000e+00
     6.100000000000e+01-3.370312500000e+02 0.000000000000e+00-2.520488425260e+00
    -1.127086579800e-05 1.292914384976e-04 2.205185592175e-05 6.493378160477e+03
     5.760000000000e+04 8.810311555862e-07 1.032094395674e-01-5.083158612251e-06
     1.270986153103e-03-6.705312500000e+02 2.551041622952e+00 9.618257781901e-10
     0.000000000000e+00 2.000000000000e+00 2.415000000000e+03 1.000000000000e+00
     2.800000000000e+00 1.000000000000e+00-4.656612873077e-09 8.290000000000e+02
     5.401800000000e+04 0.000000000000e+00                                      
J07 2026 04 19 17 00 00-5.122274160385e-09 0.000000000000e+00 0.000000000000e+00
     6.500000000000e+01-3.249062500000e+02 0.000000000000e+00-2.236847057087e+00
    -1.087412238121e-05 1.263526501134e-04 2.073869109154e-05 6.493387928009e+03
     6.120000000000e+04 4.125759005547e-06 1.032021396062e-01-3.365799784660e-06
     1.267274729936e-03-6.301562500000e+02 2.529928345968e+00 9.064663293897e-10
     0.000000000000e+00 2.000000000000e+00 2.415000000000e+03 1.000000000000e+00
     2.800000000000e+00 1.000000000000e+00-4.656612873077e-09 8.330000000000e+02
     5.761800000000e+04 0.000000000000e+00                                      
J07 2026 04 19 18 00 00-3.725290298462e-09 0.000000000000e+00 0.000000000000e+00
     6.900000000000e+01-3.244375000000e+02 0.000000000000e+00-1.973145597343e+00
    -1.085177063942e-05 1.261716242880e-04 2.063997089863e-05 6.493388538361e+03
     6.480000000000e+04 5.219131708145e-06 1.028343488348e-01 1.806765794754e-07
     1.262849402747e-03-6.274375000000e+02 2.529114730912e+00 9.050376984529e-10
     0.000000000000e+00 2.000000000000e+00 2.415000000000e+03 1.000000000000e+00
     2.800000000000e+00 1.000000000000e+00-4.656612873077e-09 8.370000000000e+02
     6.121800000000e+04 0.000000000000e+00                                      
J08 2026 04 19 15 00 00 6.146728992462e-08 1.136868377216e-13 0.000000000000e+00
     5.700000000000e+01 7.856875000000e+02 0.000000000000e+00 2.382313303769e+00
     2.587959170341e-05 1.976731000468e-04-7.929280400276e-06 6.493454833984e+03
     5.400000000000e+04 2.419576048851e-06 1.198141955513e+00-1.367181539536e-06
     2.235177904132e-04 2.485625000000e+02 1.936724696677e+00 1.204693037443e-09
     0.000000000000e+00 2.000000000000e+00 2.415000000000e+03 1.000000000000e+00
     2.800000000000e+00 1.600000000000e+01 9.313225746155e-10 8.250000000000e+02
     5.041800000000e+04 0.000000000000e+00                                      
J08 2026 04 19 16 00 00 6.146728992462e-08 1.136868377216e-13 0.000000000000e+00
     6.100000000000e+01 7.893750000000e+02 0.000000000000e+00 2.638368027807e+00
     2.601556479931e-05 1.958060311154e-04-7.962808012962e-06 6.493460319519e+03
     5.760000000000e+04 3.665685653687e-06 1.212376394195e+00-2.048909664154e-07
     2.248373425206e-04 2.496875000000e+02 1.928948442982e+00 1.175763260974e-09
     0.000000000000e+00 2.000000000000e+00 2.415000000000e+03 1.000000000000e+00
     2.800000000000e+00 1.600000000000e+01 9.313225746155e-10 8.290000000000e+02
     5.401800000000e+04 0.000000000000e+00                                      
J08 2026 04 19 17 00 00 6.100162863731e-08 0.000000000000e+00 0.000000000000e+00
     6.500000000000e+01 7.809062500000e+02 0.000000000000e+00 2.890050490546e+00
     2.574548125267e-05 1.904332311824e-04-7.180497050285e-06 6.493474340439e+03
     6.120000000000e+04 3.892928361893e-06 1.235023921144e+00 2.162531018257e-06
     2.250187443625e-04 2.244375000000e+02 1.917129919882e+00 1.092545508906e-09
     0.000000000000e+00 2.000000000000e+00 2.415000000000e+03 1.000000000000e+00
     2.800000000000e+00 1.600000000000e+01 9.313225746155e-10 8.330000000000e+02
     5.761800000000e+04 0.000000000000e+00                                      
J08 2026 04 19 18 00 00 6.100162863731e-08 0.000000000000e+00 0.000000000000e+00
     6.900000000000e+01 7.402812500000e+02 0.000000000000e+00-3.135140741596e+00
     2.443790435791e-05 1.836823066697e-04-6.381422281265e-06 6.493490913391e+03
     6.480000000000e+04 2.209097146988e-06 1.261086833694e+00 4.496425390244e-06
     2.231198766956e-04 1.986562500000e+02 1.895582143062e+00 9.946842897361e-10
     0.000000000000e+00 2.000000000000e+00 2.415000000000e+03 1.000000000000e+00
     2.800000000000e+00 1.600000000000e+01 9.313225746155e-10 8.370000000000e+02
     6.121800000000e+04 0.000000000000e+00                                      
