$GPGGA,053537.42,,,,,1,15,0.68,,M,0.0,M,0.0,0000*5C
$GPGSV,3,1,10,5,21,194,31.2,6,45,021,26.4,11,65,302,39.0,12,35,322,29.5*74
$GPGSV,3,2,10,14,16,143,31.3,17,22,077,32.1,19,40,051,35.1,21,43,173,43.1*72
$GPGSV,3,3,10,22,34,139,37.3,24,22,252,22.6*76
$BDGSV,2,1,5,11,51,349,33.4,12,23,048,26.0,21,23,084,33.3,23,33,304,32.7*57
$BDGSV,2,2,5,25,58,237,31.9*74
$GPRMC,053537.42,A,,,,,,,190426,,,A*6C
$GPGGA,053538.42,2218.980730,N,08719.419317,E,1,15,0.68,-1.58,M,0.0,M,0.0,0000*55
$GPGSV,3,1,10,5,21,194,30.5,6,45,021,32.2,11,65,302,35.8,12,35,322,28.8*79
$GPGSV,3,2,10,14,16,143,28.4,17,22,077,33.9,19,40,051,36.8,21,43,173,42.1*7F
$GPGSV,3,3,10,22,34,139,36.1,24,22,252,28.1*78
$BDGSV,2,1,5,11,51,349,34.0,12,23,048,31.1,21,23,084,30.3,23,33,304,35.8*58
$BDGSV,2,2,5,25,58,237,36.4*7E
$GPRMC,053538.42,A,2218.980730,N,08719.419317,E,001.3,224.5,190426,,,A*59
$GPGGA,053539.42,2218.981927,N,08719.417838,E,1,15,0.68,-4.74,M,0.0,M,0.0,0000*5E
$GPGSV,3,1,10,5,21,194,32.2,6,45,021,32.9,11,65,302,39.5,12,35,322,34.2*71
$GPGSV,3,2,10,14,16,143,30.9,17,22,077,31.3,19,40,051,37.7,21,43,173,43.9*74
$GPGSV,3,3,10,22,34,139,36.3,24,22,252,26.8*7D
$BDGSV,2,1,5,11,51,349,38.7,12,23,048,30.0,21,23,084,30.1,23,33,304,37.0*5B
$BDGSV,2,2,5,25,58,237,37.0*7B
$GPRMC,053539.42,A,2218.981927,N,08719.417838,E,003.0,303.2,190426,,,A*5B
$GPGGA,053540.42,2218.982919,N,08719.416628,E,1,15,0.68,0.09,M,0.0,M,0.0,0000*73
$GPGSV,3,1,10,5,21,194,29.7,6,45,021,33.3,11,65,302,37.1,12,35,322,32.6*7D
$GPGSV,3,2,10,14,16,143,28.6,17,22,077,30.8,19,40,051,32.3,21,43,173,40.5*76
$GPGSV,3,3,10,22,34,139,37.2,24,22,252,22.7*76
$BDGSV,2,1,5,11,51,349,34.1,12,23,048,32.0,21,23,084,35.8,23,33,304,39.4*55
$BDGSV,2,2,5,25,58,237,38.0*74
$GPRMC,053540.42,A,2218.982919,N,08719.416628,E,003.9,308.3,190426,,,A*56
$GPGGA,053541.42,2218.984241,N,08719.416230,E,1,15,0.68,-1.74,M,0.0,M,0.0,0000*59
$GPGSV,3,1,10,5,21,194,31.6,6,45,021,32.7,11,65,302,32.3,12,35,322,39.5*7F
$GPGSV,3,2,10,14,16,143,31.1,17,22,077,30.3,19,40,051,33.1,21,43,173,39.0*7A
$GPGSV,3,3,10,22,34,139,37.7,24,22,252,28.7*79
$BDGSV,2,1,5,11,51,349,29.3,12,23,048,26.6,21,23,084,35.2,23,33,304,38.8*5F
$BDGSV,2,2,5,25,58,237,36.6*7C
$GPRMC,053541.42,A,2218.984241,N,08719.416230,E,004.0,321.7,190426,,,A*5B
$GPGGA,053542.42,2218.984652,N,08719.415258,E,1,15,0.68,-3.07,M,0.0,M,0.0,0000*57
$GPGSV,3,1,10,5,21,194,21.8,6,45,021,35.4,11,65,302,37.4,12,35,322,34.2*7C
$GPGSV,3,2,10,14,16,143,35.0,17,22,077,28.3,19,40,051,31.4,21,43,173,38.2*72
$GPGSV,3,3,10,22,34,139,37.0,24,22,252,26.5*72
$BDGSV,2,1,5,11,51,349,34.2,12,23,048,23.4,21,23,084,31.1,23,33,304,35.9*5E
$BDGSV,2,2,5,25,58,237,42.2*7B
$GPRMC,053542.42,A,2218.984652,N,08719.415258,E,003.8,314.5,190426,,,A*58
$GPGGA,053543.42,2218.985729,N,08719.415360,E,1,15,0.68,-1.79,M,0.0,M,0.0,0000*5B
$GPGSV,3,1,10,5,21,194,27.6,6,45,021,33.8,11,65,302,34.4,12,35,322,34.3*7C
$GPGSV,3,2,10,14,16,143,26.5,17,22,077,30.4,19,40,051,33.4,21,43,173,35.5*73
$GPGSV,3,3,10,22,34,139,37.2,24,22,252,25.6*70
$BDGSV,2,1,5,11,51,349,37.6,12,23,048,30.3,21,23,084,35.7,23,33,304,38.4*5E
$BDGSV,2,2,5,25,58,237,37.5*7E
$GPRMC,053543.42,A,2218.985729,N,08719.415360,E,003.6,327.3,190426,,,A*57
$GPGGA,053544.42,2218.987386,N,08719.413904,E,1,15,0.68,-9.01,M,0.0,M,0.0,0000*56
$GPGSV,3,1,10,5,21,194,22.5,6,45,021,33.4,11,65,302,36.1,12,35,322,39.7*78
$GPGSV,3,2,10,14,16,143,27.9,17,22,077,27.7,19,40,051,29.9,21,43,173,33.2*7C
$GPGSV,3,3,10,22,34,139,34.2,24,22,252,29.7*7E
$BDGSV,2,1,5,11,51,349,37.9,12,23,048,32.8,21,23,084,32.0,23,33,304,41.9*5B
$BDGSV,2,2,5,25,58,237,40.2*79
$GPRMC,053544.42,A,2218.987386,N,08719.413904,E,004.6,324.5,190426,,,A*5F
$GPGGA,053545.42,2218.987823,N,08719.412481,E,1,10,0.85,-9.15,M,0.0,M,0.0,0000*51
$GPGSV,3,1,10,5,21,194,23.2,6,45,021,34.7,11,65,302,39.8,12,35,322,43.0*76
$GPGSV,3,2,10,14,16,143,25.1,17,22,077,28.3,19,40,051,33.6,21,43,173,34.6*7A
$GPGSV,3,3,10,22,34,139,34.3,24,22,252,27.8*7E
$GPRMC,053545.42,A,2218.987823,N,08719.412481,E,004.5,315.5,190426,,,A*5A
$GPGGA,053547.80,2218.987533,N,08719.404713,E,1,09,0.89,-10.18,M,0.0,M,0.0,0000*6F
$GPGSV,3,1,9,6,45,021,32.0,11,65,302,38.0,12,35,322,39.5,14,16,143,27.5*73
$GPGSV,3,2,9,17,22,077,29.7,19,40,051,31.8,21,43,173,37.9,22,34,139,33.9*40
$GPGSV,3,3,9,24,22,252,27.9*61
$GPRMC,053547.80,A,2218.987533,N,08719.404713,E,006.6,285.6,190426,,,A*5F
$GPGGA,053548.74,2218.988016,N,08719.401514,E,1,06,1.32,-9.39,M,0.0,M,0.0,0000*53
$GPGSV,2,1,6,6,45,021,38.1,11,65,302,39.4,12,35,322,44.0,19,40,051,39.3*79
$GPGSV,2,2,6,21,43,173,35.0,22,34,139,28.6*48
$GPRMC,053548.74,A,2218.988016,N,08719.401514,E,007.5,284.1,190426,,,A*52
$GPGGA,053549.75,2218.989029,N,08719.402463,E,1,06,1.32,-1.87,M,0.0,M,0.0,0000*51
$GPGSV,2,1,6,6,45,021,33.9,11,65,302,39.2,12,35,322,30.1,19,40,051,30.5*71
$GPGSV,2,2,6,21,43,173,30.3,22,34,139,27.4*43
$GPRMC,053549.75,A,2218.989029,N,08719.402463,E,005.3,295.4,190426,,,A*5C
$GPGGA,053550.76,2218.990173,N,08719.402758,E,1,05,1.44,0.33,M,0.0,M,0.0,0000*76
$GPGSV,2,1,5,6,45,021,35.6,11,65,302,36.8,12,35,322,31.4,19,40,051,32.9*74
$GPGSV,2,2,5,21,43,173,29.2*6A
$GPRMC,053550.76,A,2218.990173,N,08719.402758,E,004.4,308.1,190426,,,A*5C
$GPGGA,053551.76,2218.993111,N,08719.403823,E,1,05,1.44,1.30,M,0.0,M,0.0,0000*70
$GPGSV,2,1,5,6,45,021,34.7,11,65,302,35.8,12,35,322,30.1,19,40,051,30.8*70
$GPGSV,2,2,5,21,43,173,27.3*65
$GPRMC,053551.76,A,2218.993111,N,08719.403823,E,005.0,337.0,190426,,,A*50
$GPGGA,053552.77,2218.995729,N,08719.404116,E,1,05,1.46,13.78,M,0.0,M,0.0,0000*4C
$GPGSV,2,1,5,11,65,302,34.0,12,35,322,32.0,19,40,051,27.1,21,43,173,29.0*4B
$GPGSV,2,2,5,22,34,139,30.0*6D
$GPRMC,053552.77,A,2218.995729,N,08719.404116,E,005.8,346.9,190426,,,A*56
$GPGGA,053553.75,2218.989377,N,08719.400064,E,1,05,1.44,23.31,M,0.0,M,0.0,0000*41
$GPGSV,2,1,5,6,45,021,30.8,11,65,302,33.5,12,35,322,33.1,19,40,051,28.3*71
$GPGSV,2,2,5,21,43,173,31.4*65
$GPRMC,053553.75,A,2218.989377,N,08719.400064,E,003.9,265.3,190426,,,A*5A
$GPGGA,053555.67,2218.995059,N,08719.399071,E,1,05,1.44,19.77,M,0.0,M,0.0,0000*4E
$GPGSV,2,1,5,6,45,021,28.8,11,65,302,37.2,12,35,322,32.0,19,40,051,26.4*72
$GPGSV,2,2,5,21,43,172,31.0*60
$GPRMC,053555.67,A,2218.995059,N,08719.399071,E,004.8,319.8,190426,,,A*59
$GPGGA,053556.56,2218.995592,N,08719.398227,E,1,05,1.44,11.39,M,0.0,M,0.0,0000*4F
$GPGSV,2,1,5,6,45,021,31.0,11,65,302,36.3,12,35,322,33.1,19,40,051,32.9*7A
$GPGSV,2,2,5,21,43,172,30.9*68
$GPRMC,053556.56,A,2218.995592,N,08719.398227,E,004.7,316.5,190426,,,A*57
$GPGGA,053558.55,2218.997065,N,08719.393163,E,1,05,1.44,3.51,M,0.0,M,0.0,0000*78
$GPGSV,2,1,5,6,45,021,29.8,11,65,302,35.6,12,35,322,32.3,19,40,051,30.7*72
$GPGSV,2,2,5,21,43,172,26.8*6E
$GPRMC,053558.55,A,2218.997065,N,08719.393163,E,006.0,300.9,190426,,,A*53
