     3.04           N: GNSS NAV DATA    M: MIXED NAV DATA   RINEX VERSION / TYPE
NetR9 5.61          Receiver Operator   20260327 170000 UTC PGM / RUN BY / DATE
GPSA    .2980D-07   .7451D-08  -.1788D-06   .0000D+00       IONOSPHERIC CORR
GPSB    .1331D+06   .0000D+00  -.2621D+06   .2621D+06       IONOSPHERIC CORR
GAL     .1165D+03   .2305D+00   .8392D-02   .0000D+00       IONOSPHERIC CORR
BDSA    .3166D-07   .1565D-06  -.1431D-05   .2205D-05       IONOSPHERIC CORR
BDSB    .1597D+06  -.7537D+06   .3146D+07  -.1507D+07       IONOSPHERIC CORR
GPUT  -.9313225746D-09 -.355271368D-14  61440 2412          TIME SYSTEM CORR
GAUT   .9313225746D-09 -.888178420D-15 432000 2411          TIME SYSTEM CORR
BDUT   .0000000000D+00  .000000000D+00     14 1055          TIME SYSTEM CORR
GAGP   .2357410267D-08 -.177635684D-14 518400 2411          TIME SYSTEM CORR
    18    18  2441     7                                    LEAP SECONDS
This data is provided as a public service by NASA/JPL.      COMMENT
No warranty is expressed or implied regarding suitability   COMMENT
for use.  For further information, contact:                 COMMENT
ggnops at jpl dot nasa dot gov                              COMMENT
                                                            END OF HEADER
G14 2026 03 27 18 00 00  .741001684219D-03  .159161572810D-11  .000000000000D+00
      .174000000000D+03  .286562500000D+02  .530022077547D-08 -.413423285379D+00
      .160001218319D-05  .685759272892D-02  .644102692604D-05  .515364826775D+04
      .496800000000D+06  .763684511185D-07  .604425690950D+00  .726431608200D-07
      .942615320032D+00  .245062500000D+03 -.273735369226D+01 -.842285084555D-08
      .267511142913D-09  .100000000000D+01  .241100000000D+04  .000000000000D+00
      .200000000000D+01  .000000000000D+00 -.838190317154D-08  .430000000000D+03
      .489618000000D+06  .400000000000D+01
G24 2026 03 27 18 00 00 -.631143338978D-04  .171667124960D-10  .000000000000D+00
      .780000000000D+02 -.487187500000D+02  .492484799683D-08  .139696776902D+01
     -.261701643467D-05  .179564934224D-01  .105593353510D-04  .515365271378D+04
      .496800000000D+06 -.387430191040D-06 -.567061873752D+00 -.165775418282D-06
      .935147803494D+00  .165875000000D+03  .113829272902D+01 -.836892002768D-08
      .219652006531D-09  .100000000000D+01  .241100000000D+04  .000000000000D+00
      .200000000000D+01  .000000000000D+00  .232830643654D-08  .780000000000D+02
      .490596000000D+06  .400000000000D+01
G17 2026 03 27 18 00 00 -.983383506536D-04 -.954969436862D-11  .000000000000D+00
      .530000000000D+02  .543750000000D+01  .470519599030D-08 -.310381132689D+01
      .474974513054D-06  .126027382212D-01  .835396349430D-05  .515360566330D+04
      .496800000000D+06  .819563865662D-07  .169351163431D+01  .178813934326D-06
      .958591242727D+00  .214968750000D+03 -.111735567369D+01 -.786889919981D-08
     -.441446959466D-09  .100000000000D+01  .241100000000D+04  .000000000000D+00
      .200000000000D+01  .000000000000D+00 -.111758708954D-07  .530000000000D+02
      .489618000000D+06  .400000000000D+01
G06 2026 03 27 18 00 00 -.612396746874D-03  .682121026330D-12  .000000000000D+00
      .450000000000D+02  .661875000000D+02  .386801826134D-08  .126117074229D+01
      .353157520294D-05  .382466975134D-02  .875256955624D-05  .515365031433D+04
      .496800000000D+06  .372529029846D-07  .270987813774D+01 -.111758708954D-07
      .986826435019D+00  .218906250000D+03 -.546863561325D+00 -.770782106169D-08
     -.152149194768D-09  .100000000000D+01  .241100000000D+04  .000000000000D+00
      .200000000000D+01  .000000000000D+00  .372529029846D-08  .450000000000D+02
      .489618000000D+06  .400000000000D+01
G30 2026 03 27 18 00 00  .166961923242D-03  .130739863380D-10  .000000000000D+00
      .290000000000D+02 -.381875000000D+02  .489413243169D-08  .213882706193D+00
     -.186078250408D-05  .813819421455D-02  .101812183857D-04  .515374662781D+04
      .496800000000D+06 -.223517417908D-07 -.467490445196D+00  .193715095520D-06
      .936453789962D+00  .172218750000D+03 -.230202024770D+01 -.818391232137D-08
      .318584698903D-09  .100000000000D+01  .241100000000D+04  .000000000000D+00
      .200000000000D+01  .000000000000D+00  .419095158577D-08  .290000000000D+02
      .489618000000D+06  .400000000000D+01
G03 2026 03 27 18 00 00  .525050330907D-03 -.136424205266D-10  .000000000000D+00
      .660000000000D+02  .270312500000D+02  .401338145916D-08 -.361214998512D-01
      .143237411976D-05  .659482541960D-02  .307895243168D-05  .515361303329D+04
      .496800000000D+06 -.912696123123D-07 -.253702388047D+01  .931322574615D-07
      .993752627980D+00  .336125000000D+03  .120333615441D+01 -.819176979152D-08
      .610739725475D-10  .100000000000D+01  .241100000000D+04  .000000000000D+00
      .200000000000D+01  .000000000000D+00  .139698386192D-08  .660000000000D+02
      .489618000000D+06  .400000000000D+01
G22 2026 03 27 17 59 44 -.277706421912D-04  .568434188608D-11  .000000000000D+00
      .900000000000D+01  .305625000000D+02  .484913055718D-08 -.245812514772D+01
      .180490314960D-05  .120494292350D-01  .638142228127D-05  .515361620903D+04
      .496784000000D+06 -.372529029846D-08  .679740499703D+00  .210478901863D-06
      .957806120927D+00  .252250000000D+03 -.993854490966D+00 -.796140305296D-08
      .237509893240D-09  .100000000000D+01  .241100000000D+04  .000000000000D+00
      .200000000000D+01  .000000000000D+00 -.111758708954D-07  .900000000000D+01
      .489618000000D+06  .400000000000D+01
G19 2026 03 27 18 00 00  .695162918419D-03  .125055521494D-11  .000000000000D+00
      .780000000000D+02  .278125000000D+01  .477805616808D-08 -.131619242689D+01
      .109896063805D-06  .112484014826D-01  .840984284878D-05  .515372334671D+04
      .496800000000D+06 -.502914190292D-07  .173740152906D+01 -.156462192535D-06
      .957762815626D+00  .216593750000D+03  .294176186803D+01 -.812783855710D-08
     -.280368821344D-09  .100000000000D+01  .241100000000D+04  .000000000000D+00
      .200000000000D+01  .000000000000D+00 -.153668224812D-07  .780000000000D+02
      .489618000000D+06  .400000000000D+01
G01 2026 03 27 18 00 00  .309696421027D-03 -.727595761418D-11  .000000000000D+00
      .155000000000D+03  .922187500000D+02  .450875923649D-08  .205649762828D+01
      .482797622681D-05  .165333866607D-02  .872276723385D-05  .515362621689D+04
      .496800000000D+06 -.111758708954D-07  .275864271837D+01  .800937414169D-07
      .957988621420D+00  .209156250000D+03  .126220073024D+00 -.809998025383D-08
     -.250010413937D-10  .100000000000D+01  .241100000000D+04  .000000000000D+00
      .200000000000D+01  .000000000000D+00 -.931322574615D-08  .155000000000D+03
      .489618000000D+06  .400000000000D+01
C25 2026 03 27 16 00 00  .907144974917D-03 -.965183488688D-11  .000000000000D+00
      .100000000000D+01  .181406250000D+02  .419196032626D-08  .201105621236D+01
      .981613993645D-06  .593024073169D-03  .894768163562D-05  .528266148949D+04
      .489600000000D+06 -.451691448689D-07  .745476559748D-01 -.209547579288D-07
      .946036555843D+00  .171453125000D+03  .804455202228D+00 -.685921428524D-08
      .492877673191D-09  .000000000000D+00  .105500000000D+04  .000000000000D+00
      .200000000000D+01  .000000000000D+00  .299999997067D-09  .300000000000D-09
      .489600000000D+06  .100000000000D+01
C12 2026 03 27 16 00 00  .203778501600D-03  .351452200675D-10  .691178884960D-18
      .140000000000D+02  .570156250000D+02  .352478967878D-08  .312844283261D+01
      .292388722301D-05  .937788048759D-03  .106524676085D-04  .528265291786D+04
      .489600000000D+06 -.745058059692D-08  .222293430678D+01  .479631125927D-07
      .972422682588D+00  .150375000000D+03 -.121969561034D+01 -.660420366302D-08
     -.382515933324D-09  .000000000000D+00  .105500000000D+04  .000000000000D+00
      .200000000000D+01  .100000000000D+01  .300000002618D-08  .300000000000D-09
      .492090000000D+06  .130000000000D+02
C21 2026 03 27 16 00 00 -.865107984282D-03  .328004290395D-11  .000000000000D+00
      .100000000000D+01 -.783593750000D+02  .347835917334D-08  .614944635164D+00
     -.388594344258D-05  .914478325285D-03  .222167000175D-05  .528263429260D+04
      .489600000000D+06  .484287738800D-07 -.198398292812D+01  .516884028912D-07
      .987228206452D+00  .329359375000D+03 -.426822595331D+00 -.697957644166D-08
     -.860750139413D-10  .000000000000D+00  .105500000000D+04  .000000000000D+00
      .200000000000D+01  .000000000000D+00  .111000000302D-07  .111000000000D-07
      .491460000000D+06  .100000000000D+01
C11 2026 03 27 16 00 00 -.176276080310D-04  .144311229633D-10 -.149077798717D-18
      .110000000000D+02  .518593750000D+02  .351550357769D-08  .250293879038D+01
      .278651714325D-05  .180385936983D-02  .100391916931D-04  .528264699745D+04
      .489600000000D+06  .386498868465D-07  .223654167879D+01 -.102445483208D-07
      .974163960331D+00  .160656250000D+03 -.138954630953D+01 -.658848872272D-08
     -.406088343781D-09  .000000000000D+00  .105500000000D+04  .000000000000D+00
      .200000000000D+01  .000000000000D+00  .379999987032D-08  .190000000000D-08
      .489600000000D+06  .100000000000D+02
C28 2026 03 27 16 00 00  .499649555422D-03  .449240644684D-11  .000000000000D+00
      .100000000000D+01  .430312500000D+02  .394873590927D-08 -.786985119375D-01
      .212807208300D-05  .101292622276D-03  .904221087694D-05  .528263543892D+04
      .489600000000D+06 -.698491930962D-08  .219319829512D+01  .745058059692D-08
      .949107387664D+00  .172890625000D+03 -.624579605276D-01 -.682885587783D-08
     -.383587406527D-09  .000000000000D+00  .105500000000D+04  .000000000000D+00
      .200000000000D+01  .000000000000D+00 -.479999995306D-08 -.480000000000D-08
      .489600000000D+06  .100000000000D+01
C23 2026 03 27 16 00 00 -.474178465083D-03  .415845136104D-11  .000000000000D+00
      .100000000000D+01  .215625000000D+02  .425267714107D-08  .255453317831D+01
      .995583832264D-06  .145539641380D-03  .862404704094D-05  .528264721680D+04
      .489600000000D+06 -.353902578354D-07  .973497548480D-01  .442378222942D-07
      .944430536580D+00  .174281250000D+03 -.485678746218D+00 -.693314593621D-08
      .485734518507D-09  .000000000000D+00  .105500000000D+04  .000000000000D+00
      .200000000000D+01  .000000000000D+00  .220000000439D-07  .220000000000D-07
      .489600000000D+06  .100000000000D+01
E15 2026 03 27 16 40 00 -.246038776822D-03 -.285638179776D-11  .000000000000D+00
      .580000000000D+02  .154937500000D+03  .251367613327D-08  .217854814486D+01
      .712648034096D-05  .369211193174D-03  .847876071930D-05  .544061387253D+04
      .492000000000D+06 -.745058059692D-08  .287203608513D+01  .167638063431D-07
      .998452574152D+00  .176531250000D+03 -.416691401944D+00 -.537093800684D-08
      .760745973838D-10  .513000000000D+03  .241100000000D+04
      .312000000000D+01  .000000000000D+00  .442378222942D-08  .488944351673D-08
      .492685000000D+06
E15 2026 03 27 16 40 00 -.246039824560D-03 -.285638179776D-11  .000000000000D+00
      .580000000000D+02  .154937500000D+03  .251367613327D-08  .217854814486D+01
      .712648034096D-05  .369211193174D-03  .847876071930D-05  .544061387253D+04
      .492000000000D+06 -.745058059692D-08  .287203608513D+01  .167638063431D-07
      .998452574152D+00  .176531250000D+03 -.416691401944D+00 -.537093800684D-08
      .760745973838D-10  .258000000000D+03  .241100000000D+04
      .312000000000D+01  .000000000000D+00  .442378222942D-08  .000000000000D+00
      .492720000000D+06
E15 2026 03 27 16 40 00 -.246038776822D-03 -.285638179776D-11  .000000000000D+00
      .580000000000D+02  .154937500000D+03  .251367613327D-08  .217854814486D+01
      .712648034096D-05  .369211193174D-03  .847876071930D-05  .544061387253D+04
      .492000000000D+06 -.745058059692D-08  .287203608513D+01  .167638063431D-07
      .998452574152D+00  .176531250000D+03 -.416691401944D+00 -.537093800684D-08
      .760745973838D-10  .516000000000D+03  .241100000000D+04
      .312000000000D+01  .000000000000D+00  .442378222942D-08  .488944351673D-08
      .492664000000D+06
E26 2026 03 27 16 30 00  .259030435700D-03  .108144604383D-10  .000000000000D+00
      .570000000000D+02  .115781250000D+03  .262225208447D-08  .705885227410D+00
      .545941293240D-05  .257236766629D-03  .833161175251D-05  .544060704613D+04
      .491400000000D+06 -.279396772385D-07  .286917873549D+01 -.838190317154D-07
      .991782769288D+00  .169906250000D+03 -.603694041731D+00 -.540808241120D-08
     -.321441960776D-10  .513000000000D+03  .241100000000D+04
      .312000000000D+01  .000000000000D+00 -.605359673500D-08 -.651925802231D-08
      .492085000000D+06
E26 2026 03 27 16 30 00  .259030319285D-03  .108144604383D-10  .000000000000D+00
      .570000000000D+02  .115781250000D+03  .262225208447D-08  .705885227410D+00
      .545941293240D-05  .257236766629D-03  .833161175251D-05  .544060704613D+04
      .491400000000D+06 -.279396772385D-07  .286917873549D+01 -.838190317154D-07
      .991782769288D+00  .169906250000D+03 -.603694041731D+00 -.540808241120D-08
     -.321441960776D-10  .258000000000D+03  .241100000000D+04
      .312000000000D+01  .000000000000D+00 -.605359673500D-08  .000000000000D+00
      .492120000000D+06
E26 2026 03 27 16 30 00  .259030435700D-03  .108144604383D-10  .000000000000D+00
      .570000000000D+02  .115781250000D+03  .262225208447D-08  .705885227410D+00
      .545941293240D-05  .257236766629D-03  .833161175251D-05  .544060704613D+04
      .491400000000D+06 -.279396772385D-07  .286917873549D+01 -.838190317154D-07
      .991782769288D+00  .169906250000D+03 -.603694041731D+00 -.540808241120D-08
     -.321441960776D-10  .516000000000D+03  .241100000000D+04
      .312000000000D+01  .000000000000D+00 -.605359673500D-08 -.651925802231D-08
      .492064000000D+06
E33 2026 03 27 16 10 00 -.863126479089D-05 -.125055521494D-11  .000000000000D+00
      .550000000000D+02  .111562500000D+03  .242545817293D-08 -.482040986828D-01
      .515580177307D-05  .165506848134D-03  .828877091408D-05  .544061482620D+04
      .490200000000D+06 -.502914190292D-07  .287210465357D+01 -.223517417908D-07
      .998515302616D+00  .180531250000D+03 -.764413236994D+00 -.528914888571D-08
     -.160720980388D-10  .513000000000D+03  .241100000000D+04
      .360000000000D+01  .000000000000D+00 -.582076609135D-08 -.628642737865D-08
      .492805000000D+06
E33 2026 03 27 16 10 00 -.863126479089D-05 -.126476606965D-11  .000000000000D+00
      .550000000000D+02  .111562500000D+03  .242545817293D-08 -.482040986828D-01
      .515580177307D-05  .165506848134D-03  .828877091408D-05  .544061482620D+04
      .490200000000D+06 -.502914190292D-07  .287210465357D+01 -.223517417908D-07
      .998515302616D+00  .180531250000D+03 -.764413236994D+00 -.528914888571D-08
     -.160720980388D-10  .258000000000D+03  .241100000000D+04
      .360000000000D+01  .000000000000D+00 -.582076609135D-08  .000000000000D+00
      .492820000000D+06
E33 2026 03 27 16 10 00 -.863126479089D-05 -.125055521494D-11  .000000000000D+00
      .550000000000D+02  .111562500000D+03  .242545817293D-08 -.482040986828D-01
      .515580177307D-05  .165506848134D-03  .828877091408D-05  .544061482620D+04
      .490200000000D+06 -.502914190292D-07  .287210465357D+01 -.223517417908D-07
      .998515302616D+00  .180531250000D+03 -.764413236994D+00 -.528914888571D-08
     -.160720980388D-10  .516000000000D+03  .241100000000D+04
      .360000000000D+01  .000000000000D+00 -.582076609135D-08 -.628642737865D-08
      .492784000000D+06
E27 2026 03 27 16 40 00 -.944870582316D-03 -.104876107798D-10  .000000000000D+00
      .580000000000D+02  .387187500000D+02  .359443543695D-08  .244386379719D+01
      .181049108505D-05  .209511257708D-03  .572390854359D-05  .544059604263D+04
      .492000000000D+06 -.204890966415D-07  .773073943164D+00 -.745058059692D-08
      .961755730564D+00  .220781250000D+03  .642886667450D+00 -.568809407481D-08
      .133576992589D-09  .513000000000D+03  .241100000000D+04
      .312000000000D+01  .000000000000D+00  .232830643654D-09  .465661287308D-09
      .492685000000D+06
E27 2026 03 27 16 40 00 -.944871571846D-03 -.105018216345D-10  .000000000000D+00
      .580000000000D+02  .387187500000D+02  .359443543695D-08  .244386379719D+01
      .181049108505D-05  .209511257708D-03  .572390854359D-05  .544059604263D+04
      .492000000000D+06 -.204890966415D-07  .773073943164D+00 -.745058059692D-08
      .961755730564D+00  .220781250000D+03  .642886667450D+00 -.568809407481D-08
      .133576992589D-09  .258000000000D+03  .241100000000D+04
      .312000000000D+01  .000000000000D+00  .232830643654D-09  .000000000000D+00
      .492720000000D+06
E27 2026 03 27 16 40 00 -.944870582316D-03 -.104876107798D-10  .000000000000D+00
      .580000000000D+02  .387187500000D+02  .359443543695D-08  .244386379719D+01
      .181049108505D-05  .209511257708D-03  .572390854359D-05  .544059604263D+04
      .492000000000D+06 -.204890966415D-07  .773073943164D+00 -.745058059692D-08
      .961755730564D+00  .220781250000D+03  .642886667450D+00 -.568809407481D-08
      .133576992589D-09  .516000000000D+03  .241100000000D+04
      .312000000000D+01  .000000000000D+00  .232830643654D-09  .465661287308D-09
      .492664000000D+06
E21 2026 03 27 16 40 00 -.731001375243D-03 -.274269496003D-11  .000000000000D+00
      .580000000000D+02  .376562500000D+02  .357764902344D-08  .819168982110D+00
      .183843076229D-05  .150408712216D-03  .564754009247D-05  .544059546280D+04
      .492000000000D+06 -.335276126862D-07  .773111417274D+00  .558793544769D-08
      .961783758611D+00  .218718750000D+03  .146841401087D+01 -.570952353886D-08
      .173221501085D-09  .513000000000D+03  .241100000000D+04
      .312000000000D+01  .000000000000D+00  .465661287308D-09  .698491930962D-09
      .492685000000D+06
E21 2026 03 27 16 40 00 -.731002248358D-03 -.274269496003D-11  .000000000000D+00
      .580000000000D+02  .376562500000D+02  .357764902344D-08  .819168982110D+00
      .183843076229D-05  .150408712216D-03  .564754009247D-05  .544059546280D+04
      .492000000000D+06 -.335276126862D-07  .773111417274D+00  .558793544769D-08
      .961783758611D+00  .218718750000D+03  .146841401087D+01 -.570952353886D-08
      .173221501085D-09  .258000000000D+03  .241100000000D+04
      .312000000000D+01  .000000000000D+00  .465661287308D-09  .000000000000D+00
      .492720000000D+06
E21 2026 03 27 16 40 00 -.731001375243D-03 -.274269496003D-11  .000000000000D+00
      .580000000000D+02  .376562500000D+02  .357764902344D-08  .819168982110D+00
      .183843076229D-05  .150408712216D-03  .564754009247D-05  .544059546280D+04
      .492000000000D+06 -.335276126862D-07  .773111417274D+00  .558793544769D-08
      .961783758611D+00  .218718750000D+03  .146841401087D+01 -.570952353886D-08
      .173221501085D-09  .516000000000D+03  .241100000000D+04
      .312000000000D+01  .000000000000D+00  .465661287308D-09  .698491930962D-09
      .492664000000D+06
E23 2026 03 27 16 40 00 -.296648358926D-04 -.127897692437D-11  .000000000000D+00
      .580000000000D+02  .356562500000D+02  .353550441081D-08 -.584683794335D+00
      .156648457050D-05  .299246283248D-03  .544451177120D-05  .544060018158D+04
      .492000000000D+06  .111758708954D-07  .769752168228D+00  .614672899246D-07
      .963708650128D+00  .221187500000D+03  .208297422335D+01 -.574702510095D-08
      .176793078427D-09  .513000000000D+03  .241100000000D+04
      .312000000000D+01  .000000000000D+00 -.465661287308D-09  .931322574615D-09
      .492685000000D+06
E23 2026 03 27 16 40 00 -.296666403301D-04 -.126476606965D-11  .000000000000D+00
      .580000000000D+02  .356562500000D+02  .353550441081D-08 -.584683794335D+00
      .156648457050D-05  .299246283248D-03  .544451177120D-05  .544060018158D+04
      .492000000000D+06  .111758708954D-07  .769752168228D+00  .614672899246D-07
      .963708650128D+00  .221187500000D+03  .208297422335D+01 -.574702510095D-08
      .176793078427D-09  .258000000000D+03  .241100000000D+04
      .312000000000D+01  .000000000000D+00 -.465661287308D-09  .000000000000D+00
      .492720000000D+06
E23 2026 03 27 16 40 00 -.296648358926D-04 -.127897692437D-11  .000000000000D+00
      .580000000000D+02  .356562500000D+02  .353550441081D-08 -.584683794335D+00
      .156648457050D-05  .299246283248D-03  .544451177120D-05  .544060018158D+04
      .492000000000D+06  .111758708954D-07  .769752168228D+00  .614672899246D-07
      .963708650128D+00  .221187500000D+03  .208297422335D+01 -.574702510095D-08
      .176793078427D-09  .516000000000D+03  .241100000000D+04
      .312000000000D+01  .000000000000D+00 -.465661287308D-09  .931322574615D-09
      .492664000000D+06
E13 2026 03 27 16 40 00 -.512078986503D-04 -.767386154621D-12  .000000000000D+00
      .580000000000D+02  .140968750000D+03  .247724604438D-08  .120708892549D+01
      .674836337566D-05  .349560868926D-03  .906921923161D-05  .544061919785D+04
      .492000000000D+06  .949949026108D-07  .287212515783D+01 -.372529029846D-08
      .998496818646D+00  .160062500000D+03 -.247306846969D+00 -.541486840815D-08
      .507163982558D-10  .513000000000D+03  .241100000000D+04
      .312000000000D+01  .000000000000D+00  .325962901115D-08  .372529029846D-08
      .492685000000D+06
E13 2026 03 27 16 40 00 -.512088881806D-04 -.781597009336D-12  .000000000000D+00
      .580000000000D+02  .140968750000D+03  .247724604438D-08  .120708892549D+01
      .674836337566D-05  .349560868926D-03  .906921923161D-05  .544061919785D+04
      .492000000000D+06  .949949026108D-07  .287212515783D+01 -.372529029846D-08
      .998496818646D+00  .160062500000D+03 -.247306846969D+00 -.541486840815D-08
      .507163982558D-10  .258000000000D+03  .241100000000D+04
      .312000000000D+01  .000000000000D+00  .325962901115D-08  .000000000000D+00
      .492720000000D+06
E13 2026 03 27 16 40 00 -.512078986503D-04 -.767386154621D-12  .000000000000D+00
      .580000000000D+02  .140968750000D+03  .247724604438D-08  .120708892549D+01
      .674836337566D-05  .349560868926D-03  .906921923161D-05  .544061919785D+04
      .492000000000D+06  .949949026108D-07  .287212515783D+01 -.372529029846D-08
      .998496818646D+00  .160062500000D+03 -.247306846969D+00 -.541486840815D-08
      .507163982558D-10  .516000000000D+03  .241100000000D+04
      .312000000000D+01  .000000000000D+00  .325962901115D-08  .372529029846D-08
      .492664000000D+06
C21 2026 03 27 17 00 00 -.865096226335D-03  .327027294134D-11  .000000000000D+00
      .100000000000D+01 -.850781250000D+02  .349585990231D-08  .110341973027D+01
     -.416813418269D-05  .914002885111D-03  .231852754951D-05  .528263243103D+04
      .493200000000D+06  .251457095146D-07 -.198400787087D+01  .991858541965D-07
      .987228044068D+00  .327109375000D+03 -.427734541889D+00 -.694350351051D-08
     -.110004582132D-09  .000000000000D+00  .105500000000D+04  .000000000000D+00
      .200000000000D+01  .000000000000D+00  .111000000302D-07  .111000000000D-07
      .493200000000D+06  .100000000000D+01
C28 2026 03 27 17 00 00  .499665853567D-03  .450484094472D-11  .000000000000D+00
      .100000000000D+01  .337968750000D+02  .403016787267D-08  .416797425469D+00
      .172806903720D-05  .993256689981D-04  .958563759923D-05  .528263129807D+04
      .493200000000D+06 -.102445483208D-07  .219317369177D+01 -.139698386192D-08
      .949105971559D+00  .160375000000D+03 -.703892440403D-01 -.683635619025D-08
     -.381087302387D-09  .000000000000D+00  .105500000000D+04  .000000000000D+00
      .200000000000D+01  .000000000000D+00 -.479999995306D-08 -.480000000000D-08
      .493200000000D+06  .100000000000D+01
C11 2026 03 27 17 00 00 -.175755703822D-04  .144302347849D-10 -.149077798717D-18
      .120000000000D+02  .527343750000D+02  .348871674763D-08  .299027411870D+01
      .282051041722D-05  .180197542068D-02  .108322128654D-04  .528265075684D+04
      .493200000000D+06  .353902578354D-07  .223651776886D+01  .381842255592D-07
      .974162503264D+00  .146625000000D+03 -.138932188619D+01 -.658741724951D-08
     -.371444043564D-09  .000000000000D+00  .105500000000D+04  .000000000000D+00
      .200000000000D+01  .000000000000D+00  .379999987032D-08  .190000000000D-08
      .493200000000D+06  .110000000000D+02
C25 2026 03 27 17 00 00  .907110283151D-03 -.965272306530D-11  .000000000000D+00
      .100000000000D+01  .173281250000D+02  .415838749925D-08  .249896480707D+01
      .920612365007D-06  .593305681832D-03  .914279371500D-05  .528266081429D+04
      .493200000000D+06  .791624188423D-08  .745230131198D-01 -.298023223877D-07
      .946038527856D+00  .169046875000D+03  .804104793849D+00 -.681849830354D-08
      .495734935064D-09  .000000000000D+00  .105500000000D+04  .000000000000D+00
      .200000000000D+01  .000000000000D+00  .299999997067D-09  .300000000000D-09
      .493200000000D+06  .100000000000D+01
C12 2026 03 27 17 00 00  .203904230148D-03  .351363382833D-10  .650521303491D-18
      .150000000000D+02  .694375000000D+02  .358479217813D-08 -.266795435953D+01
      .339979305863D-05  .939305755310D-03  .106655061245D-04  .528264965820D+04
      .493200000000D+06 -.405125319958D-07  .222291037197D+01  .172294676304D-07
      .972421420090D+00  .150093750000D+03 -.121892537080D+01 -.657598820202D-08
     -.359300680601D-09  .000000000000D+00  .105500000000D+04  .000000000000D+00
      .200000000000D+01  .100000000000D+01  .300000002618D-08  .300000000000D-09
      .493200000000D+06  .140000000000D+02
C23 2026 03 27 17 00 00 -.474163563922D-03  .415489864736D-11  .000000000000D+00
      .100000000000D+01  .210312500000D+02  .417410243955D-08  .304202355107D+01
      .110128894448D-05  .145488767885D-03  .867713242769D-05  .528264730453D+04
      .493200000000D+06  .605359673500D-08  .973244814753D-01 -.502914190292D-07
      .944432567110D+00  .174406250000D+03 -.485606546822D+00 -.685992860070D-08
      .508949771229D-09  .000000000000D+00  .105500000000D+04  .000000000000D+00
      .200000000000D+01  .000000000000D+00  .220000000439D-07  .220000000000D-07
      .493200000000D+06  .100000000000D+01
E21 2026 03 27 16 50 00 -.731003005058D-03 -.274269496003D-11  .000000000000D+00
      .590000000000D+02  .375937500000D+02  .357229165743D-08  .893475181993D+00
      .184215605259D-05  .150410458446D-03  .565685331821D-05  .544059548569D+04
      .492600000000D+06 -.279396772385D-07  .773107964787D+00  .186264514923D-08
      .961783881496D+00  .218812500000D+03  .146849421828D+01 -.570559480378D-08
      .173935816553D-09  .516000000000D+03  .241100000000D+04
      .312000000000D+01  .000000000000D+00  .465661287308D-09  .698491930962D-09
      .493264000000D+06
E15 2026 03 27 16 50 00 -.246040464845D-03 -.285638179776D-11  .000000000000D+00
      .590000000000D+02  .154531250000D+03  .251367613327D-08  .225288455254D+01
      .709481537342D-05  .369165674783D-03  .847689807415D-05  .544061396790D+04
      .492600000000D+06 -.931322574615D-08  .287203283307D+01  .111758708954D-07
      .998452622428D+00  .176531250000D+03 -.416642799416D+00 -.536843790270D-08
      .778603860547D-10  .516000000000D+03  .241100000000D+04
      .312000000000D+01  .000000000000D+00  .442378222942D-08  .488944351673D-08
      .493264000000D+06
E13 2026 03 27 16 50 00 -.512083643116D-04 -.781597009336D-12  .000000000000D+00
      .590000000000D+02  .141000000000D+03  .248474635680D-08  .128170015696D+01
      .674463808537D-05  .349583802745D-03  .906549394131D-05  .544061903763D+04
      .492600000000D+06  .894069671631D-07  .287212185602D+01  .931322574615D-08
      .998496808406D+00  .160781250000D+03 -.247533404703D+00 -.541379693494D-08
      .592881838765D-10  .516000000000D+03  .241100000000D+04
      .312000000000D+01  .000000000000D+00  .325962901115D-08  .372529029846D-08
      .493264000000D+06
E23 2026 03 27 16 50 00 -.296657090075D-04 -.129318777908D-11  .000000000000D+00
      .590000000000D+02  .364375000000D+02  .353050420253D-08 -.510253525833D+00
      .162422657013D-05  .299145234749D-03  .542774796486D-05  .544059997749D+04
      .492600000000D+06  .000000000000D+00  .769748648447D+00  .577419996262D-07
      .963708746680D+00  .221406250000D+03  .208293008126D+01 -.574166773494D-08
      .182864759908D-09  .516000000000D+03  .241100000000D+04
      .312000000000D+01  .000000000000D+00 -.465661287308D-09  .931322574615D-09
      .493264000000D+06
E27 2026 03 27 16 50 00 -.944876752328D-03 -.104876107798D-10  .000000000000D+00
      .590000000000D+02  .392812500000D+02  .358979238640D-08  .251825166594D+01
      .181794166565D-05  .209445366636D-03  .572204589844D-05  .544059617233D+04
      .492600000000D+06 -.204890966415D-07  .773070530176D+00 -.931322574615D-08
      .961755802247D+00  .220937500000D+03  .642885226476D+00 -.568916554801D-08
      .134291308058D-09  .516000000000D+03  .241100000000D+04
      .312000000000D+01  .000000000000D+00  .232830643654D-09  .465661287308D-09
      .493264000000D+06
E23 2026 03 27 16 50 00 -.296657090075D-04 -.129318777908D-11  .000000000000D+00
      .590000000000D+02  .364375000000D+02  .353050420253D-08 -.510253525833D+00
      .162422657013D-05  .299145234749D-03  .542774796486D-05  .544059997749D+04
      .492600000000D+06  .000000000000D+00  .769748648447D+00  .577419996262D-07
      .963708746680D+00  .221406250000D+03  .208293008126D+01 -.574166773494D-08
      .182864759908D-09  .513000000000D+03  .241100000000D+04
      .312000000000D+01  .000000000000D+00 -.465661287308D-09  .931322574615D-09
      .493285000000D+06
E21 2026 03 27 16 50 00 -.731003005058D-03 -.274269496003D-11  .000000000000D+00
      .590000000000D+02  .375937500000D+02  .357229165743D-08  .893475181993D+00
      .184215605259D-05  .150410458446D-03  .565685331821D-05  .544059548569D+04
      .492600000000D+06 -.279396772385D-07  .773107964787D+00  .186264514923D-08
      .961783881496D+00  .218812500000D+03  .146849421828D+01 -.570559480378D-08
      .173935816553D-09  .513000000000D+03  .241100000000D+04
      .312000000000D+01  .000000000000D+00  .465661287308D-09  .698491930962D-09
      .493285000000D+06
E13 2026 03 27 16 50 00 -.512083643116D-04 -.781597009336D-12  .000000000000D+00
      .590000000000D+02  .141000000000D+03  .248474635680D-08  .128170015696D+01
      .674463808537D-05  .349583802745D-03  .906549394131D-05  .544061903763D+04
      .492600000000D+06  .894069671631D-07  .287212185602D+01  .931322574615D-08
      .998496808406D+00  .160781250000D+03 -.247533404703D+00 -.541379693494D-08
      .592881838765D-10  .513000000000D+03  .241100000000D+04
      .312000000000D+01  .000000000000D+00  .325962901115D-08  .372529029846D-08
      .493285000000D+06
E15 2026 03 27 16 50 00 -.246040464845D-03 -.285638179776D-11  .000000000000D+00
      .590000000000D+02  .154531250000D+03  .251367613327D-08  .225288455254D+01
      .709481537342D-05  .369165674783D-03  .847689807415D-05  .544061396790D+04
      .492600000000D+06 -.931322574615D-08  .287203283307D+01  .111758708954D-07
      .998452622428D+00  .176531250000D+03 -.416642799416D+00 -.536843790270D-08
      .778603860547D-10  .513000000000D+03  .241100000000D+04
      .312000000000D+01  .000000000000D+00  .442378222942D-08  .488944351673D-08
      .493285000000D+06
E27 2026 03 27 16 50 00 -.944876752328D-03 -.104876107798D-10  .000000000000D+00
      .590000000000D+02  .392812500000D+02  .358979238640D-08  .251825166594D+01
      .181794166565D-05  .209445366636D-03  .572204589844D-05  .544059617233D+04
      .492600000000D+06 -.204890966415D-07  .773070530176D+00 -.931322574615D-08
      .961755802247D+00  .220937500000D+03  .642885226476D+00 -.568916554801D-08
      .134291308058D-09  .513000000000D+03  .241100000000D+04
      .312000000000D+01  .000000000000D+00  .232830643654D-09  .465661287308D-09
      .493285000000D+06
E21 2026 03 27 16 50 00 -.731003878172D-03 -.274269496003D-11  .000000000000D+00
      .590000000000D+02  .375937500000D+02  .357229165743D-08  .893475181993D+00
      .184215605259D-05  .150410458446D-03  .565685331821D-05  .544059548569D+04
      .492600000000D+06 -.279396772385D-07  .773107964787D+00  .186264514923D-08
      .961783881496D+00  .218812500000D+03  .146849421828D+01 -.570559480378D-08
      .173935816553D-09  .258000000000D+03  .241100000000D+04
      .312000000000D+01  .000000000000D+00  .465661287308D-09  .000000000000D+00
      .493320000000D+06
E15 2026 03 27 16 50 00 -.246041512582D-03 -.285638179776D-11  .000000000000D+00
      .590000000000D+02  .154531250000D+03  .251367613327D-08  .225288455254D+01
      .709481537342D-05  .369165674783D-03  .847689807415D-05  .544061396790D+04
      .492600000000D+06 -.931322574615D-08  .287203283307D+01  .111758708954D-07
      .998452622428D+00  .176531250000D+03 -.416642799416D+00 -.536843790270D-08
      .778603860547D-10  .258000000000D+03  .241100000000D+04
      .312000000000D+01  .000000000000D+00  .442378222942D-08  .000000000000D+00
      .493320000000D+06
E27 2026 03 27 16 50 00 -.944877800066D-03 -.105018216345D-10  .000000000000D+00
      .590000000000D+02  .392812500000D+02  .358979238640D-08  .251825166594D+01
      .181794166565D-05  .209445366636D-03  .572204589844D-05  .544059617233D+04
      .492600000000D+06 -.204890966415D-07  .773070530176D+00 -.931322574615D-08
      .961755802247D+00  .220937500000D+03  .642885226476D+00 -.568916554801D-08
      .134291308058D-09  .258000000000D+03  .241100000000D+04
      .312000000000D+01  .000000000000D+00  .232830643654D-09  .000000000000D+00
      .493320000000D+06
E23 2026 03 27 16 50 00 -.296675134450D-04 -.127897692437D-11  .000000000000D+00
      .590000000000D+02  .364375000000D+02  .353050420253D-08 -.510253525833D+00
      .162422657013D-05  .299145234749D-03  .542774796486D-05  .544059997749D+04
      .492600000000D+06  .000000000000D+00  .769748648447D+00  .577419996262D-07
      .963708746680D+00  .221406250000D+03  .208293008126D+01 -.574166773494D-08
      .182864759908D-09  .258000000000D+03  .241100000000D+04
      .312000000000D+01  .000000000000D+00 -.465661287308D-09  .000000000000D+00
      .493320000000D+06
E13 2026 03 27 16 50 00 -.512094120495D-04 -.781597009336D-12  .000000000000D+00
      .590000000000D+02  .141000000000D+03  .248474635680D-08  .128170015696D+01
      .674463808537D-05  .349583802745D-03  .906549394131D-05  .544061903763D+04
      .492600000000D+06  .894069671631D-07  .287212185602D+01  .931322574615D-08
      .998496808406D+00  .160781250000D+03 -.247533404703D+00 -.541379693494D-08
      .592881838765D-10  .258000000000D+03  .241100000000D+04
      .312000000000D+01  .000000000000D+00  .325962901115D-08  .000000000000D+00
      .493320000000D+06
G11 2026 03 27 18 00 00 -.393061432987D-03  .128466126625D-10  .000000000000D+00
      .130000000000D+02  .697187500000D+02  .430625080120D-08  .238873985608D+01
      .357255339622D-05  .221328600310D-02  .876002013683D-05  .515358829498D+04
      .496800000000D+06 -.391155481339D-07  .272811617797D+01 -.558793544769D-07
      .963703072021D+00  .211312500000D+03 -.231389038986D+01 -.792461580634D-08
     -.100004165575D-09  .100000000000D+01  .241100000000D+04  .000000000000D+00
      .200000000000D+01  .000000000000D+00 -.884756445885D-08  .269000000000D+03
      .493746000000D+06  .400000000000D+01
E15 2026 03 27 17 00 00 -.246042211074D-03 -.285638179776D-11  .000000000000D+00
      .600000000000D+02  .153562500000D+03  .251117602913D-08  .232719370020D+01
      .704079866409D-05  .369041692466D-03  .846013426781D-05  .544061421967D+04
      .493200000000D+06 -.931322574615D-08  .287202959270D+01  .931322574615D-08
      .998452672167D+00  .176812500000D+03 -.416566875431D+00 -.536665211403D-08
      .789318592573D-10  .516000000000D+03  .241100000000D+04
      .312000000000D+01  .000000000000D+00  .442378222942D-08  .488944351673D-08
      .493864000000D+06
E13 2026 03 27 17 00 00 -.512088881806D-04 -.781597009336D-12  .000000000000D+00
      .600000000000D+02  .141406250000D+03  .249403245789D-08  .135651173799D+01
      .675022602081D-05  .349645502865D-03  .903569161892D-05  .544061872101D+04
      .493200000000D+06  .819563865662D-07  .287211855275D+01  .223517417908D-07
      .998496805480D+00  .162093750000D+03 -.247960366122D+00 -.541201114627D-08
      .675028117631D-10  .516000000000D+03  .241100000000D+04
      .312000000000D+01  .000000000000D+00  .325962901115D-08  .372529029846D-08
      .493864000000D+06
E23 2026 03 27 17 00 00 -.296665239148D-04 -.129318777908D-11  .000000000000D+00
      .600000000000D+02  .371875000000D+02  .352514683652D-08 -.435802217643D+00
      .168010592461D-05  .299050821923D-03  .541843473911D-05  .544059978676D+04
      .493200000000D+06 -.111758708954D-07  .769745134517D+00  .502914190292D-07
      .963708850548D+00  .221531250000D+03  .208286491118D+01 -.573595321119D-08
      .188222125921D-09  .516000000000D+03  .241100000000D+04
      .312000000000D+01  .000000000000D+00 -.465661287308D-09  .931322574615D-09
      .493864000000D+06
E27 2026 03 27 17 00 00 -.944882980548D-03 -.104876107798D-10  .000000000000D+00
      .600000000000D+02  .398437500000D+02  .358479217813D-08  .259266286677D+01
      .182352960110D-05  .209379009902D-03  .572204589844D-05  .544059630203D+04
      .493200000000D+06 -.186264514923D-07  .773067115726D+00 -.111758708954D-07
      .961755873930D+00  .221000000000D+03  .642860449032D+00 -.569059417895D-08
      .135362781260D-09  .516000000000D+03  .241100000000D+04
      .312000000000D+01  .000000000000D+00  .232830643654D-09  .465661287308D-09
      .493864000000D+06
E23 2026 03 27 17 00 00 -.296665239148D-04 -.129318777908D-11  .000000000000D+00
      .600000000000D+02  .371875000000D+02  .352514683652D-08 -.435802217643D+00
      .168010592461D-05  .299050821923D-03  .541843473911D-05  .544059978676D+04
      .493200000000D+06 -.111758708954D-07  .769745134517D+00  .502914190292D-07
      .963708850548D+00  .221531250000D+03  .208286491118D+01 -.573595321119D-08
      .188222125921D-09  .513000000000D+03  .241100000000D+04
      .312000000000D+01  .000000000000D+00 -.465661287308D-09  .931322574615D-09
      .493885000000D+06
E13 2026 03 27 17 00 00 -.512088881806D-04 -.781597009336D-12  .000000000000D+00
      .600000000000D+02  .141406250000D+03  .249403245789D-08  .135651173799D+01
      .675022602081D-05  .349645502865D-03  .903569161892D-05  .544061872101D+04
      .493200000000D+06  .819563865662D-07  .287211855275D+01  .223517417908D-07
      .998496805480D+00  .162093750000D+03 -.247960366122D+00 -.541201114627D-08
      .675028117631D-10  .513000000000D+03  .241100000000D+04
      .312000000000D+01  .000000000000D+00  .325962901115D-08  .372529029846D-08
      .493885000000D+06
E27 2026 03 27 17 00 00 -.944882980548D-03 -.104876107798D-10  .000000000000D+00
      .600000000000D+02  .398437500000D+02  .358479217813D-08  .259266286677D+01
      .182352960110D-05  .209379009902D-03  .572204589844D-05  .544059630203D+04
      .493200000000D+06 -.186264514923D-07  .773067115726D+00 -.111758708954D-07
      .961755873930D+00  .221000000000D+03  .642860449032D+00 -.569059417895D-08
      .135362781260D-09  .513000000000D+03  .241100000000D+04
      .312000000000D+01  .000000000000D+00  .232830643654D-09  .465661287308D-09
      .493885000000D+06
E15 2026 03 27 17 00 00 -.246042211074D-03 -.285638179776D-11  .000000000000D+00
      .600000000000D+02  .153562500000D+03  .251117602913D-08  .232719370020D+01
      .704079866409D-05  .369041692466D-03  .846013426781D-05  .544061421967D+04
      .493200000000D+06 -.931322574615D-08  .287202959270D+01  .931322574615D-08
      .998452672167D+00  .176812500000D+03 -.416566875431D+00 -.536665211403D-08
      .789318592573D-10  .513000000000D+03  .241100000000D+04
      .312000000000D+01  .000000000000D+00  .442378222942D-08  .488944351673D-08
      .493915000000D+06
E15 2026 03 27 17 00 00 -.246043258812D-03 -.285638179776D-11  .000000000000D+00
      .600000000000D+02  .153562500000D+03  .251117602913D-08  .232719370020D+01
      .704079866409D-05  .369041692466D-03  .846013426781D-05  .544061421967D+04
      .493200000000D+06 -.931322574615D-08  .287202959270D+01  .931322574615D-08
      .998452672167D+00  .176812500000D+03 -.416566875431D+00 -.536665211403D-08
      .789318592573D-10  .258000000000D+03  .241100000000D+04
      .312000000000D+01  .000000000000D+00  .442378222942D-08  .000000000000D+00
      .493920000000D+06
E27 2026 03 27 17 00 00 -.944884028286D-03 -.105018216345D-10  .000000000000D+00
      .600000000000D+02  .398437500000D+02  .358479217813D-08  .259266286677D+01
      .182352960110D-05  .209379009902D-03  .572204589844D-05  .544059630203D+04
      .493200000000D+06 -.186264514923D-07  .773067115726D+00 -.111758708954D-07
      .961755873930D+00  .221000000000D+03  .642860449032D+00 -.569059417895D-08
      .135362781260D-09  .258000000000D+03  .241100000000D+04
      .312000000000D+01  .000000000000D+00  .232830643654D-09  .000000000000D+00
      .493920000000D+06
E23 2026 03 27 17 00 00 -.296683283523D-04 -.129318777908D-11  .000000000000D+00
      .600000000000D+02  .371875000000D+02  .352514683652D-08 -.435802217643D+00
      .168010592461D-05  .299050821923D-03  .541843473911D-05  .544059978676D+04
      .493200000000D+06 -.111758708954D-07  .769745134517D+00  .502914190292D-07
      .963708850548D+00  .221531250000D+03  .208286491118D+01 -.573595321119D-08
      .188222125921D-09  .258000000000D+03  .241100000000D+04
      .312000000000D+01  .000000000000D+00 -.465661287308D-09  .000000000000D+00
      .493920000000D+06
E13 2026 03 27 17 00 00 -.512098777108D-04 -.795807864051D-12  .000000000000D+00
      .600000000000D+02  .141406250000D+03  .249403245789D-08  .135651173799D+01
      .675022602081D-05  .349645502865D-03  .903569161892D-05  .544061872101D+04
      .493200000000D+06  .819563865662D-07  .287211855275D+01  .223517417908D-07
      .998496805480D+00  .162093750000D+03 -.247960366122D+00 -.541201114627D-08
      .675028117631D-10  .258000000000D+03  .241100000000D+04
      .312000000000D+01  .000000000000D+00  .325962901115D-08  .000000000000D+00
      .493920000000D+06
C14 2026 03 27 17 00 00 -.560904853046D-03 -.421627177616D-10 -.176182853029D-18
      .100000000000D+02 -.727187500000D+02  .352514683652D-08 -.371532927541D+00
     -.374484807253D-05  .140526029281D-02  .222213566303D-05  .528263457489D+04
      .493200000000D+06  .105239450932D-06 -.198838335206D+01  .474974513054D-07
      .985374175761D+00  .330031250000D+03 -.120895904097D+00 -.697814781072D-08
     -.181078971237D-09  .000000000000D+00  .105500000000D+04  .000000000000D+00
      .200000000000D+01  .000000000000D+00  .620000006890D-08  .210000000000D-08
      .494310000000D+06  .900000000000D+01
E15 2026 03 27 17 10 00 -.246043957304D-03 -.284217094304D-11  .000000000000D+00
      .610000000000D+02  .152125000000D+03  .250689013632D-08  .240151000300D+01
      .697001814842D-05  .368846463971D-03  .842288136482D-05  .544061460686D+04
      .493800000000D+06 -.931322574615D-08  .287202636258D+01  .745058059692D-08
      .998452721906D+00  .177531250000D+03 -.416498061227D+00 -.536522348309D-08
      .792890169915D-10  .516000000000D+03  .241100000000D+04
      .312000000000D+01  .000000000000D+00  .442378222942D-08  .488944351673D-08
      .494464000000D+06
E13 2026 03 27 17 10 00 -.512093538418D-04 -.781597009336D-12  .000000000000D+00
      .610000000000D+02  .142218750000D+03  .250510434765D-08  .143146939870D+01
      .677257776260D-05  .349749228917D-03  .898540019989D-05  .544061827850D+04
      .493800000000D+06  .726431608200D-07  .287211524656D+01  .316649675369D-07
      .998496811331D+00  .163781250000D+03 -.248533440873D+00 -.540986819987D-08
      .753602819154D-10  .516000000000D+03  .241100000000D+04
      .312000000000D+01  .000000000000D+00  .325962901115D-08  .372529029846D-08
      .494464000000D+06
E23 2026 03 27 17 10 00 -.296672806144D-04 -.129318777908D-11  .000000000000D+00
      .610000000000D+02  .378750000000D+02  .351978947050D-08 -.361334390182D+00
      .173412263393D-05  .298965722322D-03  .542029738426D-05  .544059960937D+04
      .493800000000D+06 -.186264514923D-07  .769741630829D+00  .428408384323D-07
      .963708961729D+00  .221531250000D+03  .208278322915D+01 -.573059584518D-08
      .192865176466D-09  .516000000000D+03  .241100000000D+04
      .312000000000D+01  .000000000000D+00 -.465661287308D-09  .931322574615D-09
      .494464000000D+06
E27 2026 03 27 17 10 00 -.944889208768D-03 -.104733999251D-10  .000000000000D+00
      .610000000000D+02  .404062500000D+02  .357943481211D-08  .266709830669D+01
      .182911753654D-05  .209313700907D-03  .572204589844D-05  .544059643173D+04
      .493800000000D+06 -.167638063431D-07  .773063699812D+00 -.130385160446D-07
      .961755945613D+00  .221000000000D+03  .642811423722D+00 -.569166565215D-08
      .136077096729D-09  .516000000000D+03  .241100000000D+04
      .312000000000D+01  .000000000000D+00  .232830643654D-09  .465661287308D-09
      .494464000000D+06
E23 2026 03 27 17 10 00 -.296672806144D-04 -.129318777908D-11  .000000000000D+00
      .610000000000D+02  .378750000000D+02  .351978947050D-08 -.361334390182D+00
      .173412263393D-05  .298965722322D-03  .542029738426D-05  .544059960937D+04
      .493800000000D+06 -.186264514923D-07  .769741630829D+00  .428408384323D-07
      .963708961729D+00  .221531250000D+03  .208278322915D+01 -.573059584518D-08
      .192865176466D-09  .513000000000D+03  .241100000000D+04
      .312000000000D+01  .000000000000D+00 -.465661287308D-09  .931322574615D-09
      .494485000000D+06
E13 2026 03 27 17 10 00 -.512093538418D-04 -.781597009336D-12  .000000000000D+00
      .610000000000D+02  .142218750000D+03  .250510434765D-08  .143146939870D+01
      .677257776260D-05  .349749228917D-03  .898540019989D-05  .544061827850D+04
      .493800000000D+06  .726431608200D-07  .287211524656D+01  .316649675369D-07
      .998496811331D+00  .163781250000D+03 -.248533440873D+00 -.540986819987D-08
      .753602819154D-10  .513000000000D+03  .241100000000D+04
      .312000000000D+01  .000000000000D+00  .325962901115D-08  .372529029846D-08
      .494485000000D+06
E15 2026 03 27 17 10 00 -.246043957304D-03 -.284217094304D-11  .000000000000D+00
      .610000000000D+02  .152125000000D+03  .250689013632D-08  .240151000300D+01
      .697001814842D-05  .368846463971D-03  .842288136482D-05  .544061460686D+04
      .493800000000D+06 -.931322574615D-08  .287202636258D+01  .745058059692D-08
      .998452721906D+00  .177531250000D+03 -.416498061227D+00 -.536522348309D-08
      .792890169915D-10  .513000000000D+03  .241100000000D+04
      .312000000000D+01  .000000000000D+00  .442378222942D-08  .488944351673D-08
      .494485000000D+06
E27 2026 03 27 17 10 00 -.944889208768D-03 -.104733999251D-10  .000000000000D+00
      .610000000000D+02  .404062500000D+02  .357943481211D-08  .266709830669D+01
      .182911753654D-05  .209313700907D-03  .572204589844D-05  .544059643173D+04
      .493800000000D+06 -.167638063431D-07  .773063699812D+00 -.130385160446D-07
      .961755945613D+00  .221000000000D+03  .642811423722D+00 -.569166565215D-08
      .136077096729D-09  .513000000000D+03  .241100000000D+04
      .312000000000D+01  .000000000000D+00  .232830643654D-09  .465661287308D-09
      .494485000000D+06
E15 2026 03 27 17 10 00 -.246045005042D-03 -.284217094304D-11  .000000000000D+00
      .610000000000D+02  .152125000000D+03  .250689013632D-08  .240151000300D+01
      .697001814842D-05  .368846463971D-03  .842288136482D-05  .544061460686D+04
      .493800000000D+06 -.931322574615D-08  .287202636258D+01  .745058059692D-08
      .998452721906D+00  .177531250000D+03 -.416498061227D+00 -.536522348309D-08
      .792890169915D-10  .258000000000D+03  .241100000000D+04
      .312000000000D+01  .000000000000D+00  .442378222942D-08  .000000000000D+00
      .494520000000D+06
E27 2026 03 27 17 10 00 -.944890256505D-03 -.104876107798D-10  .000000000000D+00
      .610000000000D+02  .404062500000D+02  .357943481211D-08  .266709830669D+01
      .182911753654D-05  .209313700907D-03  .572204589844D-05  .544059643173D+04
      .493800000000D+06 -.167638063431D-07  .773063699812D+00 -.130385160446D-07
      .961755945613D+00  .221000000000D+03  .642811423722D+00 -.569166565215D-08
      .136077096729D-09  .258000000000D+03  .241100000000D+04
      .312000000000D+01  .000000000000D+00  .232830643654D-09  .000000000000D+00
      .494520000000D+06
E23 2026 03 27 17 10 00 -.296692014672D-04 -.129318777908D-11  .000000000000D+00
      .610000000000D+02  .378750000000D+02  .351978947050D-08 -.361334390182D+00
      .173412263393D-05  .298965722322D-03  .542029738426D-05  .544059960937D+04
      .493800000000D+06 -.186264514923D-07  .769741630829D+00  .428408384323D-07
      .963708961729D+00  .221531250000D+03  .208278322915D+01 -.573059584518D-08
      .192865176466D-09  .258000000000D+03  .241100000000D+04
      .312000000000D+01  .000000000000D+00 -.465661287308D-09  .000000000000D+00
      .494520000000D+06
E13 2026 03 27 17 10 00 -.512104015797D-04 -.795807864051D-12  .000000000000D+00
      .610000000000D+02  .142218750000D+03  .250510434765D-08  .143146939870D+01
      .677257776260D-05  .349749228917D-03  .898540019989D-05  .544061827850D+04
      .493800000000D+06  .726431608200D-07  .287211524656D+01  .316649675369D-07
      .998496811331D+00  .163781250000D+03 -.248533440873D+00 -.540986819987D-08
      .753602819154D-10  .258000000000D+03  .241100000000D+04
      .312000000000D+01  .000000000000D+00  .325962901115D-08  .000000000000D+00
      .494520000000D+06
E33 2026 03 27 17 10 00 -.863539753482D-05 -.125055521494D-11  .000000000000D+00
      .610000000000D+02  .109687500000D+03  .250439003218D-08  .406893132138D+00
      .508688390255D-05  .164177152328D-03  .887177884579D-05  .544061092186D+04
      .493800000000D+06 -.540167093277D-07  .287208562247D+01 -.186264514923D-07
      .998515236785D+00  .164812500000D+03 -.773202350799D+00 -.529093467438D-08
     -.167864135072D-10  .516000000000D+03  .241100000000D+04
      .360000000000D+01  .000000000000D+00 -.582076609135D-08 -.628642737865D-08
      .494554000000D+06
E33 2026 03 27 17 10 00 -.863539753482D-05 -.125055521494D-11  .000000000000D+00
      .610000000000D+02  .109687500000D+03  .250439003218D-08  .406893132138D+00
      .508688390255D-05  .164177152328D-03  .887177884579D-05  .544061092186D+04
      .493800000000D+06 -.540167093277D-07  .287208562247D+01 -.186264514923D-07
      .998515236785D+00  .164812500000D+03 -.773202350799D+00 -.529093467438D-08
     -.167864135072D-10  .513000000000D+03  .241100000000D+04
      .360000000000D+01  .000000000000D+00 -.582076609135D-08 -.628642737865D-08
      .494575000000D+06
E33 2026 03 27 17 10 00 -.863545574248D-05 -.125055521494D-11  .000000000000D+00
      .610000000000D+02  .109687500000D+03  .250439003218D-08  .406893132138D+00
      .508688390255D-05  .164177152328D-03  .887177884579D-05  .544061092186D+04
      .493800000000D+06 -.540167093277D-07  .287208562247D+01 -.186264514923D-07
      .998515236785D+00  .164812500000D+03 -.773202350799D+00 -.529093467438D-08
     -.167864135072D-10  .258000000000D+03  .241100000000D+04
      .360000000000D+01  .000000000000D+00 -.582076609135D-08  .000000000000D+00
      .494570000000D+06
E33 2026 03 27 17 20 00 -.863632885739D-05 -.126476606965D-11  .000000000000D+00
      .620000000000D+02  .109000000000D+03  .251153318687D-08  .481928873175D+00
      .506825745106D-05  .164131633937D-03  .888668000698D-05  .544061069298D+04
      .494400000000D+06 -.540167093277D-07  .287208244647D+01 -.186264514923D-07
      .998515226544D+00  .164125000000D+03 -.773853124055D+00 -.529129183211D-08
     -.167864135072D-10  .516000000000D+03  .241100000000D+04
      .360000000000D+01  .000000000000D+00 -.582076609135D-08 -.628642737865D-08
      .495064000000D+06
E13 2026 03 27 17 20 00 -.512098777108D-04 -.781597009336D-12  .000000000000D+00
      .620000000000D+02  .143531250000D+03  .251653339515D-08  .150651138932D+01
      .681355595589D-05  .349894398823D-03  .892765820026D-05  .544061774445D+04
      .494400000000D+06  .614672899246D-07  .287211194183D+01  .391155481339D-07
      .998496827424D+00  .165625000000D+03 -.249190861628D+00 -.540665378026D-08
      .828605943335D-10  .516000000000D+03  .241100000000D+04
      .312000000000D+01  .000000000000D+00  .325962901115D-08  .372529029846D-08
      .495064000000D+06
E23 2026 03 27 17 20 00 -.296681537293D-04 -.130739863380D-11  .000000000000D+00
      .620000000000D+02  .384687500000D+02  .351478926222D-08 -.286856180391D+00
      .178255140781D-05  .298891682178D-03  .542774796486D-05  .544059945297D+04
      .494400000000D+06 -.242143869400D-07  .769738137380D+00  .353902578354D-07
      .963709077300D+00  .221437500000D+03  .208269117210D+01 -.572523847916D-08
      .196079596074D-09  .516000000000D+03  .241100000000D+04
      .312000000000D+01  .000000000000D+00 -.116415321827D-08  .232830643654D-09
      .495064000000D+06
E27 2026 03 27 17 20 00 -.944895436987D-03 -.104733999251D-10  .000000000000D+00
      .620000000000D+02  .409687500000D+02  .357443460383D-08  .274155743125D+01
      .183284282684D-05  .209249556065D-03  .572390854359D-05  .544059655952D+04
      .494400000000D+06 -.149011611938D-07  .773060280972D+00 -.149011611938D-07
      .961756017296D+00  .220906250000D+03  .642738706453D+00 -.569273712535D-08
      .137148569931D-09  .516000000000D+03  .241100000000D+04
      .312000000000D+01  .000000000000D+00  .232830643654D-09  .465661287308D-09
      .495064000000D+06
E23 2026 03 27 17 20 00 -.296681537293D-04 -.130739863380D-11  .000000000000D+00
      .620000000000D+02  .384687500000D+02  .351478926222D-08 -.286856180391D+00
      .178255140781D-05  .298891682178D-03  .542774796486D-05  .544059945297D+04
      .494400000000D+06 -.242143869400D-07  .769738137380D+00  .353902578354D-07
      .963709077300D+00  .221437500000D+03  .208269117210D+01 -.572523847916D-08
      .196079596074D-09  .513000000000D+03  .241100000000D+04
      .312000000000D+01  .000000000000D+00 -.116415321827D-08  .232830643654D-09
      .495085000000D+06
E13 2026 03 27 17 20 00 -.512098777108D-04 -.781597009336D-12  .000000000000D+00
      .620000000000D+02  .143531250000D+03  .251653339515D-08  .150651138932D+01
      .681355595589D-05  .349894398823D-03  .892765820026D-05  .544061774445D+04
      .494400000000D+06  .614672899246D-07  .287211194183D+01  .391155481339D-07
      .998496827424D+00  .165625000000D+03 -.249190861628D+00 -.540665378026D-08
      .828605943335D-10  .513000000000D+03  .241100000000D+04
      .312000000000D+01  .000000000000D+00  .325962901115D-08  .372529029846D-08
      .495085000000D+06
E33 2026 03 27 17 20 00 -.863632885739D-05 -.126476606965D-11  .000000000000D+00
      .620000000000D+02  .109000000000D+03  .251153318687D-08  .481928873175D+00
      .506825745106D-05  .164131633937D-03  .888668000698D-05  .544061069298D+04
      .494400000000D+06 -.540167093277D-07  .287208244647D+01 -.186264514923D-07
      .998515226544D+00  .164125000000D+03 -.773853124055D+00 -.529129183211D-08
     -.167864135072D-10  .513000000000D+03  .241100000000D+04
      .360000000000D+01  .000000000000D+00 -.582076609135D-08 -.628642737865D-08
      .495085000000D+06
E27 2026 03 27 17 20 00 -.944895436987D-03 -.104733999251D-10  .000000000000D+00
      .620000000000D+02  .409687500000D+02  .357443460383D-08  .274155743125D+01
      .183284282684D-05  .209249556065D-03  .572390854359D-05  .544059655952D+04
      .494400000000D+06 -.149011611938D-07  .773060280972D+00 -.149011611938D-07
      .961756017296D+00  .220906250000D+03  .642738706453D+00 -.569273712535D-08
      .137148569931D-09  .513000000000D+03  .241100000000D+04
      .312000000000D+01  .000000000000D+00  .232830643654D-09  .465661287308D-09
      .495085000000D+06
E33 2026 03 27 17 20 00 -.863632885739D-05 -.126476606965D-11  .000000000000D+00
      .620000000000D+02  .109000000000D+03  .251153318687D-08  .481928873175D+00
      .506825745106D-05  .164131633937D-03  .888668000698D-05  .544061069298D+04
      .494400000000D+06 -.540167093277D-07  .287208244647D+01 -.186264514923D-07
      .998515226544D+00  .164125000000D+03 -.773853124055D+00 -.529129183211D-08
     -.167864135072D-10  .258000000000D+03  .241100000000D+04
      .360000000000D+01  .000000000000D+00 -.582076609135D-08  .000000000000D+00
      .495120000000D+06
E27 2026 03 27 17 20 00 -.944896426518D-03 -.104876107798D-10  .000000000000D+00
      .620000000000D+02  .409687500000D+02  .357443460383D-08  .274155743125D+01
      .183284282684D-05  .209249556065D-03  .572390854359D-05  .544059655952D+04
      .494400000000D+06 -.149011611938D-07  .773060280972D+00 -.149011611938D-07
      .961756017296D+00  .220906250000D+03  .642738706453D+00 -.569273712535D-08
      .137148569931D-09  .258000000000D+03  .241100000000D+04
      .312000000000D+01  .000000000000D+00  .232830643654D-09  .000000000000D+00
      .495120000000D+06
E23 2026 03 27 17 20 00 -.296700163744D-04 -.130739863380D-11  .000000000000D+00
      .620000000000D+02  .384687500000D+02  .351478926222D-08 -.286856180391D+00
      .178255140781D-05  .298891682178D-03  .542774796486D-05  .544059945297D+04
      .494400000000D+06 -.242143869400D-07  .769738137380D+00  .353902578354D-07
      .963709077300D+00  .221437500000D+03  .208269117210D+01 -.572523847916D-08
      .196079596074D-09  .258000000000D+03  .241100000000D+04
      .312000000000D+01  .000000000000D+00 -.116415321827D-08  .000000000000D+00
      .495120000000D+06
E13 2026 03 27 17 20 00 -.512108672410D-04 -.795807864051D-12  .000000000000D+00
      .620000000000D+02  .143531250000D+03  .251653339515D-08  .150651138932D+01
      .681355595589D-05  .349894398823D-03  .892765820026D-05  .544061774445D+04
      .494400000000D+06  .614672899246D-07  .287211194183D+01  .391155481339D-07
      .998496827424D+00  .165625000000D+03 -.249190861628D+00 -.540665378026D-08
      .828605943335D-10  .258000000000D+03  .241100000000D+04
      .312000000000D+01  .000000000000D+00  .325962901115D-08  .000000000000D+00
      .495120000000D+06
E31 2026 03 27 17 20 00 -.129194115289D-03 -.282796008833D-11  .000000000000D+00
      .620000000000D+02  .333750000000D+02  .355550524392D-08  .132283668189D+01
      .127591192722D-05  .696314964443D-04  .562332570553D-05  .544059836388D+04
      .494400000000D+06  .745058059692D-07  .773020833386D+00  .167638063431D-07
      .961759528299D+00  .218718750000D+03 -.295916362676D+00 -.578131224343D-08
      .153577825704D-09  .513000000000D+03  .241100000000D+04
      .312000000000D+01  .000000000000D+00  .256113708019D-08  .302679836750D-08
      .495205000000D+06
E31 2026 03 27 17 20 00 -.129194115289D-03 -.282796008833D-11  .000000000000D+00
      .620000000000D+02  .333750000000D+02  .355550524392D-08  .132283668189D+01
      .127591192722D-05  .696314964443D-04  .562332570553D-05  .544059836388D+04
      .494400000000D+06  .745058059692D-07  .773020833386D+00  .167638063431D-07
      .961759528299D+00  .218718750000D+03 -.295916362676D+00 -.578131224343D-08
      .153577825704D-09  .516000000000D+03  .241100000000D+04
      .312000000000D+01  .000000000000D+00  .256113708019D-08  .302679836750D-08
      .495214000000D+06
E31 2026 03 27 17 20 00 -.129195395857D-03 -.282796008833D-11  .000000000000D+00
      .620000000000D+02  .333750000000D+02  .355550524392D-08  .132283668189D+01
      .127591192722D-05  .696314964443D-04  .562332570553D-05  .544059836388D+04
      .494400000000D+06  .745058059692D-07  .773020833386D+00  .167638063431D-07
      .961759528299D+00  .218718750000D+03 -.295916362676D+00 -.578131224343D-08
      .153577825704D-09  .258000000000D+03  .241100000000D+04
      .312000000000D+01  .000000000000D+00  .256113708019D-08  .000000000000D+00
      .495220000000D+06
C27 2026 03 27 17 00 00  .612457050011D-03  .490363305516D-11  .000000000000D+00
      .100000000000D+01  .424687500000D+02  .396409369184D-08 -.168499444040D+01
      .216299667954D-05  .725705525838D-03  .890390947461D-05  .528262272453D+04
      .493200000000D+06 -.325962901115D-08  .219348369727D+01  .195577740669D-07
      .949231330472D+00  .176968750000D+03  .139801358575D+01 -.683099882423D-08
     -.339299847486D-09  .000000000000D+00  .105500000000D+04  .000000000000D+00
      .200000000000D+01  .000000000000D+00 -.489999996134D-08 -.490000000000D-08
      .495600000000D+06  .100000000000D+01
E33 2026 03 27 17 30 00 -.863714376464D-05 -.126476606965D-11  .000000000000D+00
      .630000000000D+02  .108718750000D+03  .251760486835D-08  .556507556179D+00
      .506825745106D-05  .164124649018D-03  .887922942638D-05  .544061063004D+04
      .495000000000D+06 -.577419996262D-07  .287207927779D+01 -.223517417908D-07
      .998515198749D+00  .164000000000D+03 -.774046755891D+00 -.529414909399D-08
     -.160720980388D-10  .516000000000D+03  .241100000000D+04
      .360000000000D+01  .000000000000D+00 -.582076609135D-08 -.628642737865D-08
      .495664000000D+06
E31 2026 03 27 17 30 00 -.129195919726D-03 -.284217094304D-11  .000000000000D+00
      .630000000000D+02  .336250000000D+02  .354979072017D-08  .139865763104D+01
      .130012631416D-05  .696810893714D-04  .555068254471D-05  .544059814072D+04
      .495000000000D+06  .689178705215D-07  .773017315068D+00  .260770320892D-07
      .961759588279D+00  .219531250000D+03 -.297351097638D+00 -.577988361250D-08
      .160363822654D-09  .516000000000D+03  .241100000000D+04
      .312000000000D+01  .000000000000D+00  .256113708019D-08  .302679836750D-08
      .495664000000D+06
E13 2026 03 27 17 30 00 -.512102851644D-04 -.781597009336D-12  .000000000000D+00
      .630000000000D+02  .145281250000D+03  .252831960037D-08  .158157405390D+01
      .686943531036D-05  .350070884451D-03  .886991620064D-05  .544061716270D+04
      .495000000000D+06  .502914190292D-07  .287210863709D+01  .447034835815D-07
      .998496852293D+00  .167343750000D+03 -.249868946102D+00 -.540343936065D-08
      .900037490174D-10  .516000000000D+03  .241100000000D+04
      .312000000000D+01  .000000000000D+00  .325962901115D-08  .372529029846D-08
      .495664000000D+06
E23 2026 03 27 17 30 00 -.296688522212D-04 -.130739863380D-11  .000000000000D+00
      .630000000000D+02  .390000000000D+02  .350978905394D-08 -.212373464813D+00
      .182539224625D-05  .298828235827D-03  .544078648090D-05  .544059931374D+04
      .495000000000D+06 -.260770320892D-07  .769734657098D+00  .279396772385D-07
      .963709201648D+00  .221281250000D+03  .208259461220D+01 -.572095258635D-08
      .198936857947D-09  .516000000000D+03  .241100000000D+04
      .312000000000D+01  .000000000000D+00 -.116415321827D-08  .232830643654D-09
      .495664000000D+06
E27 2026 03 27 17 30 00 -.944901781622D-03 -.104876107798D-10  .000000000000D+00
      .630000000000D+02  .415000000000D+02  .356907723782D-08  .281603620426D+01
      .183656811714D-05  .209186575375D-03  .572390854359D-05  .544059668541D+04
      .495000000000D+06 -.130385160446D-07  .773056862133D+00 -.149011611938D-07
      .961756091904D+00  .220718750000D+03  .642646334879D+00 -.569380859855D-08
      .138220043134D-09  .516000000000D+03  .241100000000D+04
      .312000000000D+01  .000000000000D+00  .232830643654D-09  .465661287308D-09
      .495664000000D+06
E23 2026 03 27 17 30 00 -.296688522212D-04 -.130739863380D-11  .000000000000D+00
      .630000000000D+02  .390000000000D+02  .350978905394D-08 -.212373464813D+00
      .182539224625D-05  .298828235827D-03  .544078648090D-05  .544059931374D+04
      .495000000000D+06 -.260770320892D-07  .769734657098D+00  .279396772385D-07
      .963709201648D+00  .221281250000D+03  .208259461220D+01 -.572095258635D-08
      .198936857947D-09  .513000000000D+03  .241100000000D+04
      .312000000000D+01  .000000000000D+00 -.116415321827D-08  .232830643654D-09
      .495685000000D+06
E13 2026 03 27 17 30 00 -.512102851644D-04 -.781597009336D-12  .000000000000D+00
      .630000000000D+02  .145281250000D+03  .252831960037D-08  .158157405390D+01
      .686943531036D-05  .350070884451D-03  .886991620064D-05  .544061716270D+04
      .495000000000D+06  .502914190292D-07  .287210863709D+01  .447034835815D-07
      .998496852293D+00  .167343750000D+03 -.249868946102D+00 -.540343936065D-08
      .900037490174D-10  .513000000000D+03  .241100000000D+04
      .312000000000D+01  .000000000000D+00  .325962901115D-08  .372529029846D-08
      .495685000000D+06
E33 2026 03 27 17 30 00 -.863714376464D-05 -.126476606965D-11  .000000000000D+00
      .630000000000D+02  .108718750000D+03  .251760486835D-08  .556507556179D+00
      .506825745106D-05  .164124649018D-03  .887922942638D-05  .544061063004D+04
      .495000000000D+06 -.577419996262D-07  .287207927779D+01 -.223517417908D-07
      .998515198749D+00  .164000000000D+03 -.774046755891D+00 -.529414909399D-08
     -.160720980388D-10  .513000000000D+03  .241100000000D+04
      .360000000000D+01  .000000000000D+00 -.582076609135D-08 -.628642737865D-08
      .495685000000D+06
E27 2026 03 27 17 30 00 -.944901781622D-03 -.104876107798D-10  .000000000000D+00
      .630000000000D+02  .415000000000D+02  .356907723782D-08  .281603620426D+01
      .183656811714D-05  .209186575375D-03  .572390854359D-05  .544059668541D+04
      .495000000000D+06 -.130385160446D-07  .773056862133D+00 -.149011611938D-07
      .961756091904D+00  .220718750000D+03  .642646334879D+00 -.569380859855D-08
      .138220043134D-09  .513000000000D+03  .241100000000D+04
      .312000000000D+01  .000000000000D+00  .232830643654D-09  .465661287308D-09
      .495685000000D+06
E31 2026 03 27 17 30 00 -.129195919726D-03 -.284217094304D-11  .000000000000D+00
      .630000000000D+02  .336250000000D+02  .354979072017D-08  .139865763104D+01
      .130012631416D-05  .696810893714D-04  .555068254471D-05  .544059814072D+04
      .495000000000D+06  .689178705215D-07  .773017315068D+00  .260770320892D-07
      .961759588279D+00  .219531250000D+03 -.297351097638D+00 -.577988361250D-08
      .160363822654D-09  .513000000000D+03  .241100000000D+04
      .312000000000D+01  .000000000000D+00  .256113708019D-08  .302679836750D-08
      .495685000000D+06
E33 2026 03 27 17 30 00 -.863708555698D-05 -.126476606965D-11  .000000000000D+00
      .630000000000D+02  .108718750000D+03  .251760486835D-08  .556507556179D+00
      .506825745106D-05  .164124649018D-03  .887922942638D-05  .544061063004D+04
      .495000000000D+06 -.577419996262D-07  .287207927779D+01 -.223517417908D-07
      .998515198749D+00  .164000000000D+03 -.774046755891D+00 -.529414909399D-08
     -.160720980388D-10  .258000000000D+03  .241100000000D+04
      .360000000000D+01  .000000000000D+00 -.582076609135D-08  .000000000000D+00
      .495720000000D+06
E27 2026 03 27 17 30 00 -.944902712945D-03 -.104876107798D-10  .000000000000D+00
      .630000000000D+02  .415000000000D+02  .356907723782D-08  .281603620426D+01
      .183656811714D-05  .209186575375D-03  .572390854359D-05  .544059668541D+04
      .495000000000D+06 -.130385160446D-07  .773056862133D+00 -.149011611938D-07
      .961756091904D+00  .220718750000D+03  .642646334879D+00 -.569380859855D-08
      .138220043134D-09  .258000000000D+03  .241100000000D+04
      .312000000000D+01  .000000000000D+00  .232830643654D-09  .000000000000D+00
      .495720000000D+06
E23 2026 03 27 17 30 00 -.296708312817D-04 -.130739863380D-11  .000000000000D+00
      .630000000000D+02  .390000000000D+02  .350978905394D-08 -.212373464813D+00
      .182539224625D-05  .298828235827D-03  .544078648090D-05  .544059931374D+04
      .495000000000D+06 -.260770320892D-07  .769734657098D+00  .279396772385D-07
      .963709201648D+00  .221281250000D+03  .208259461220D+01 -.572095258635D-08
      .198936857947D-09  .258000000000D+03  .241100000000D+04
      .312000000000D+01  .000000000000D+00 -.116415321827D-08  .000000000000D+00
      .495720000000D+06
E31 2026 03 27 17 30 00 -.129197142087D-03 -.282796008833D-11  .000000000000D+00
      .630000000000D+02  .336250000000D+02  .354979072017D-08  .139865763104D+01
      .130012631416D-05  .696810893714D-04  .555068254471D-05  .544059814072D+04
      .495000000000D+06  .689178705215D-07  .773017315068D+00  .260770320892D-07
      .961759588279D+00  .219531250000D+03 -.297351097638D+00 -.577988361250D-08
      .160363822654D-09  .258000000000D+03  .241100000000D+04
      .312000000000D+01  .000000000000D+00  .256113708019D-08  .000000000000D+00
      .495720000000D+06
E13 2026 03 27 17 30 00 -.512113329023D-04 -.795807864051D-12  .000000000000D+00
      .630000000000D+02  .145281250000D+03  .252831960037D-08  .158157405390D+01
      .686943531036D-05  .350070884451D-03  .886991620064D-05  .544061716270D+04
      .495000000000D+06  .502914190292D-07  .287210863709D+01  .447034835815D-07
      .998496852293D+00  .167343750000D+03 -.249868946102D+00 -.540343936065D-08
      .900037490174D-10  .258000000000D+03  .241100000000D+04
      .312000000000D+01  .000000000000D+00  .325962901115D-08  .000000000000D+00
      .495720000000D+06
E21 2026 03 27 17 30 00 -.731009349693D-03 -.274269496003D-11  .000000000000D+00
      .630000000000D+02  .377187500000D+02  .354836208924D-08  .119010188941D+01
      .184029340744D-05  .150390318595D-03  .566244125366D-05  .544059576035D+04
      .495000000000D+06 -.931322574615D-08  .773094216283D+00  .372529029846D-08
      .961784377426D+00  .220031250000D+03  .146941314881D+01 -.569095133668D-08
      .173221501085D-09  .516000000000D+03  .241100000000D+04
      .312000000000D+01  .000000000000D+00 -.698491930962D-09 -.698491930962D-09
      .495874000000D+06
E21 2026 03 27 17 30 00 -.731009349693D-03 -.274269496003D-11  .000000000000D+00
      .630000000000D+02  .377187500000D+02  .354836208924D-08  .119010188941D+01
      .184029340744D-05  .150390318595D-03  .566244125366D-05  .544059576035D+04
      .495000000000D+06 -.931322574615D-08  .773094216283D+00  .372529029846D-08
      .961784377426D+00  .220031250000D+03  .146941314881D+01 -.569095133668D-08
      .173221501085D-09  .513000000000D+03  .241100000000D+04
      .312000000000D+01  .000000000000D+00 -.698491930962D-09 -.698491930962D-09
      .495895000000D+06
E21 2026 03 27 17 30 00 -.731010281015D-03 -.274269496003D-11  .000000000000D+00
      .630000000000D+02  .377187500000D+02  .354836208924D-08  .119010188941D+01
      .184029340744D-05  .150390318595D-03  .566244125366D-05  .544059576035D+04
      .495000000000D+06 -.931322574615D-08  .773094216283D+00  .372529029846D-08
      .961784377426D+00  .220031250000D+03  .146941314881D+01 -.569095133668D-08
      .173221501085D-09  .258000000000D+03  .241100000000D+04
      .312000000000D+01  .000000000000D+00 -.698491930962D-09  .000000000000D+00
      .495920000000D+06
G12 2026 03 27 18 00 00 -.607969705015D-03  .000000000000D+00  .000000000000D+00
      .230000000000D+02  .242812500000D+02  .496842124040D-08 -.271184971828D+00
      .101327896118D-05  .895516423043D-02  .688061118126D-05  .515375297737D+04
      .496800000000D+06 -.819563865662D-07  .659452001303D+00  .167638063431D-07
      .959247554591D+00  .251562500000D+03  .156812078422D+01 -.835356224511D-08
      .211794536378D-09  .100000000000D+01  .241100000000D+04  .000000000000D+00
      .200000000000D+01  .000000000000D+00 -.125728547573D-07  .230000000000D+02
      .496008000000D+06  .400000000000D+01
E33 2026 03 27 17 40 00 -.863807508722D-05 -.126476606965D-11  .000000000000D+00
      .640000000000D+02  .109031250000D+03  .252296223436D-08  .630567469415D+00
      .509619712830D-05  .164147932082D-03  .885315239429D-05  .544061074448D+04
      .495600000000D+06 -.596046447754D-07  .287207610911D+01 -.316649675369D-07
      .998515147547D+00  .164343750000D+03 -.773721540425D+00 -.530022077547D-08
     -.135719938995D-10  .516000000000D+03  .241100000000D+04
      .360000000000D+01  .000000000000D+00 -.582076609135D-08 -.628642737865D-08
      .496264000000D+06
E13 2026 03 27 17 40 00 -.512108090334D-04 -.781597009336D-12  .000000000000D+00
      .640000000000D+02  .147250000000D+03  .254010580560D-08  .165659652188D+01
      .693462789059D-05  .350266927853D-03  .882335007191D-05  .544061657715D+04
      .495600000000D+06  .372529029846D-07  .287210533382D+01  .465661287308D-07
      .998496884477D+00  .168812500000D+03 -.250506804717D+00 -.539951062558D-08
      .964325882329D-10  .516000000000D+03  .241100000000D+04
      .312000000000D+01  .000000000000D+00  .325962901115D-08  .372529029846D-08
      .496264000000D+06
E23 2026 03 27 17 40 00 -.296696671285D-04 -.130739863380D-11  .000000000000D+00
      .640000000000D+02  .394062500000D+02  .350514600340D-08 -.137891112038D+00
      .186264514923D-05  .298776780255D-03  .545941293240D-05  .544059919548D+04
      .495600000000D+06 -.260770320892D-07  .769731191445D+00  .223517417908D-07
      .963709327459D+00  .221062500000D+03  .208249842094D+01 -.571738100901D-08
      .200722646618D-09  .516000000000D+03  .241100000000D+04
      .312000000000D+01  .000000000000D+00 -.116415321827D-08  .232830643654D-09
      .496264000000D+06
E23 2026 03 27 17 40 00 -.296696671285D-04 -.130739863380D-11  .000000000000D+00
      .640000000000D+02  .394062500000D+02  .350514600340D-08 -.137891112038D+00
      .186264514923D-05  .298776780255D-03  .545941293240D-05  .544059919548D+04
      .495600000000D+06 -.260770320892D-07  .769731191445D+00  .223517417908D-07
      .963709327459D+00  .221062500000D+03  .208249842094D+01 -.571738100901D-08
      .200722646618D-09  .513000000000D+03  .241100000000D+04
      .312000000000D+01  .000000000000D+00 -.116415321827D-08  .232830643654D-09
      .496285000000D+06
E13 2026 03 27 17 40 00 -.512108090334D-04 -.781597009336D-12  .000000000000D+00
      .640000000000D+02  .147250000000D+03  .254010580560D-08  .165659652188D+01
      .693462789059D-05  .350266927853D-03  .882335007191D-05  .544061657715D+04
      .495600000000D+06  .372529029846D-07  .287210533382D+01  .465661287308D-07
      .998496884477D+00  .168812500000D+03 -.250506804717D+00 -.539951062558D-08
      .964325882329D-10  .513000000000D+03  .241100000000D+04
      .312000000000D+01  .000000000000D+00  .325962901115D-08  .372529029846D-08
      .496285000000D+06
E33 2026 03 27 17 40 00 -.863807508722D-05 -.126476606965D-11  .000000000000D+00
      .640000000000D+02  .109031250000D+03  .252296223436D-08  .630567469415D+00
      .509619712830D-05  .164147932082D-03  .885315239429D-05  .544061074448D+04
      .495600000000D+06 -.596046447754D-07  .287207610911D+01 -.316649675369D-07
      .998515147547D+00  .164343750000D+03 -.773721540425D+00 -.530022077547D-08
     -.135719938995D-10  .513000000000D+03  .241100000000D+04
      .360000000000D+01  .000000000000D+00 -.582076609135D-08 -.628642737865D-08
      .496285000000D+06
E26 2026 03 27 17 40 00  .259076012298D-03  .108144604383D-10  .000000000000D+00
      .640000000000D+02  .138250000000D+03  .259082220386D-08  .121393714053D+01
      .660866498947D-05  .257048639469D-03  .894628465176D-05  .544061356163D+04
      .495600000000D+06  .782310962677D-07  .286915575597D+01 -.894069671631D-07
      .991782299691D+00  .157875000000D+03 -.591046918905D+00 -.544951270836D-08
      .253581991279D-10  .516000000000D+03  .241100000000D+04
      .312000000000D+01  .000000000000D+00 -.675208866596D-08 -.745058059692D-08
      .496294000000D+06
E26 2026 03 27 17 40 00  .259076012298D-03  .108144604383D-10  .000000000000D+00
      .640000000000D+02  .138250000000D+03  .259082220386D-08  .121393714053D+01
      .660866498947D-05  .257048639469D-03  .894628465176D-05  .544061356163D+04
      .495600000000D+06  .782310962677D-07  .286915575597D+01 -.894069671631D-07
      .991782299691D+00  .157875000000D+03 -.591046918905D+00 -.544951270836D-08
      .253581991279D-10  .513000000000D+03  .241100000000D+04
      .312000000000D+01  .000000000000D+00 -.675208866596D-08 -.745058059692D-08
      .496315000000D+06
E33 2026 03 27 17 40 00 -.863801687956D-05 -.126476606965D-11  .000000000000D+00
      .640000000000D+02  .109031250000D+03  .252296223436D-08  .630567469415D+00
      .509619712830D-05  .164147932082D-03  .885315239429D-05  .544061074448D+04
      .495600000000D+06 -.596046447754D-07  .287207610911D+01 -.316649675369D-07
      .998515147547D+00  .164343750000D+03 -.773721540425D+00 -.530022077547D-08
     -.135719938995D-10  .258000000000D+03  .241100000000D+04
      .360000000000D+01  .000000000000D+00 -.582076609135D-08  .000000000000D+00
      .496320000000D+06
E26 2026 03 27 17 40 00  .259075895883D-03  .108144604383D-10  .000000000000D+00
      .640000000000D+02  .138250000000D+03  .259082220386D-08  .121393714053D+01
      .660866498947D-05  .257048639469D-03  .894628465176D-05  .544061356163D+04
      .495600000000D+06  .782310962677D-07  .286915575597D+01 -.894069671631D-07
      .991782299691D+00  .157875000000D+03 -.591046918905D+00 -.544951270836D-08
      .253581991279D-10  .258000000000D+03  .241100000000D+04
      .312000000000D+01  .000000000000D+00 -.675208866596D-08  .000000000000D+00
      .496320000000D+06
E23 2026 03 27 17 40 00 -.296715879813D-04 -.130739863380D-11  .000000000000D+00
      .640000000000D+02  .394062500000D+02  .350514600340D-08 -.137891112038D+00
      .186264514923D-05  .298776780255D-03  .545941293240D-05  .544059919548D+04
      .495600000000D+06 -.260770320892D-07  .769731191445D+00  .223517417908D-07
      .963709327459D+00  .221062500000D+03  .208249842094D+01 -.571738100901D-08
      .200722646618D-09  .258000000000D+03  .241100000000D+04
      .312000000000D+01  .000000000000D+00 -.116415321827D-08  .000000000000D+00
      .496320000000D+06
E13 2026 03 27 17 40 00 -.512117985636D-04 -.795807864051D-12  .000000000000D+00
      .640000000000D+02  .147250000000D+03  .254010580560D-08  .165659652188D+01
      .693462789059D-05  .350266927853D-03  .882335007191D-05  .544061657715D+04
      .495600000000D+06  .372529029846D-07  .287210533382D+01  .465661287308D-07
      .998496884477D+00  .168812500000D+03 -.250506804717D+00 -.539951062558D-08
      .964325882329D-10  .258000000000D+03  .241100000000D+04
      .312000000000D+01  .000000000000D+00  .325962901115D-08  .000000000000D+00
      .496320000000D+06
