     3.04           N: GNSS NAV DATA    M: MIXED NAV DATA   RINEX VERSION / TYPE
NetR9 5.61          Receiver Operator   20260327 180000 UTC PGM / RUN BY / DATE
GPSA    .2980D-07   .7451D-08  -.1788D-06   .0000D+00       IONOSPHERIC CORR
GPSB    .1331D+06   .0000D+00  -.2621D+06   .2621D+06       IONOSPHERIC CORR
GAL     .1083D+03   .2227D+00   .1306D-01   .0000D+00       IONOSPHERIC CORR
BDSA    .3166D-07   .1565D-06  -.1431D-05   .2205D-05       IONOSPHERIC CORR
BDSB    .1597D+06  -.7537D+06   .3146D+07  -.1507D+07       IONOSPHERIC CORR
GPUT  -.9313225746D-09 -.355271368D-14  61440 2412          TIME SYSTEM CORR
GAUT   .9313225746D-09 -.888178420D-15 432000 2411          TIME SYSTEM CORR
BDUT   .0000000000D+00  .000000000D+00     14 1055          TIME SYSTEM CORR
GAGP   .2357410267D-08 -.177635684D-14 518400 2411          TIME SYSTEM CORR
    18    18  2441     7                                    LEAP SECONDS
This data is provided as a public service by NASA/JPL.      COMMENT
No warranty is expressed or implied regarding suitability   COMMENT
for use.  For further information, contact:                 COMMENT
ggnops at jpl dot nasa dot gov                              COMMENT
                                                            END OF HEADER
G14 2026 03 27 18 00 00  .741001684219D-03  .159161572810D-11  .000000000000D+00
      .174000000000D+03  .286562500000D+02  .530022077547D-08 -.413423285379D+00
      .160001218319D-05  .685759272892D-02  .644102692604D-05  .515364826775D+04
      .496800000000D+06  .763684511185D-07  .604425690950D+00  .726431608200D-07
      .942615320032D+00  .245062500000D+03 -.273735369226D+01 -.842285084555D-08
      .267511142913D-09  .100000000000D+01  .241100000000D+04  .000000000000D+00
      .200000000000D+01  .000000000000D+00 -.838190317154D-08  .430000000000D+03
      .489618000000D+06  .400000000000D+01
G24 2026 03 27 18 00 00 -.631143338978D-04  .171667124960D-10  .000000000000D+00
      .780000000000D+02 -.487187500000D+02  .492484799683D-08  .139696776902D+01
     -.261701643467D-05  .179564934224D-01  .105593353510D-04  .515365271378D+04
      .496800000000D+06 -.387430191040D-06 -.567061873752D+00 -.165775418282D-06
      .935147803494D+00  .165875000000D+03  .113829272902D+01 -.836892002768D-08
      .219652006531D-09  .100000000000D+01  .241100000000D+04  .000000000000D+00
      .200000000000D+01  .000000000000D+00  .232830643654D-08  .780000000000D+02
      .490596000000D+06  .400000000000D+01
G17 2026 03 27 18 00 00 -.983383506536D-04 -.954969436862D-11  .000000000000D+00
      .530000000000D+02  .543750000000D+01  .470519599030D-08 -.310381132689D+01
      .474974513054D-06  .126027382212D-01  .835396349430D-05  .515360566330D+04
      .496800000000D+06  .819563865662D-07  .169351163431D+01  .178813934326D-06
      .958591242727D+00  .214968750000D+03 -.111735567369D+01 -.786889919981D-08
     -.441446959466D-09  .100000000000D+01  .241100000000D+04  .000000000000D+00
      .200000000000D+01  .000000000000D+00 -.111758708954D-07  .530000000000D+02
      .489618000000D+06  .400000000000D+01
G06 2026 03 27 18 00 00 -.612396746874D-03  .682121026330D-12  .000000000000D+00
      .450000000000D+02  .661875000000D+02  .386801826134D-08  .126117074229D+01
      .353157520294D-05  .382466975134D-02  .875256955624D-05  .515365031433D+04
      .496800000000D+06  .372529029846D-07  .270987813774D+01 -.111758708954D-07
      .986826435019D+00  .218906250000D+03 -.546863561325D+00 -.770782106169D-08
     -.152149194768D-09  .100000000000D+01  .241100000000D+04  .000000000000D+00
      .200000000000D+01  .000000000000D+00  .372529029846D-08  .450000000000D+02
      .489618000000D+06  .400000000000D+01
G11 2026 03 27 18 00 00 -.393061432987D-03  .128466126625D-10  .000000000000D+00
      .130000000000D+02  .697187500000D+02  .430625080120D-08  .238873985608D+01
      .357255339622D-05  .221328600310D-02  .876002013683D-05  .515358829498D+04
      .496800000000D+06 -.391155481339D-07  .272811617797D+01 -.558793544769D-07
      .963703072021D+00  .211312500000D+03 -.231389038986D+01 -.792461580634D-08
     -.100004165575D-09  .100000000000D+01  .241100000000D+04  .000000000000D+00
      .200000000000D+01  .000000000000D+00 -.884756445885D-08  .269000000000D+03
      .493746000000D+06  .400000000000D+01
G03 2026 03 27 18 00 00  .525050330907D-03 -.136424205266D-10  .000000000000D+00
      .660000000000D+02  .270312500000D+02  .401338145916D-08 -.361214998512D-01
      .143237411976D-05  .659482541960D-02  .307895243168D-05  .515361303329D+04
      .496800000000D+06 -.912696123123D-07 -.253702388047D+01  .931322574615D-07
      .993752627980D+00  .336125000000D+03  .120333615441D+01 -.819176979152D-08
      .610739725475D-10  .100000000000D+01  .241100000000D+04  .000000000000D+00
      .200000000000D+01  .000000000000D+00  .139698386192D-08  .660000000000D+02
      .489618000000D+06  .400000000000D+01
G12 2026 03 27 18 00 00 -.607969705015D-03  .000000000000D+00  .000000000000D+00
      .230000000000D+02  .242812500000D+02  .496842124040D-08 -.271184971828D+00
      .101327896118D-05  .895516423043D-02  .688061118126D-05  .515375297737D+04
      .496800000000D+06 -.819563865662D-07  .659452001303D+00  .167638063431D-07
      .959247554591D+00  .251562500000D+03  .156812078422D+01 -.835356224511D-08
      .211794536378D-09  .100000000000D+01  .241100000000D+04  .000000000000D+00
      .200000000000D+01  .000000000000D+00 -.125728547573D-07  .230000000000D+02
      .496008000000D+06  .400000000000D+01
G22 2026 03 27 17 59 44 -.277706421912D-04  .568434188608D-11  .000000000000D+00
      .900000000000D+01  .305625000000D+02  .484913055718D-08 -.245812514772D+01
      .180490314960D-05  .120494292350D-01  .638142228127D-05  .515361620903D+04
      .496784000000D+06 -.372529029846D-08  .679740499703D+00  .210478901863D-06
      .957806120927D+00  .252250000000D+03 -.993854490966D+00 -.796140305296D-08
      .237509893240D-09  .100000000000D+01  .241100000000D+04  .000000000000D+00
      .200000000000D+01  .000000000000D+00 -.111758708954D-07  .900000000000D+01
      .489618000000D+06  .400000000000D+01
G19 2026 03 27 18 00 00  .695162918419D-03  .125055521494D-11  .000000000000D+00
      .780000000000D+02  .278125000000D+01  .477805616808D-08 -.131619242689D+01
      .109896063805D-06  .112484014826D-01  .840984284878D-05  .515372334671D+04
      .496800000000D+06 -.502914190292D-07  .173740152906D+01 -.156462192535D-06
      .957762815626D+00  .216593750000D+03  .294176186803D+01 -.812783855710D-08
     -.280368821344D-09  .100000000000D+01  .241100000000D+04  .000000000000D+00
      .200000000000D+01  .000000000000D+00 -.153668224812D-07  .780000000000D+02
      .489618000000D+06  .400000000000D+01
G01 2026 03 27 18 00 00  .309696421027D-03 -.727595761418D-11  .000000000000D+00
      .155000000000D+03  .922187500000D+02  .450875923649D-08  .205649762828D+01
      .482797622681D-05  .165333866607D-02  .872276723385D-05  .515362621689D+04
      .496800000000D+06 -.111758708954D-07  .275864271837D+01  .800937414169D-07
      .957988621420D+00  .209156250000D+03  .126220073024D+00 -.809998025383D-08
     -.250010413937D-10  .100000000000D+01  .241100000000D+04  .000000000000D+00
      .200000000000D+01  .000000000000D+00 -.931322574615D-08  .155000000000D+03
      .489618000000D+06  .400000000000D+01
C25 2026 03 27 17 00 00  .907110283151D-03 -.965272306530D-11  .000000000000D+00
      .100000000000D+01  .173281250000D+02  .415838749925D-08  .249896480707D+01
      .920612365007D-06  .593305681832D-03  .914279371500D-05  .528266081429D+04
      .493200000000D+06  .791624188423D-08  .745230131198D-01 -.298023223877D-07
      .946038527856D+00  .169046875000D+03  .804104793849D+00 -.681849830354D-08
      .495734935064D-09  .000000000000D+00  .105500000000D+04  .000000000000D+00
      .200000000000D+01  .000000000000D+00  .299999997067D-09  .300000000000D-09
      .493200000000D+06  .100000000000D+01
C27 2026 03 27 17 00 00  .612457050011D-03  .490363305516D-11  .000000000000D+00
      .100000000000D+01  .424687500000D+02  .396409369184D-08 -.168499444040D+01
      .216299667954D-05  .725705525838D-03  .890390947461D-05  .528262272453D+04
      .493200000000D+06 -.325962901115D-08  .219348369727D+01  .195577740669D-07
      .949231330472D+00  .176968750000D+03  .139801358575D+01 -.683099882423D-08
     -.339299847486D-09  .000000000000D+00  .105500000000D+04  .000000000000D+00
      .200000000000D+01  .000000000000D+00 -.489999996134D-08 -.490000000000D-08
      .495600000000D+06  .100000000000D+01
C21 2026 03 27 17 00 00 -.865096226335D-03  .327027294134D-11  .000000000000D+00
      .100000000000D+01 -.850781250000D+02  .349585990231D-08  .110341973027D+01
     -.416813418269D-05  .914002885111D-03  .231852754951D-05  .528263243103D+04
      .493200000000D+06  .251457095146D-07 -.198400787087D+01  .991858541965D-07
      .987228044068D+00  .327109375000D+03 -.427734541889D+00 -.694350351051D-08
     -.110004582132D-09  .000000000000D+00  .105500000000D+04  .000000000000D+00
      .200000000000D+01  .000000000000D+00  .111000000302D-07  .111000000000D-07
      .493200000000D+06  .100000000000D+01
C11 2026 03 27 17 00 00 -.175755703822D-04  .144302347849D-10 -.149077798717D-18
      .120000000000D+02  .527343750000D+02  .348871674763D-08  .299027411870D+01
      .282051041722D-05  .180197542068D-02  .108322128654D-04  .528265075684D+04
      .493200000000D+06  .353902578354D-07  .223651776886D+01  .381842255592D-07
      .974162503264D+00  .146625000000D+03 -.138932188619D+01 -.658741724951D-08
     -.371444043564D-09  .000000000000D+00  .105500000000D+04  .000000000000D+00
      .200000000000D+01  .000000000000D+00  .379999987032D-08  .190000000000D-08
      .493200000000D+06  .110000000000D+02
C28 2026 03 27 17 00 00  .499665853567D-03  .450484094472D-11  .000000000000D+00
      .100000000000D+01  .337968750000D+02  .403016787267D-08  .416797425469D+00
      .172806903720D-05  .993256689981D-04  .958563759923D-05  .528263129807D+04
      .493200000000D+06 -.102445483208D-07  .219317369177D+01 -.139698386192D-08
      .949105971559D+00  .160375000000D+03 -.703892440403D-01 -.683635619025D-08
     -.381087302387D-09  .000000000000D+00  .105500000000D+04  .000000000000D+00
      .200000000000D+01  .000000000000D+00 -.479999995306D-08 -.480000000000D-08
      .493200000000D+06  .100000000000D+01
C14 2026 03 27 17 00 00 -.560904853046D-03 -.421627177616D-10 -.176182853029D-18
      .100000000000D+02 -.727187500000D+02  .352514683652D-08 -.371532927541D+00
     -.374484807253D-05  .140526029281D-02  .222213566303D-05  .528263457489D+04
      .493200000000D+06  .105239450932D-06 -.198838335206D+01  .474974513054D-07
      .985374175761D+00  .330031250000D+03 -.120895904097D+00 -.697814781072D-08
     -.181078971237D-09  .000000000000D+00  .105500000000D+04  .000000000000D+00
      .200000000000D+01  .000000000000D+00  .620000006890D-08  .210000000000D-08
      .494310000000D+06  .900000000000D+01
C23 2026 03 27 17 00 00 -.474163563922D-03  .415489864736D-11  .000000000000D+00
      .100000000000D+01  .210312500000D+02  .417410243955D-08  .304202355107D+01
      .110128894448D-05  .145488767885D-03  .867713242769D-05  .528264730453D+04
      .493200000000D+06  .605359673500D-08  .973244814753D-01 -.502914190292D-07
      .944432567110D+00  .174406250000D+03 -.485606546822D+00 -.685992860070D-08
      .508949771229D-09  .000000000000D+00  .105500000000D+04  .000000000000D+00
      .200000000000D+01  .000000000000D+00  .220000000439D-07  .220000000000D-07
      .493200000000D+06  .100000000000D+01
E26 2026 03 27 17 40 00  .259076012298D-03  .108144604383D-10  .000000000000D+00
      .640000000000D+02  .138250000000D+03  .259082220386D-08  .121393714053D+01
      .660866498947D-05  .257048639469D-03  .894628465176D-05  .544061356163D+04
      .495600000000D+06  .782310962677D-07  .286915575597D+01 -.894069671631D-07
      .991782299691D+00  .157875000000D+03 -.591046918905D+00 -.544951270836D-08
      .253581991279D-10  .513000000000D+03  .241100000000D+04
      .312000000000D+01  .000000000000D+00 -.675208866596D-08 -.745058059692D-08
      .496315000000D+06
E26 2026 03 27 17 40 00  .259075895883D-03  .108144604383D-10  .000000000000D+00
      .640000000000D+02  .138250000000D+03  .259082220386D-08  .121393714053D+01
      .660866498947D-05  .257048639469D-03  .894628465176D-05  .544061356163D+04
      .495600000000D+06  .782310962677D-07  .286915575597D+01 -.894069671631D-07
      .991782299691D+00  .157875000000D+03 -.591046918905D+00 -.544951270836D-08
      .253581991279D-10  .258000000000D+03  .241100000000D+04
      .312000000000D+01  .000000000000D+00 -.675208866596D-08  .000000000000D+00
      .496320000000D+06
E26 2026 03 27 17 40 00  .259076012298D-03  .108144604383D-10  .000000000000D+00
      .640000000000D+02  .138250000000D+03  .259082220386D-08  .121393714053D+01
      .660866498947D-05  .257048639469D-03  .894628465176D-05  .544061356163D+04
      .495600000000D+06  .782310962677D-07  .286915575597D+01 -.894069671631D-07
      .991782299691D+00  .157875000000D+03 -.591046918905D+00 -.544951270836D-08
      .253581991279D-10  .516000000000D+03  .241100000000D+04
      .312000000000D+01  .000000000000D+00 -.675208866596D-08 -.745058059692D-08
      .496294000000D+06
E33 2026 03 27 17 40 00 -.863807508722D-05 -.126476606965D-11  .000000000000D+00
      .640000000000D+02  .109031250000D+03  .252296223436D-08  .630567469415D+00
      .509619712830D-05  .164147932082D-03  .885315239429D-05  .544061074448D+04
      .495600000000D+06 -.596046447754D-07  .287207610911D+01 -.316649675369D-07
      .998515147547D+00  .164343750000D+03 -.773721540425D+00 -.530022077547D-08
     -.135719938995D-10  .513000000000D+03  .241100000000D+04
      .360000000000D+01  .000000000000D+00 -.582076609135D-08 -.628642737865D-08
      .496285000000D+06
E33 2026 03 27 17 40 00 -.863801687956D-05 -.126476606965D-11  .000000000000D+00
      .640000000000D+02  .109031250000D+03  .252296223436D-08  .630567469415D+00
      .509619712830D-05  .164147932082D-03  .885315239429D-05  .544061074448D+04
      .495600000000D+06 -.596046447754D-07  .287207610911D+01 -.316649675369D-07
      .998515147547D+00  .164343750000D+03 -.773721540425D+00 -.530022077547D-08
     -.135719938995D-10  .258000000000D+03  .241100000000D+04
      .360000000000D+01  .000000000000D+00 -.582076609135D-08  .000000000000D+00
      .496320000000D+06
E33 2026 03 27 17 40 00 -.863807508722D-05 -.126476606965D-11  .000000000000D+00
      .640000000000D+02  .109031250000D+03  .252296223436D-08  .630567469415D+00
      .509619712830D-05  .164147932082D-03  .885315239429D-05  .544061074448D+04
      .495600000000D+06 -.596046447754D-07  .287207610911D+01 -.316649675369D-07
      .998515147547D+00  .164343750000D+03 -.773721540425D+00 -.530022077547D-08
     -.135719938995D-10  .516000000000D+03  .241100000000D+04
      .360000000000D+01  .000000000000D+00 -.582076609135D-08 -.628642737865D-08
      .496264000000D+06
E21 2026 03 27 17 30 00 -.731009349693D-03 -.274269496003D-11  .000000000000D+00
      .630000000000D+02  .377187500000D+02  .354836208924D-08  .119010188941D+01
      .184029340744D-05  .150390318595D-03  .566244125366D-05  .544059576035D+04
      .495000000000D+06 -.931322574615D-08  .773094216283D+00  .372529029846D-08
      .961784377426D+00  .220031250000D+03  .146941314881D+01 -.569095133668D-08
      .173221501085D-09  .513000000000D+03  .241100000000D+04
      .312000000000D+01  .000000000000D+00 -.698491930962D-09 -.698491930962D-09
      .495895000000D+06
E21 2026 03 27 17 30 00 -.731010281015D-03 -.274269496003D-11  .000000000000D+00
      .630000000000D+02  .377187500000D+02  .354836208924D-08  .119010188941D+01
      .184029340744D-05  .150390318595D-03  .566244125366D-05  .544059576035D+04
      .495000000000D+06 -.931322574615D-08  .773094216283D+00  .372529029846D-08
      .961784377426D+00  .220031250000D+03  .146941314881D+01 -.569095133668D-08
      .173221501085D-09  .258000000000D+03  .241100000000D+04
      .312000000000D+01  .000000000000D+00 -.698491930962D-09  .000000000000D+00
      .495920000000D+06
E21 2026 03 27 17 30 00 -.731009349693D-03 -.274269496003D-11  .000000000000D+00
      .630000000000D+02  .377187500000D+02  .354836208924D-08  .119010188941D+01
      .184029340744D-05  .150390318595D-03  .566244125366D-05  .544059576035D+04
      .495000000000D+06 -.931322574615D-08  .773094216283D+00  .372529029846D-08
      .961784377426D+00  .220031250000D+03  .146941314881D+01 -.569095133668D-08
      .173221501085D-09  .516000000000D+03  .241100000000D+04
      .312000000000D+01  .000000000000D+00 -.698491930962D-09 -.698491930962D-09
      .495874000000D+06
E23 2026 03 27 17 40 00 -.296696671285D-04 -.130739863380D-11  .000000000000D+00
      .640000000000D+02  .394062500000D+02  .350514600340D-08 -.137891112038D+00
      .186264514923D-05  .298776780255D-03  .545941293240D-05  .544059919548D+04
      .495600000000D+06 -.260770320892D-07  .769731191445D+00  .223517417908D-07
      .963709327459D+00  .221062500000D+03  .208249842094D+01 -.571738100901D-08
      .200722646618D-09  .513000000000D+03  .241100000000D+04
      .312000000000D+01  .000000000000D+00 -.116415321827D-08  .232830643654D-09
      .496285000000D+06
E23 2026 03 27 17 40 00 -.296715879813D-04 -.130739863380D-11  .000000000000D+00
      .640000000000D+02  .394062500000D+02  .350514600340D-08 -.137891112038D+00
      .186264514923D-05  .298776780255D-03  .545941293240D-05  .544059919548D+04
      .495600000000D+06 -.260770320892D-07  .769731191445D+00  .223517417908D-07
      .963709327459D+00  .221062500000D+03  .208249842094D+01 -.571738100901D-08
      .200722646618D-09  .258000000000D+03  .241100000000D+04
      .312000000000D+01  .000000000000D+00 -.116415321827D-08  .000000000000D+00
      .496320000000D+06
E23 2026 03 27 17 40 00 -.296696671285D-04 -.130739863380D-11  .000000000000D+00
      .640000000000D+02  .394062500000D+02  .350514600340D-08 -.137891112038D+00
      .186264514923D-05  .298776780255D-03  .545941293240D-05  .544059919548D+04
      .495600000000D+06 -.260770320892D-07  .769731191445D+00  .223517417908D-07
      .963709327459D+00  .221062500000D+03  .208249842094D+01 -.571738100901D-08
      .200722646618D-09  .516000000000D+03  .241100000000D+04
      .312000000000D+01  .000000000000D+00 -.116415321827D-08  .232830643654D-09
      .496264000000D+06
E31 2026 03 27 17 30 00 -.129195919726D-03 -.284217094304D-11  .000000000000D+00
      .630000000000D+02  .336250000000D+02  .354979072017D-08  .139865763104D+01
      .130012631416D-05  .696810893714D-04  .555068254471D-05  .544059814072D+04
      .495000000000D+06  .689178705215D-07  .773017315068D+00  .260770320892D-07
      .961759588279D+00  .219531250000D+03 -.297351097638D+00 -.577988361250D-08
      .160363822654D-09  .513000000000D+03  .241100000000D+04
      .312000000000D+01  .000000000000D+00  .256113708019D-08  .302679836750D-08
      .495685000000D+06
E31 2026 03 27 17 30 00 -.129197142087D-03 -.282796008833D-11  .000000000000D+00
      .630000000000D+02  .336250000000D+02  .354979072017D-08  .139865763104D+01
      .130012631416D-05  .696810893714D-04  .555068254471D-05  .544059814072D+04
      .495000000000D+06  .689178705215D-07  .773017315068D+00  .260770320892D-07
      .961759588279D+00  .219531250000D+03 -.297351097638D+00 -.577988361250D-08
      .160363822654D-09  .258000000000D+03  .241100000000D+04
      .312000000000D+01  .000000000000D+00  .256113708019D-08  .000000000000D+00
      .495720000000D+06
E31 2026 03 27 17 30 00 -.129195919726D-03 -.284217094304D-11  .000000000000D+00
      .630000000000D+02  .336250000000D+02  .354979072017D-08  .139865763104D+01
      .130012631416D-05  .696810893714D-04  .555068254471D-05  .544059814072D+04
      .495000000000D+06  .689178705215D-07  .773017315068D+00  .260770320892D-07
      .961759588279D+00  .219531250000D+03 -.297351097638D+00 -.577988361250D-08
      .160363822654D-09  .516000000000D+03  .241100000000D+04
      .312000000000D+01  .000000000000D+00  .256113708019D-08  .302679836750D-08
      .495664000000D+06
E13 2026 03 27 17 40 00 -.512108090334D-04 -.781597009336D-12  .000000000000D+00
      .640000000000D+02  .147250000000D+03  .254010580560D-08  .165659652188D+01
      .693462789059D-05  .350266927853D-03  .882335007191D-05  .544061657715D+04
      .495600000000D+06  .372529029846D-07  .287210533382D+01  .465661287308D-07
      .998496884477D+00  .168812500000D+03 -.250506804717D+00 -.539951062558D-08
      .964325882329D-10  .513000000000D+03  .241100000000D+04
      .312000000000D+01  .000000000000D+00  .325962901115D-08  .372529029846D-08
      .496285000000D+06
E13 2026 03 27 17 40 00 -.512117985636D-04 -.795807864051D-12  .000000000000D+00
      .640000000000D+02  .147250000000D+03  .254010580560D-08  .165659652188D+01
      .693462789059D-05  .350266927853D-03  .882335007191D-05  .544061657715D+04
      .495600000000D+06  .372529029846D-07  .287210533382D+01  .465661287308D-07
      .998496884477D+00  .168812500000D+03 -.250506804717D+00 -.539951062558D-08
      .964325882329D-10  .258000000000D+03  .241100000000D+04
      .312000000000D+01  .000000000000D+00  .325962901115D-08  .000000000000D+00
      .496320000000D+06
E13 2026 03 27 17 40 00 -.512108090334D-04 -.781597009336D-12  .000000000000D+00
      .640000000000D+02  .147250000000D+03  .254010580560D-08  .165659652188D+01
      .693462789059D-05  .350266927853D-03  .882335007191D-05  .544061657715D+04
      .495600000000D+06  .372529029846D-07  .287210533382D+01  .465661287308D-07
      .998496884477D+00  .168812500000D+03 -.250506804717D+00 -.539951062558D-08
      .964325882329D-10  .516000000000D+03  .241100000000D+04
      .312000000000D+01  .000000000000D+00  .325962901115D-08  .372529029846D-08
      .496264000000D+06
G12 2026 03 27 20 00 00 -.607970170677D-03  .000000000000D+00  .000000000000D+00
      .240000000000D+02  .262812500000D+02  .487984612232D-08  .778967248667D+00
      .122934579849D-05  .895478995517D-02  .641122460365D-05  .515375221443D+04
      .504000000000D+06 -.121071934700D-06  .659391824168D+00 -.130385160446D-07
      .959249074563D+00  .253687500000D+03  .156810408354D+01 -.833677583160D-08
      .218223375594D-09  .100000000000D+01  .241100000000D+04  .000000000000D+00
      .200000000000D+01  .000000000000D+00 -.125728547573D-07  .240000000000D+02
      .496818000000D+06  .400000000000D+01
G06 2026 03 27 20 00 00 -.612391624600D-03  .682121026330D-12  .000000000000D+00
      .520000000000D+02  .835937500000D+02  .384980321690D-08  .231049420945D+01
      .457465648651D-05  .382418453228D-02  .981986522675D-05  .515365659904D+04
      .504000000000D+06  .104308128357D-06  .270982206847D+01  .800937414169D-07
      .986825532399D+00  .202156250000D+03 -.545998555420D+00 -.773389357628D-08
     -.607168148133D-10  .100000000000D+01  .241100000000D+04  .000000000000D+00
      .200000000000D+01  .000000000000D+00  .372529029846D-08  .520000000000D+02
      .496818000000D+06  .400000000000D+01
G19 2026 03 27 20 00 00  .695172231644D-03  .125055521494D-11  .000000000000D+00
      .790000000000D+02  .550000000000D+01  .484234456023D-08 -.266062093114D+00
      .277534127235D-06  .112480946118D-01  .834837555885D-05  .515372258377D+04
      .504000000000D+06  .134110450745D-06  .173734343512D+01 -.102445483208D-06
      .957760053636D+00  .217218750000D+03  .294178388202D+01 -.823605735056D-08
     -.404659712844D-09  .100000000000D+01  .241100000000D+04  .000000000000D+00
      .200000000000D+01  .000000000000D+00 -.153668224812D-07  .790000000000D+02
      .496818000000D+06  .400000000000D+01
G22 2026 03 27 20 00 00 -.277296639979D-04  .568434188608D-11  .000000000000D+00
      .150000000000D+02  .297500000000D+02  .492056210402D-08 -.140557856481D+01
      .161305069923D-05  .120493989671D-01  .679492950439D-05  .515361610031D+04
      .504000000000D+06 -.258907675743D-06  .679681529475D+00  .745058059692D-08
      .957806640263D+00  .252218750000D+03 -.993848387672D+00 -.826891586211D-08
      .296083761649D-09  .100000000000D+01  .241100000000D+04  .000000000000D+00
      .200000000000D+01  .000000000000D+00 -.111758708954D-07  .150000000000D+02
      .496818000000D+06  .400000000000D+01
G14 2026 03 27 20 00 00  .741012860090D-03  .159161572810D-11  .000000000000D+00
      .175000000000D+03  .310000000000D+02  .523236080597D-08  .636764380158D+00
      .163167715073D-05  .685790320858D-02  .649318099022D-05  .515364888382D+04
      .504000000000D+06 -.186264514923D-08  .604365421651D+00  .147148966789D-06
      .942617315452D+00  .245375000000D+03 -.273733975797D+01 -.836999150089D-08
      .221080637467D-09  .100000000000D+01  .241100000000D+04  .000000000000D+00
      .200000000000D+01  .000000000000D+00 -.838190317154D-08  .431000000000D+03
      .496818000000D+06  .400000000000D+01
G11 2026 03 27 20 00 00 -.392968766391D-03  .128466126625D-10  .000000000000D+00
      .140000000000D+02  .783750000000D+02  .435625288399D-08 -.284401283456D+01
      .417605042458D-05  .221237854566D-02  .901520252228D-05  .515358977127D+04
      .504000000000D+06  .391155481339D-07  .272805874673D+01 -.111758708954D-06
      .963702298137D+00  .204437500000D+03 -.231409073942D+01 -.797211778499D-08
     -.553594488004D-10  .100000000000D+01  .241100000000D+04  .000000000000D+00
      .200000000000D+01  .000000000000D+00 -.884756445885D-08  .270000000000D+03
      .496818000000D+06  .400000000000D+01
G24 2026 03 27 20 00 00 -.629909336567D-04  .171667124960D-10  .000000000000D+00
      .790000000000D+02 -.552812500000D+02  .467269463649D-08  .244717179729D+01
     -.291876494884D-05  .179570731707D-01  .103805214167D-04  .515365205383D+04
      .504000000000D+06  .197440385818D-06 -.567120241257D+00 -.264495611191D-06
      .935152142509D+00  .162718750000D+03  .113828406855D+01 -.779103881375D-08
      .251796202608D-09  .100000000000D+01  .241100000000D+04  .000000000000D+00
      .200000000000D+01  .000000000000D+00  .232830643654D-08  .790000000000D+02
      .496818000000D+06  .400000000000D+01
G17 2026 03 27 20 00 00 -.984068028629D-04 -.954969436862D-11  .000000000000D+00
      .630000000000D+02  .107187500000D+02  .473448292450D-08 -.205360418698D+01
      .827014446259D-06  .126033638371D-01  .849552452564D-05  .515360447693D+04
      .504000000000D+06 -.745058059692D-07  .169345500475D+01  .260770320892D-06
      .958587835591D+00  .214875000000D+03 -.111733842588D+01 -.794497379719D-08
     -.435732435719D-09  .100000000000D+01  .241100000000D+04  .000000000000D+00
      .200000000000D+01  .000000000000D+00 -.111758708954D-07  .630000000000D+02
      .496818000000D+06  .400000000000D+01
G01 2026 03 27 20 00 00  .309643801302D-03 -.727595761418D-11  .000000000000D+00
      .156000000000D+03  .924062500000D+02  .445518557636D-08  .310670457362D+01
      .477582216263D-05  .165269954596D-02  .844150781631D-05  .515362722969D+04
      .504000000000D+06 -.298023223877D-07  .275858444595D+01 -.130385160446D-07
      .957988900837D+00  .215593750000D+03  .126223095413D+00 -.802747723379D-08
      .135719938995D-10  .100000000000D+01  .241100000000D+04  .000000000000D+00
      .200000000000D+01  .000000000000D+00 -.931322574615D-08  .156000000000D+03
      .496818000000D+06  .400000000000D+01
G03 2026 03 27 20 00 00  .524952076375D-03 -.136424205266D-10  .000000000000D+00
      .680000000000D+02  .232812500000D+02  .401516724783D-08  .101400579983D+01
      .117532908916D-05  .659557909239D-02  .353157520294D-05  .515361481476D+04
      .504000000000D+06 -.158324837685D-06 -.253708272928D+01  .353902578354D-07
      .993752907397D+00  .330281250000D+03  .120342280451D+01 -.817141180067D-08
      .400016662300D-10  .100000000000D+01  .241100000000D+04  .000000000000D+00
      .200000000000D+01  .000000000000D+00  .139698386192D-08  .680000000000D+02
      .496818000000D+06  .400000000000D+01
C21 2026 03 27 18 00 00 -.865084351972D-03  .327649019027D-11  .000000000000D+00
      .100000000000D+01 -.803750000000D+02  .346192991756D-08  .158991783496D+01
     -.391434878111D-05  .913938740268D-03  .259559601545D-05  .528263433266D+04
      .496800000000D+06 -.465661287308D-07 -.198403255908D+01  .796280801296D-07
      .987227723689D+00  .321750000000D+03 -.426668991859D+00 -.691635952271D-08
     -.159292349451D-09  .000000000000D+00  .105500000000D+04  .000000000000D+00
      .200000000000D+01  .000000000000D+00  .111000000302D-07  .111000000000D-07
      .496800000000D+06  .100000000000D+01
C28 2026 03 27 18 00 00  .499681802467D-03  .447641923529D-11  .000000000000D+00
      .100000000000D+01  .325000000000D+02  .404838291711D-08  .905010238383D+00
      .171409919858D-05  .991557026282D-04  .964524224401D-05  .528263100243D+04
      .496800000000D+06 -.558793544769D-08  .219314906208D+01 -.372529029846D-08
      .949104589101D+00  .159062500000D+03 -.710359167368D-01 -.683921345212D-08
     -.378230040514D-09  .000000000000D+00  .105500000000D+04  .000000000000D+00
      .200000000000D+01  .000000000000D+00 -.479999995306D-08 -.480000000000D-08
      .496800000000D+06  .100000000000D+01
C11 2026 03 27 18 00 00 -.175236491486D-04  .144293466064D-10 -.149077798717D-18
      .130000000000D+02  .593906250000D+02  .353871883041D-08 -.280555919752D+01
      .301422551274D-05  .180286273826D-02  .107702799141D-04  .528264890099D+04
      .496800000000D+06 -.162981450558D-07  .223649384429D+01  .419095158577D-07
      .974161240766D+00  .149562500000D+03 -.138911517002D+01 -.656563062773D-08
     -.338228374284D-09  .000000000000D+00  .105500000000D+04  .000000000000D+00
      .200000000000D+01  .000000000000D+00  .379999987032D-08  .190000000000D-08
      .496800000000D+06  .120000000000D+02
C25 2026 03 27 18 00 00  .907076057047D-03 -.960564960906D-11  .000000000000D+00
      .100000000000D+01  .161093750000D+02  .414410118988D-08  .298659655770D+01
      .818632543087D-06  .593491829932D-03  .918656587601D-05  .528266043663D+04
      .496800000000D+06  .325962901115D-08  .744985370374D-01 -.931322574615D-08
      .946040368207D+00  .168484375000D+03  .804031305623D+00 -.680385483644D-08
      .487520307178D-09  .000000000000D+00  .105500000000D+04  .000000000000D+00
      .200000000000D+01  .000000000000D+00  .299999997067D-09  .300000000000D-09
      .496800000000D+06  .100000000000D+01
C14 2026 03 27 18 00 00 -.561056658626D-03 -.421644941184D-10 -.176182853029D-18
      .110000000000D+02 -.738437500000D+02  .357086302649D-08  .116028799054D+00
     -.380119308829D-05  .140593037941D-02  .185193493962D-05  .528263588524D+04
      .496800000000D+06  .409781932831D-07 -.198840847182D+01  .610016286373D-07
      .985373242419D+00  .334734375000D+03 -.120894458734D+00 -.703457873273D-08
     -.183936233111D-09  .000000000000D+00  .105500000000D+04  .000000000000D+00
      .200000000000D+01  .000000000000D+00  .620000006890D-08  .210000000000D-08
      .496800000000D+06  .100000000000D+02
C27 2026 03 27 18 00 00  .612474628724D-03  .490096851991D-11  .000000000000D+00
      .100000000000D+01  .365625000000D+02  .403123934587D-08 -.120024751010D+01
      .187940895557D-05  .724932644516D-03  .962242484093D-05  .528261846924D+04
      .496800000000D+06 -.125728547573D-07  .219345909392D+01  .144354999065D-07
      .949230067974D+00  .162062500000D+03  .140083482619D+01 -.683992776759D-08
     -.337871216549D-09  .000000000000D+00  .105500000000D+04  .000000000000D+00
      .200000000000D+01  .000000000000D+00 -.489999996134D-08 -.490000000000D-08
      .496800000000D+06  .100000000000D+01
C23 2026 03 27 18 00 00 -.474149594083D-03  .407229805433D-11  .000000000000D+00
      .100000000000D+01  .218125000000D+02  .420267505829D-08 -.275448846990D+01
      .117346644402D-05  .145850121044D-03  .893371179700D-05  .528264655113D+04
      .496800000000D+06 -.101514160633D-06  .972998473978D-01 -.838190317154D-07
      .944433989067D+00  .171796875000D+03 -.484717772887D+00 -.694564645691D-08
      .517521556850D-09  .000000000000D+00  .105500000000D+04  .000000000000D+00
      .200000000000D+01  .000000000000D+00  .220000000439D-07  .220000000000D-07
      .496800000000D+06  .100000000000D+01
E33 2026 03 27 17 50 00 -.863894820213D-05 -.127897692437D-11  .000000000000D+00
      .650000000000D+02  .110062500000D+03  .252724812717D-08  .704085536812D+00
      .515766441822D-05  .164188095368D-03  .881776213646D-05  .544061103821D+04
      .496200000000D+06 -.577419996262D-07  .287207293311D+01 -.465661287308D-07
      .998515075864D+00  .164937500000D+03 -.772854401585D+00 -.530914971882D-08
     -.892894335490D-11  .516000000000D+03  .241100000000D+04
      .360000000000D+01  .000000000000D+00 -.582076609135D-08 -.628642737865D-08
      .496864000000D+06
E13 2026 03 27 17 50 00 -.512113329023D-04 -.795807864051D-12  .000000000000D+00
      .650000000000D+02  .149312500000D+03  .255046337989D-08  .173152825530D+01
      .700354576111D-05  .350465881638D-03  .878795981407D-05  .544061603355D+04
      .496200000000D+06  .260770320892D-07  .287210203202D+01  .465661287308D-07
      .998496925439D+00  .169843750000D+03 -.251053881950D+00 -.539522473277D-08
      .102147111980D-09  .516000000000D+03  .241100000000D+04
      .312000000000D+01  .000000000000D+00  .325962901115D-08  .372529029846D-08
      .496864000000D+06
E23 2026 03 27 17 50 00 -.296705402434D-04 -.130739863380D-11  .000000000000D+00
      .650000000000D+02  .397187500000D+02  .350050295286D-08 -.634157154391D-01
      .189431011677D-05  .298736849800D-03  .548176467419D-05  .544059909821D+04
      .496200000000D+06 -.260770320892D-07  .769727734570D+00  .167638063431D-07
      .963709454733D+00  .220843750000D+03  .208240919172D+01 -.571452374714D-08
      .201794119821D-09  .516000000000D+03  .241100000000D+04
      .312000000000D+01  .000000000000D+00 -.116415321827D-08  .232830643654D-09
      .496864000000D+06
E26 2026 03 27 17 50 00  .259082473349D-03  .108144604383D-10  .000000000000D+00
      .650000000000D+02  .139468750000D+03  .258796494198D-08  .128706661593D+01
      .667385756969D-05  .256925239228D-03  .908039510250D-05  .544061424446D+04
      .496200000000D+06  .894069671631D-07  .286915244100D+01 -.745058059692D-07
      .991782254340D+00  .155343750000D+03 -.589791069565D+00 -.545272712797D-08
      .357157734196D-10  .516000000000D+03  .241100000000D+04
      .312000000000D+01  .000000000000D+00 -.675208866596D-08 -.745058059692D-08
      .496864000000D+06
E23 2026 03 27 17 50 00 -.296705402434D-04 -.130739863380D-11  .000000000000D+00
      .650000000000D+02  .397187500000D+02  .350050295286D-08 -.634157154391D-01
      .189431011677D-05  .298736849800D-03  .548176467419D-05  .544059909821D+04
      .496200000000D+06 -.260770320892D-07  .769727734570D+00  .167638063431D-07
      .963709454733D+00  .220843750000D+03  .208240919172D+01 -.571452374714D-08
      .201794119821D-09  .513000000000D+03  .241100000000D+04
      .312000000000D+01  .000000000000D+00 -.116415321827D-08  .232830643654D-09
      .496885000000D+06
E13 2026 03 27 17 50 00 -.512113329023D-04 -.795807864051D-12  .000000000000D+00
      .650000000000D+02  .149312500000D+03  .255046337989D-08  .173152825530D+01
      .700354576111D-05  .350465881638D-03  .878795981407D-05  .544061603355D+04
      .496200000000D+06  .260770320892D-07  .287210203202D+01  .465661287308D-07
      .998496925439D+00  .169843750000D+03 -.251053881950D+00 -.539522473277D-08
      .102147111980D-09  .513000000000D+03  .241100000000D+04
      .312000000000D+01  .000000000000D+00  .325962901115D-08  .372529029846D-08
      .496885000000D+06
E33 2026 03 27 17 50 00 -.863894820213D-05 -.127897692437D-11  .000000000000D+00
      .650000000000D+02  .110062500000D+03  .252724812717D-08  .704085536812D+00
      .515766441822D-05  .164188095368D-03  .881776213646D-05  .544061103821D+04
      .496200000000D+06 -.577419996262D-07  .287207293311D+01 -.465661287308D-07
      .998515075864D+00  .164937500000D+03 -.772854401585D+00 -.530914971882D-08
     -.892894335490D-11  .513000000000D+03  .241100000000D+04
      .360000000000D+01  .000000000000D+00 -.582076609135D-08 -.628642737865D-08
      .496885000000D+06
E26 2026 03 27 17 50 00  .259082473349D-03  .108144604383D-10  .000000000000D+00
      .650000000000D+02  .139468750000D+03  .258796494198D-08  .128706661593D+01
      .667385756969D-05  .256925239228D-03  .908039510250D-05  .544061424446D+04
      .496200000000D+06  .894069671631D-07  .286915244100D+01 -.745058059692D-07
      .991782254340D+00  .155343750000D+03 -.589791069565D+00 -.545272712797D-08
      .357157734196D-10  .513000000000D+03  .241100000000D+04
      .312000000000D+01  .000000000000D+00 -.675208866596D-08 -.745058059692D-08
      .496885000000D+06
E33 2026 03 27 17 50 00 -.863888999447D-05 -.126476606965D-11  .000000000000D+00
      .650000000000D+02  .110062500000D+03  .252724812717D-08  .704085536812D+00
      .515766441822D-05  .164188095368D-03  .881776213646D-05  .544061103821D+04
      .496200000000D+06 -.577419996262D-07  .287207293311D+01 -.465661287308D-07
      .998515075864D+00  .164937500000D+03 -.772854401585D+00 -.530914971882D-08
     -.892894335490D-11  .258000000000D+03  .241100000000D+04
      .360000000000D+01  .000000000000D+00 -.582076609135D-08  .000000000000D+00
      .496920000000D+06
E26 2026 03 27 17 50 00  .259082415141D-03  .108144604383D-10  .000000000000D+00
      .650000000000D+02  .139468750000D+03  .258796494198D-08  .128706661593D+01
      .667385756969D-05  .256925239228D-03  .908039510250D-05  .544061424446D+04
      .496200000000D+06  .894069671631D-07  .286915244100D+01 -.745058059692D-07
      .991782254340D+00  .155343750000D+03 -.589791069565D+00 -.545272712797D-08
      .357157734196D-10  .258000000000D+03  .241100000000D+04
      .312000000000D+01  .000000000000D+00 -.675208866596D-08  .000000000000D+00
      .496920000000D+06
E23 2026 03 27 17 50 00 -.296724610962D-04 -.130739863380D-11  .000000000000D+00
      .650000000000D+02  .397187500000D+02  .350050295286D-08 -.634157154391D-01
      .189431011677D-05  .298736849800D-03  .548176467419D-05  .544059909821D+04
      .496200000000D+06 -.260770320892D-07  .769727734570D+00  .167638063431D-07
      .963709454733D+00  .220843750000D+03  .208240919172D+01 -.571452374714D-08
      .201794119821D-09  .258000000000D+03  .241100000000D+04
      .312000000000D+01  .000000000000D+00 -.116415321827D-08  .000000000000D+00
      .496920000000D+06
E13 2026 03 27 17 50 00 -.512123806402D-04 -.810018718767D-12  .000000000000D+00
      .650000000000D+02  .149312500000D+03  .255046337989D-08  .173152825530D+01
      .700354576111D-05  .350465881638D-03  .878795981407D-05  .544061603355D+04
      .496200000000D+06  .260770320892D-07  .287210203202D+01  .465661287308D-07
      .998496925439D+00  .169843750000D+03 -.251053881950D+00 -.539522473277D-08
      .102147111980D-09  .258000000000D+03  .241100000000D+04
      .312000000000D+01  .000000000000D+00  .325962901115D-08  .000000000000D+00
      .496920000000D+06
E21 2026 03 27 17 50 00 -.731012551114D-03 -.274269496003D-11  .000000000000D+00
      .650000000000D+02  .381875000000D+02  .353800451495D-08  .133819329577D+01
      .184774398804D-05  .150351203047D-03  .565126538277D-05  .544059597397D+04
      .496200000000D+06 -.558793544769D-08  .773087380067D+00  .745058059692D-08
      .961784602715D+00  .220812500000D+03  .147009453362D+01 -.568845123254D-08
      .172507185617D-09  .516000000000D+03  .241100000000D+04
      .312000000000D+01  .000000000000D+00 -.698491930962D-09 -.698491930962D-09
      .497194000000D+06
E21 2026 03 27 17 50 00 -.731012551114D-03 -.274269496003D-11  .000000000000D+00
      .650000000000D+02  .381875000000D+02  .353800451495D-08  .133819329577D+01
      .184774398804D-05  .150351203047D-03  .565126538277D-05  .544059597397D+04
      .496200000000D+06 -.558793544769D-08  .773087380067D+00  .745058059692D-08
      .961784602715D+00  .220812500000D+03  .147009453362D+01 -.568845123254D-08
      .172507185617D-09  .513000000000D+03  .241100000000D+04
      .312000000000D+01  .000000000000D+00 -.698491930962D-09 -.698491930962D-09
      .497215000000D+06
E21 2026 03 27 17 50 00 -.731013424229D-03 -.274269496003D-11  .000000000000D+00
      .650000000000D+02  .381875000000D+02  .353800451495D-08  .133819329577D+01
      .184774398804D-05  .150351203047D-03  .565126538277D-05  .544059597397D+04
      .496200000000D+06 -.558793544769D-08  .773087380067D+00  .745058059692D-08
      .961784602715D+00  .220812500000D+03  .147009453362D+01 -.568845123254D-08
      .172507185617D-09  .258000000000D+03  .241100000000D+04
      .312000000000D+01  .000000000000D+00 -.698491930962D-09  .000000000000D+00
      .497220000000D+06
E33 2026 03 27 18 00 00 -.863987952471D-05 -.127897692437D-11  .000000000000D+00
      .660000000000D+02  .111843750000D+03  .252974823131D-08  .777067355494D+00
      .525079667568D-05  .164231169038D-03  .878423452377D-05  .544061150169D+04
      .496800000000D+06 -.521540641785D-07  .287206974688D+01 -.651925802231D-07
      .998514989552D+00  .165562500000D+03 -.771450946737D+00 -.531986445085D-08
     -.250010413937D-11  .516000000000D+03  .241100000000D+04
      .360000000000D+01  .000000000000D+00 -.582076609135D-08 -.628642737865D-08
      .497464000000D+06
E21 2026 03 27 18 00 00 -.731014122721D-03 -.272848410532D-11  .000000000000D+00
      .660000000000D+02  .385312500000D+02  .353336146440D-08  .141222946292D+01
      .185333192348D-05  .150323379785D-03  .564381480217D-05  .544059609032D+04
      .496800000000D+06 -.558793544769D-08  .773083964153D+00  .931322574615D-08
      .961784710971D+00  .221187500000D+03  .147044475767D+01 -.568773691707D-08
      .172507185617D-09  .516000000000D+03  .241100000000D+04
      .312000000000D+01  .000000000000D+00 -.698491930962D-09 -.698491930962D-09
      .497464000000D+06
E23 2026 03 27 18 00 00 -.296713551506D-04 -.130739863380D-11  .000000000000D+00
      .660000000000D+02  .399062500000D+02  .349585990231D-08  .110466158387D-01
      .191852450371D-05  .298707396723D-03  .550411641598D-05  .544059902382D+04
      .496800000000D+06 -.242143869400D-07  .769724283546D+00  .130385160446D-07
      .963709583470D+00  .220656250000D+03  .208233303659D+01 -.571202364300D-08
      .202865593023D-09  .516000000000D+03  .241100000000D+04
      .312000000000D+01  .000000000000D+00 -.116415321827D-08  .232830643654D-09
      .497464000000D+06
E23 2026 03 27 18 00 00 -.296713551506D-04 -.130739863380D-11  .000000000000D+00
      .660000000000D+02  .399062500000D+02  .349585990231D-08  .110466158387D-01
      .191852450371D-05  .298707396723D-03  .550411641598D-05  .544059902382D+04
      .496800000000D+06 -.242143869400D-07  .769724283546D+00  .130385160446D-07
      .963709583470D+00  .220656250000D+03  .208233303659D+01 -.571202364300D-08
      .202865593023D-09  .513000000000D+03  .241100000000D+04
      .312000000000D+01  .000000000000D+00 -.116415321827D-08  .232830643654D-09
      .497485000000D+06
E21 2026 03 27 18 00 00 -.731014122721D-03 -.272848410532D-11  .000000000000D+00
      .660000000000D+02  .385312500000D+02  .353336146440D-08  .141222946292D+01
      .185333192348D-05  .150323379785D-03  .564381480217D-05  .544059609032D+04
      .496800000000D+06 -.558793544769D-08  .773083964153D+00  .931322574615D-08
      .961784710971D+00  .221187500000D+03  .147044475767D+01 -.568773691707D-08
      .172507185617D-09  .513000000000D+03  .241100000000D+04
      .312000000000D+01  .000000000000D+00 -.698491930962D-09 -.698491930962D-09
      .497485000000D+06
E33 2026 03 27 18 00 00 -.863987952471D-05 -.127897692437D-11  .000000000000D+00
      .660000000000D+02  .111843750000D+03  .252974823131D-08  .777067355494D+00
      .525079667568D-05  .164231169038D-03  .878423452377D-05  .544061150169D+04
      .496800000000D+06 -.521540641785D-07  .287206974688D+01 -.651925802231D-07
      .998514989552D+00  .165562500000D+03 -.771450946737D+00 -.531986445085D-08
     -.250010413937D-11  .513000000000D+03  .241100000000D+04
      .360000000000D+01  .000000000000D+00 -.582076609135D-08 -.628642737865D-08
      .497485000000D+06
E33 2026 03 27 18 00 00 -.863982131705D-05 -.127897692437D-11  .000000000000D+00
      .660000000000D+02  .111843750000D+03  .252974823131D-08  .777067355494D+00
      .525079667568D-05  .164231169038D-03  .878423452377D-05  .544061150169D+04
      .496800000000D+06 -.521540641785D-07  .287206974688D+01 -.651925802231D-07
      .998514989552D+00  .165562500000D+03 -.771450946737D+00 -.531986445085D-08
     -.250010413937D-11  .258000000000D+03  .241100000000D+04
      .360000000000D+01  .000000000000D+00 -.582076609135D-08  .000000000000D+00
      .497520000000D+06
E21 2026 03 27 18 00 00 -.731014995836D-03 -.272848410532D-11  .000000000000D+00
      .660000000000D+02  .385312500000D+02  .353336146440D-08  .141222946292D+01
      .185333192348D-05  .150323379785D-03  .564381480217D-05  .544059609032D+04
      .496800000000D+06 -.558793544769D-08  .773083964153D+00  .931322574615D-08
      .961784710971D+00  .221187500000D+03  .147044475767D+01 -.568773691707D-08
      .172507185617D-09  .258000000000D+03  .241100000000D+04
      .312000000000D+01  .000000000000D+00 -.698491930962D-09  .000000000000D+00
      .497520000000D+06
E23 2026 03 27 18 00 00 -.296733342111D-04 -.132160948851D-11  .000000000000D+00
      .660000000000D+02  .399062500000D+02  .349585990231D-08  .110466158387D-01
      .191852450371D-05  .298707396723D-03  .550411641598D-05  .544059902382D+04
      .496800000000D+06 -.242143869400D-07  .769724283546D+00  .130385160446D-07
      .963709583470D+00  .220656250000D+03  .208233303659D+01 -.571202364300D-08
      .202865593023D-09  .258000000000D+03  .241100000000D+04
      .312000000000D+01  .000000000000D+00 -.116415321827D-08  .000000000000D+00
      .497520000000D+06
G21 2026 03 27 20 00 00  .411656685174D-03  .238742359215D-11  .000000000000D+00
      .174000000000D+03  .295000000000D+02  .465947980032D-08  .422721121631D+00
      .136159360409D-05  .809770426713D-03  .284239649773D-05  .515377656364D+04
      .504000000000D+06 -.353902578354D-07 -.253158563612D+01  .651925802231D-07
      .963158050187D+00  .323562500000D+03 -.257342233851D+00 -.838856370306D-08
      .114290474943D-10  .100000000000D+01  .241100000000D+04  .000000000000D+00
      .200000000000D+01  .000000000000D+00 -.977888703346D-08  .942000000000D+03
      .497928000000D+06  .400000000000D+01
E33 2026 03 27 18 10 00 -.864092726260D-05 -.129318777908D-11  .000000000000D+00
      .670000000000D+02  .114343750000D+03  .253010538905D-08  .849543302957D+00
      .537745654583D-05  .164264813066D-03  .876188278198D-05  .544061212349D+04
      .497400000000D+06 -.409781932831D-07  .287206654894D+01 -.819563865662D-07
      .998514898851D+00  .166000000000D+03 -.769541566541D+00 -.533057918288D-08
      .535736601294D-11  .516000000000D+03  .241100000000D+04
      .360000000000D+01  .000000000000D+00 -.582076609135D-08 -.628642737865D-08
      .498064000000D+06
E21 2026 03 27 18 10 00 -.731015636120D-03 -.271427325060D-11  .000000000000D+00
      .670000000000D+02  .389375000000D+02  .352871841386D-08  .148626648880D+01
      .186078250408D-05  .150291132741D-03  .563822686672D-05  .544059621239D+04
      .497400000000D+06 -.558793544769D-08  .773080551165D+00  .931322574615D-08
      .961784817764D+00  .221531250000D+03  .147079411568D+01 -.568702260160D-08
      .172150027883D-09  .516000000000D+03  .241100000000D+04
      .312000000000D+01  .000000000000D+00 -.698491930962D-09 -.698491930962D-09
      .498064000000D+06
E23 2026 03 27 18 10 00 -.296720536426D-04 -.130739863380D-11  .000000000000D+00
      .670000000000D+02  .400000000000D+02  .349085969403D-08  .854923590885D-01
      .193715095520D-05  .298687373288D-03  .552833080292D-05  .544059896851D+04
      .497400000000D+06 -.223517417908D-07  .769720836911D+00  .931322574615D-08
      .963709712206D+00  .220500000000D+03  .208227347827D+01 -.570916638112D-08
      .203579908492D-09  .516000000000D+03  .241100000000D+04
      .312000000000D+01  .000000000000D+00 -.116415321827D-08  .232830643654D-09
      .498064000000D+06
E23 2026 03 27 18 10 00 -.296720536426D-04 -.130739863380D-11  .000000000000D+00
      .670000000000D+02  .400000000000D+02  .349085969403D-08  .854923590885D-01
      .193715095520D-05  .298687373288D-03  .552833080292D-05  .544059896851D+04
      .497400000000D+06 -.223517417908D-07  .769720836911D+00  .931322574615D-08
      .963709712206D+00  .220500000000D+03  .208227347827D+01 -.570916638112D-08
      .203579908492D-09  .513000000000D+03  .241100000000D+04
      .312000000000D+01  .000000000000D+00 -.116415321827D-08  .232830643654D-09
      .498085000000D+06
E21 2026 03 27 18 10 00 -.731015636120D-03 -.271427325060D-11  .000000000000D+00
      .670000000000D+02  .389375000000D+02  .352871841386D-08  .148626648880D+01
      .186078250408D-05  .150291132741D-03  .563822686672D-05  .544059621239D+04
      .497400000000D+06 -.558793544769D-08  .773080551165D+00  .931322574615D-08
      .961784817764D+00  .221531250000D+03  .147079411568D+01 -.568702260160D-08
      .172150027883D-09  .513000000000D+03  .241100000000D+04
      .312000000000D+01  .000000000000D+00 -.698491930962D-09 -.698491930962D-09
      .498085000000D+06
E33 2026 03 27 18 10 00 -.864092726260D-05 -.129318777908D-11  .000000000000D+00
      .670000000000D+02  .114343750000D+03  .253010538905D-08  .849543302957D+00
      .537745654583D-05  .164264813066D-03  .876188278198D-05  .544061212349D+04
      .497400000000D+06 -.409781932831D-07  .287206654894D+01 -.819563865662D-07
      .998514898851D+00  .166000000000D+03 -.769541566541D+00 -.533057918288D-08
      .535736601294D-11  .513000000000D+03  .241100000000D+04
      .360000000000D+01  .000000000000D+00 -.582076609135D-08 -.628642737865D-08
      .498085000000D+06
E33 2026 03 27 18 10 00 -.864092726260D-05 -.129318777908D-11  .000000000000D+00
      .670000000000D+02  .114343750000D+03  .253010538905D-08  .849543302957D+00
      .537745654583D-05  .164264813066D-03  .876188278198D-05  .544061212349D+04
      .497400000000D+06 -.409781932831D-07  .287206654894D+01 -.819563865662D-07
      .998514898851D+00  .166000000000D+03 -.769541566541D+00 -.533057918288D-08
      .535736601294D-11  .258000000000D+03  .241100000000D+04
      .360000000000D+01  .000000000000D+00 -.582076609135D-08  .000000000000D+00
      .498120000000D+06
E21 2026 03 27 18 10 00 -.731016509235D-03 -.272848410532D-11  .000000000000D+00
      .670000000000D+02  .389375000000D+02  .352871841386D-08  .148626648880D+01
      .186078250408D-05  .150291132741D-03  .563822686672D-05  .544059621239D+04
      .497400000000D+06 -.558793544769D-08  .773080551165D+00  .931322574615D-08
      .961784817764D+00  .221531250000D+03  .147079411568D+01 -.568702260160D-08
      .172150027883D-09  .258000000000D+03  .241100000000D+04
      .312000000000D+01  .000000000000D+00 -.698491930962D-09  .000000000000D+00
      .498120000000D+06
E23 2026 03 27 18 10 00 -.296740909107D-04 -.132160948851D-11  .000000000000D+00
      .670000000000D+02  .400000000000D+02  .349085969403D-08  .854923590885D-01
      .193715095520D-05  .298687373288D-03  .552833080292D-05  .544059896851D+04
      .497400000000D+06 -.223517417908D-07  .769720836911D+00  .931322574615D-08
      .963709712206D+00  .220500000000D+03  .208227347827D+01 -.570916638112D-08
      .203579908492D-09  .258000000000D+03  .241100000000D+04
      .312000000000D+01  .000000000000D+00 -.116415321827D-08  .000000000000D+00
      .498120000000D+06
E33 2026 03 27 18 20 00 -.864191679284D-05 -.130739863380D-11  .000000000000D+00
      .680000000000D+02  .117468750000D+03  .252831960037D-08  .921588517598D+00
      .553205609322D-05  .164275639690D-03  .875815749168D-05  .544061288261D+04
      .498000000000D+06 -.260770320892D-07  .287206333783D+01 -.968575477600D-07
      .998514818390D+00  .166062500000D+03 -.767201416950D+00 -.534057959943D-08
      .139291516336D-10  .516000000000D+03  .241100000000D+04
      .360000000000D+01  .000000000000D+00 -.582076609135D-08 -.628642737865D-08
      .498664000000D+06
E21 2026 03 27 18 20 00 -.731017207727D-03 -.271427325060D-11  .000000000000D+00
      .680000000000D+02  .393750000000D+02  .352407536331D-08  .156031532482D+01
      .187009572983D-05  .150252715684D-03  .563263893127D-05  .544059633446D+04
      .498000000000D+06 -.558793544769D-08  .773077136714D+00  .931322574615D-08
      .961784926020D+00  .221781250000D+03  .147113166062D+01 -.568630828614D-08
      .171792870148D-09  .516000000000D+03  .241100000000D+04
      .312000000000D+01  .000000000000D+00 -.698491930962D-09 -.698491930962D-09
      .498664000000D+06
E23 2026 03 27 18 20 00 -.296728103422D-04 -.130739863380D-11  .000000000000D+00
      .680000000000D+02  .400625000000D+02  .348550232802D-08  .159920614616D+00
      .195018947124D-05  .298676081002D-03  .555068254471D-05  .544059893608D+04
      .498000000000D+06 -.186264514923D-07  .769717388813D+00  .558793544769D-08
      .963709845332D+00  .220406250000D+03  .208223141645D+01 -.570595196152D-08
      .204294223960D-09  .516000000000D+03  .241100000000D+04
      .312000000000D+01  .000000000000D+00 -.116415321827D-08  .232830643654D-09
      .498664000000D+06
E23 2026 03 27 18 20 00 -.296728103422D-04 -.130739863380D-11  .000000000000D+00
      .680000000000D+02  .400625000000D+02  .348550232802D-08  .159920614616D+00
      .195018947124D-05  .298676081002D-03  .555068254471D-05  .544059893608D+04
      .498000000000D+06 -.186264514923D-07  .769717388813D+00  .558793544769D-08
      .963709845332D+00  .220406250000D+03  .208223141645D+01 -.570595196152D-08
      .204294223960D-09  .513000000000D+03  .241100000000D+04
      .312000000000D+01  .000000000000D+00 -.116415321827D-08  .232830643654D-09
      .498685000000D+06
E21 2026 03 27 18 20 00 -.731017207727D-03 -.271427325060D-11  .000000000000D+00
      .680000000000D+02  .393750000000D+02  .352407536331D-08  .156031532482D+01
      .187009572983D-05  .150252715684D-03  .563263893127D-05  .544059633446D+04
      .498000000000D+06 -.558793544769D-08  .773077136714D+00  .931322574615D-08
      .961784926020D+00  .221781250000D+03  .147113166062D+01 -.568630828614D-08
      .171792870148D-09  .513000000000D+03  .241100000000D+04
      .312000000000D+01  .000000000000D+00 -.698491930962D-09 -.698491930962D-09
      .498685000000D+06
E33 2026 03 27 18 20 00 -.864191679284D-05 -.130739863380D-11  .000000000000D+00
      .680000000000D+02  .117468750000D+03  .252831960037D-08  .921588517598D+00
      .553205609322D-05  .164275639690D-03  .875815749168D-05  .544061288261D+04
      .498000000000D+06 -.260770320892D-07  .287206333783D+01 -.968575477600D-07
      .998514818390D+00  .166062500000D+03 -.767201416950D+00 -.534057959943D-08
      .139291516336D-10  .513000000000D+03  .241100000000D+04
      .360000000000D+01  .000000000000D+00 -.582076609135D-08 -.628642737865D-08
      .498685000000D+06
E33 2026 03 27 18 20 00 -.864197500050D-05 -.130739863380D-11  .000000000000D+00
      .680000000000D+02  .117468750000D+03  .252831960037D-08  .921588517598D+00
      .553205609322D-05  .164275639690D-03  .875815749168D-05  .544061288261D+04
      .498000000000D+06 -.260770320892D-07  .287206333783D+01 -.968575477600D-07
      .998514818390D+00  .166062500000D+03 -.767201416950D+00 -.534057959943D-08
      .139291516336D-10  .258000000000D+03  .241100000000D+04
      .360000000000D+01  .000000000000D+00 -.582076609135D-08  .000000000000D+00
      .498720000000D+06
E21 2026 03 27 18 20 00 -.731018080842D-03 -.271427325060D-11  .000000000000D+00
      .680000000000D+02  .393750000000D+02  .352407536331D-08  .156031532482D+01
      .187009572983D-05  .150252715684D-03  .563263893127D-05  .544059633446D+04
      .498000000000D+06 -.558793544769D-08  .773077136714D+00  .931322574615D-08
      .961784926020D+00  .221781250000D+03  .147113166062D+01 -.568630828614D-08
      .171792870148D-09  .258000000000D+03  .241100000000D+04
      .312000000000D+01  .000000000000D+00 -.698491930962D-09  .000000000000D+00
      .498720000000D+06
E23 2026 03 27 18 20 00 -.296747894026D-04 -.130739863380D-11  .000000000000D+00
      .680000000000D+02  .400625000000D+02  .348550232802D-08  .159920614616D+00
      .195018947124D-05  .298676081002D-03  .555068254471D-05  .544059893608D+04
      .498000000000D+06 -.186264514923D-07  .769717388813D+00  .558793544769D-08
      .963709845332D+00  .220406250000D+03  .208223141645D+01 -.570595196152D-08
      .204294223960D-09  .258000000000D+03  .241100000000D+04
      .312000000000D+01  .000000000000D+00 -.116415321827D-08  .000000000000D+00
      .498720000000D+06
G04 2026 03 27 20 00 00  .507761724293D-04  .170530256582D-11  .000000000000D+00
      .192000000000D+03 -.113531250000D+03  .419874632321D-08 -.230991664939D+01
     -.591017305851D-05  .371176924091D-02  .674277544022D-05  .515372732544D+04
      .504000000000D+06 -.111758708954D-07 -.146688195089D+01  .372529029846D-08
      .970584239289D+00  .253812500000D+03 -.287180965614D+01 -.799747598412D-08
     -.165364030933D-09  .100000000000D+01  .241100000000D+04  .000000000000D+00
      .200000000000D+01  .000000000000D+00 -.465661287308D-08  .960000000000D+03
      .499278000000D+06  .400000000000D+01
E33 2026 03 27 18 30 00 -.864284811541D-05 -.130739863380D-11  .000000000000D+00
      .690000000000D+02  .120968750000D+03  .252367654983D-08  .993311967796D+00
      .570341944695D-05  .164254452102D-03  .878237187862D-05  .544061374664D+04
      .498600000000D+06 -.111758708954D-07  .287206011649D+01 -.106170773506D-06
      .998514755485D+00  .165562500000D+03 -.764539486824D+00 -.534843706959D-08
      .217866217860D-10  .516000000000D+03  .241100000000D+04
      .360000000000D+01  .000000000000D+00 -.582076609135D-08 -.628642737865D-08
      .499264000000D+06
E21 2026 03 27 18 30 00 -.731018779334D-03 -.270006239589D-11  .000000000000D+00
      .690000000000D+02  .398750000000D+02  .351943231277D-08  .163437636012D+01
      .187940895557D-05  .150212086737D-03  .562891364098D-05  .544059645844D+04
      .498600000000D+06 -.558793544769D-08  .773073725189D+00  .111758708954D-07
      .961785034276D+00  .222000000000D+03  .147145699312D+01 -.568559397067D-08
      .171435712414D-09  .516000000000D+03  .241100000000D+04
      .312000000000D+01  .000000000000D+00 -.698491930962D-09 -.698491930962D-09
      .499264000000D+06
E23 2026 03 27 18 30 00 -.296735670418D-04 -.130739863380D-11  .000000000000D+00
      .690000000000D+02  .400625000000D+02  .347943064654D-08  .234322857996D+00
      .195764005184D-05  .298672472127D-03  .557117164135D-05  .544059892273D+04
      .498600000000D+06 -.149011611938D-07  .769713940715D+00  .372529029846D-08
      .963709982846D+00  .220375000000D+03  .208221537409D+01 -.570238038417D-08
      .205008539429D-09  .516000000000D+03  .241100000000D+04
      .312000000000D+01  .000000000000D+00 -.116415321827D-08  .232830643654D-09
      .499264000000D+06
E23 2026 03 27 18 30 00 -.296735670418D-04 -.130739863380D-11  .000000000000D+00
      .690000000000D+02  .400625000000D+02  .347943064654D-08  .234322857996D+00
      .195764005184D-05  .298672472127D-03  .557117164135D-05  .544059892273D+04
      .498600000000D+06 -.149011611938D-07  .769713940715D+00  .372529029846D-08
      .963709982846D+00  .220375000000D+03  .208221537409D+01 -.570238038417D-08
      .205008539429D-09  .513000000000D+03  .241100000000D+04
      .312000000000D+01  .000000000000D+00 -.116415321827D-08  .232830643654D-09
      .499285000000D+06
E21 2026 03 27 18 30 00 -.731018779334D-03 -.270006239589D-11  .000000000000D+00
      .690000000000D+02  .398750000000D+02  .351943231277D-08  .163437636012D+01
      .187940895557D-05  .150212086737D-03  .562891364098D-05  .544059645844D+04
      .498600000000D+06 -.558793544769D-08  .773073725189D+00  .111758708954D-07
      .961785034276D+00  .222000000000D+03  .147145699312D+01 -.568559397067D-08
      .171435712414D-09  .513000000000D+03  .241100000000D+04
      .312000000000D+01  .000000000000D+00 -.698491930962D-09 -.698491930962D-09
      .499285000000D+06
E33 2026 03 27 18 30 00 -.864284811541D-05 -.130739863380D-11  .000000000000D+00
      .690000000000D+02  .120968750000D+03  .252367654983D-08  .993311967796D+00
      .570341944695D-05  .164254452102D-03  .878237187862D-05  .544061374664D+04
      .498600000000D+06 -.111758708954D-07  .287206011649D+01 -.106170773506D-06
      .998514755485D+00  .165562500000D+03 -.764539486824D+00 -.534843706959D-08
      .217866217860D-10  .513000000000D+03  .241100000000D+04
      .360000000000D+01  .000000000000D+00 -.582076609135D-08 -.628642737865D-08
      .499285000000D+06
E33 2026 03 27 18 30 00 -.864290632308D-05 -.130739863380D-11  .000000000000D+00
      .690000000000D+02  .120968750000D+03  .252367654983D-08  .993311967796D+00
      .570341944695D-05  .164254452102D-03  .878237187862D-05  .544061374664D+04
      .498600000000D+06 -.111758708954D-07  .287206011649D+01 -.106170773506D-06
      .998514755485D+00  .165562500000D+03 -.764539486824D+00 -.534843706959D-08
      .217866217860D-10  .258000000000D+03  .241100000000D+04
      .360000000000D+01  .000000000000D+00 -.582076609135D-08  .000000000000D+00
      .499320000000D+06
E21 2026 03 27 18 30 00 -.731019710656D-03 -.271427325060D-11  .000000000000D+00
      .690000000000D+02  .398750000000D+02  .351943231277D-08  .163437636012D+01
      .187940895557D-05  .150212086737D-03  .562891364098D-05  .544059645844D+04
      .498600000000D+06 -.558793544769D-08  .773073725189D+00  .111758708954D-07
      .961785034276D+00  .222000000000D+03  .147145699312D+01 -.568559397067D-08
      .171435712414D-09  .258000000000D+03  .241100000000D+04
      .312000000000D+01  .000000000000D+00 -.698491930962D-09  .000000000000D+00
      .499320000000D+06
E23 2026 03 27 18 30 00 -.296754878946D-04 -.130739863380D-11  .000000000000D+00
      .690000000000D+02  .400625000000D+02  .347943064654D-08  .234322857996D+00
      .195764005184D-05  .298672472127D-03  .557117164135D-05  .544059892273D+04
      .498600000000D+06 -.149011611938D-07  .769713940715D+00  .372529029846D-08
      .963709982846D+00  .220375000000D+03  .208221537409D+01 -.570238038417D-08
      .205008539429D-09  .258000000000D+03  .241100000000D+04
      .312000000000D+01  .000000000000D+00 -.116415321827D-08  .000000000000D+00
      .499320000000D+06
E31 2026 03 27 18 30 00 -.129205873236D-03 -.282796008833D-11  .000000000000D+00
      .690000000000D+02  .378125000000D+02  .351836083957D-08  .185287874217D+01
      .163540244102D-05  .701635144651D-04  .525079667568D-05  .544059666443D+04
      .498600000000D+06  .130385160446D-07  .772996222715D+00  .447034835815D-07
      .961760101763D+00  .223250000000D+03 -.305254869513D+00 -.576166856805D-08
      .193936649668D-09  .516000000000D+03  .241100000000D+04
      .312000000000D+01  .000000000000D+00  .256113708019D-08  .302679836750D-08
      .499714000000D+06
E31 2026 03 27 18 30 00 -.129205873236D-03 -.282796008833D-11  .000000000000D+00
      .690000000000D+02  .378125000000D+02  .351836083957D-08  .185287874217D+01
      .163540244102D-05  .701635144651D-04  .525079667568D-05  .544059666443D+04
      .498600000000D+06  .130385160446D-07  .772996222715D+00  .447034835815D-07
      .961760101763D+00  .223250000000D+03 -.305254869513D+00 -.576166856805D-08
      .193936649668D-09  .513000000000D+03  .241100000000D+04
      .312000000000D+01  .000000000000D+00  .256113708019D-08  .302679836750D-08
      .499735000000D+06
E31 2026 03 27 18 30 00 -.129207095597D-03 -.282796008833D-11  .000000000000D+00
      .690000000000D+02  .378125000000D+02  .351836083957D-08  .185287874217D+01
      .163540244102D-05  .701635144651D-04  .525079667568D-05  .544059666443D+04
      .498600000000D+06  .130385160446D-07  .772996222715D+00  .447034835815D-07
      .961760101763D+00  .223250000000D+03 -.305254869513D+00 -.576166856805D-08
      .193936649668D-09  .258000000000D+03  .241100000000D+04
      .312000000000D+01  .000000000000D+00  .256113708019D-08  .000000000000D+00
      .499770000000D+06
G09 2026 03 27 20 00 00  .764049123973D-03 -.238742359215D-11  .000000000000D+00
      .430000000000D+02 -.116531250000D+03  .448482966830D-08 -.140365994044D+01
     -.602938234806D-05  .333882996347D-02  .591948628426D-05  .515376637268D+04
      .504000000000D+06 -.372529029846D-07 -.153131900844D+01  .409781932831D-07
      .964774444465D+00  .266343750000D+03  .205563389658D+01 -.821962809479D-08
     -.211437378644D-09  .100000000000D+01  .241100000000D+04  .000000000000D+00
      .200000000000D+01  .000000000000D+00  .465661287308D-09  .430000000000D+02
      .499806000000D+06  .400000000000D+01
E33 2026 03 27 18 40 00 -.864366302267D-05 -.132160948851D-11  .000000000000D+00
      .700000000000D+02  .124656250000D+03  .251724771061D-08  .106483599739D+01
      .588037073612D-05  .164195080288D-03  .883638858795D-05  .544061468124D+04
      .499200000000D+06  .372529029846D-08  .287205688783D+01 -.109896063805D-06
      .998514708671D+00  .164437500000D+03 -.761678143409D+00 -.535486590880D-08
      .292869342041D-10  .516000000000D+03  .241100000000D+04
      .360000000000D+01  .000000000000D+00 -.582076609135D-08 -.628642737865D-08
      .499864000000D+06
E21 2026 03 27 18 40 00 -.731020409148D-03 -.271427325060D-11  .000000000000D+00
      .700000000000D+02  .404062500000D+02  .351478926222D-08  .170845278238D+01
      .189244747162D-05  .150167616084D-03  .562518835068D-05  .544059658432D+04
      .499200000000D+06 -.558793544769D-08  .773070315127D+00  .130385160446D-07
      .961785142532D+00  .222093750000D+03  .147176692694D+01 -.568487965520D-08
      .171078554680D-09  .516000000000D+03  .241100000000D+04
      .312000000000D+01  .000000000000D+00 -.698491930962D-09 -.698491930962D-09
      .499864000000D+06
E31 2026 03 27 18 40 00 -.129207561258D-03 -.282796008833D-11  .000000000000D+00
      .700000000000D+02  .387187500000D+02  .351300347355D-08  .192817863647D+01
      .170432031155D-05  .702611869201D-04  .523775815964D-05  .544059643173D+04
      .499200000000D+06  .372529029846D-08  .772992708786D+00  .409781932831D-07
      .961760210019D+00  .223437500000D+03 -.306168513056D+00 -.575702551751D-08
      .198579700213D-09  .516000000000D+03  .241100000000D+04
      .312000000000D+01  .000000000000D+00  .256113708019D-08  .302679836750D-08
      .499864000000D+06
E21 2026 03 27 18 40 00 -.731020409148D-03 -.271427325060D-11  .000000000000D+00
      .700000000000D+02  .404062500000D+02  .351478926222D-08  .170845278238D+01
      .189244747162D-05  .150167616084D-03  .562518835068D-05  .544059658432D+04
      .499200000000D+06 -.558793544769D-08  .773070315127D+00  .130385160446D-07
      .961785142532D+00  .222093750000D+03  .147176692694D+01 -.568487965520D-08
      .171078554680D-09  .513000000000D+03  .241100000000D+04
      .312000000000D+01  .000000000000D+00 -.698491930962D-09 -.698491930962D-09
      .499885000000D+06
E33 2026 03 27 18 40 00 -.864366302267D-05 -.132160948851D-11  .000000000000D+00
      .700000000000D+02  .124656250000D+03  .251724771061D-08  .106483599739D+01
      .588037073612D-05  .164195080288D-03  .883638858795D-05  .544061468124D+04
      .499200000000D+06  .372529029846D-08  .287205688783D+01 -.109896063805D-06
      .998514708671D+00  .164437500000D+03 -.761678143409D+00 -.535486590880D-08
      .292869342041D-10  .513000000000D+03  .241100000000D+04
      .360000000000D+01  .000000000000D+00 -.582076609135D-08 -.628642737865D-08
      .499885000000D+06
E31 2026 03 27 18 40 00 -.129207561258D-03 -.282796008833D-11  .000000000000D+00
      .700000000000D+02  .387187500000D+02  .351300347355D-08  .192817863647D+01
      .170432031155D-05  .702611869201D-04  .523775815964D-05  .544059643173D+04
      .499200000000D+06  .372529029846D-08  .772992708786D+00  .409781932831D-07
      .961760210019D+00  .223437500000D+03 -.306168513056D+00 -.575702551751D-08
      .198579700213D-09  .513000000000D+03  .241100000000D+04
      .312000000000D+01  .000000000000D+00  .256113708019D-08  .302679836750D-08
      .499885000000D+06
E33 2026 03 27 18 40 00 -.864372123033D-05 -.130739863380D-11  .000000000000D+00
      .700000000000D+02  .124656250000D+03  .251724771061D-08  .106483599739D+01
      .588037073612D-05  .164195080288D-03  .883638858795D-05  .544061468124D+04
      .499200000000D+06  .372529029846D-08  .287205688783D+01 -.109896063805D-06
      .998514708671D+00  .164437500000D+03 -.761678143409D+00 -.535486590880D-08
      .292869342041D-10  .258000000000D+03  .241100000000D+04
      .360000000000D+01  .000000000000D+00 -.582076609135D-08  .000000000000D+00
      .499920000000D+06
E21 2026 03 27 18 40 00 -.731021282263D-03 -.271427325060D-11  .000000000000D+00
      .700000000000D+02  .404062500000D+02  .351478926222D-08  .170845278238D+01
      .189244747162D-05  .150167616084D-03  .562518835068D-05  .544059658432D+04
      .499200000000D+06 -.558793544769D-08  .773070315127D+00  .130385160446D-07
      .961785142532D+00  .222093750000D+03  .147176692694D+01 -.568487965520D-08
      .171078554680D-09  .258000000000D+03  .241100000000D+04
      .312000000000D+01  .000000000000D+00 -.698491930962D-09  .000000000000D+00
      .499920000000D+06
E31 2026 03 27 18 40 00 -.129208725411D-03 -.282796008833D-11  .000000000000D+00
      .700000000000D+02  .387187500000D+02  .351300347355D-08  .192817863647D+01
      .170432031155D-05  .702611869201D-04  .523775815964D-05  .544059643173D+04
      .499200000000D+06  .372529029846D-08  .772992708786D+00  .409781932831D-07
      .961760210019D+00  .223437500000D+03 -.306168513056D+00 -.575702551751D-08
      .198579700213D-09  .258000000000D+03  .241100000000D+04
      .312000000000D+01  .000000000000D+00  .256113708019D-08  .000000000000D+00
      .499920000000D+06
E13 2026 03 27 18 40 00 -.512142432854D-04 -.810018718767D-12  .000000000000D+00
      .700000000000D+02  .153187500000D+03  .256832126660D-08  .210422886796D+01
      .709295272827D-05  .350852729753D-03  .876933336258D-05  .544061509895D+04
      .499200000000D+06 -.931322574615D-08  .287208561076D+01  .167638063431D-07
      .998497244355D+00  .170437500000D+03 -.251830141393D+00 -.537272379551D-08
      .122147945095D-09  .516000000000D+03  .241100000000D+04
      .312000000000D+01  .000000000000D+00  .325962901115D-08  .372529029846D-08
      .500254000000D+06
E13 2026 03 27 18 40 00 -.512142432854D-04 -.810018718767D-12  .000000000000D+00
      .700000000000D+02  .153187500000D+03  .256832126660D-08  .210422886796D+01
      .709295272827D-05  .350852729753D-03  .876933336258D-05  .544061509895D+04
      .499200000000D+06 -.931322574615D-08  .287208561076D+01  .167638063431D-07
      .998497244355D+00  .170437500000D+03 -.251830141393D+00 -.537272379551D-08
      .122147945095D-09  .513000000000D+03  .241100000000D+04
      .312000000000D+01  .000000000000D+00  .325962901115D-08  .372529029846D-08
      .500275000000D+06
E13 2026 03 27 18 40 00 -.512152328156D-04 -.824229573482D-12  .000000000000D+00
      .700000000000D+02  .153187500000D+03  .256832126660D-08  .210422886796D+01
      .709295272827D-05  .350852729753D-03  .876933336258D-05  .544061509895D+04
      .499200000000D+06 -.931322574615D-08  .287208561076D+01  .167638063431D-07
      .998497244355D+00  .170437500000D+03 -.251830141393D+00 -.537272379551D-08
      .122147945095D-09  .258000000000D+03  .241100000000D+04
      .312000000000D+01  .000000000000D+00  .325962901115D-08  .000000000000D+00
      .500270000000D+06
