     3.05           NAVIGATION DATA     J                   RINEX VERSION / TYPE
ssrcrin-16.1.0x     BKG Frankfurt       20260421 191003 UTC PGM / RUN BY / DATE 
gfzrnx-2.2.0        FILE PROCESSING     20260421 195933 UTC COMMENT             
BDSA   3.2596e-08  6.7055e-08 -1.0133e-06  1.5497e-06       IONOSPHERIC CORR    
BDSA   2.8871e-08  5.9605e-08 -8.9407e-07  1.5497E-06 C 40  IONOSPHERIC CORR    
BDSA   3.3528e-08  2.9802e-08 -8.3447e-07  1.4305E-06 E 44  IONOSPHERIC CORR    
BDSA   2.2352e-08  1.9372e-07 -1.4901e-06  2.2054E-06 G 30  IONOSPHERIC CORR    
BDSA   3.0734e-08  5.9605e-08 -1.0133e-06  1.6689E-06 H 20  IONOSPHERIC CORR    
BDSA   2.8871e-08  1.1921e-07 -1.1325e-06  1.7881E-06 I 49  IONOSPHERIC CORR    
BDSA   3.2596e-08  4.4703e-08 -8.9407e-07  1.6093E-06 J 31  IONOSPHERIC CORR    
BDSA   3.3528e-08  2.9802e-08 -8.3447e-07  1.4901E-06 K 21  IONOSPHERIC CORR    
BDSA   2.5146e-08  1.2666e-07 -1.1921e-06  1.8477E-06 M 08  IONOSPHERIC CORR    
BDSA   3.4459e-08  2.2352e-08 -8.3447e-07  1.4901E-06 N  5  IONOSPHERIC CORR    
BDSA   3.0734e-08  9.6858e-08 -1.0729e-06  1.7285E-06 O 47  IONOSPHERIC CORR    
BDSA   3.3528e-08  2.9802e-08 -8.3447e-07  1.5497E-06 P 07  IONOSPHERIC CORR    
BDSA   3.4459e-08  2.2352e-08 -8.3447e-07  1.4901E-06 Q 02  IONOSPHERIC CORR    
BDSA   3.4459e-08  2.2352e-08 -8.3447e-07  1.4901E-06 R 19  IONOSPHERIC CORR    
BDSA   3.1665e-08  5.9605e-08 -9.5367e-07  1.6093E-06 S 07  IONOSPHERIC CORR    
BDSA   3.3528e-08  2.9802e-08 -8.3447e-07  1.4901E-06 T 20  IONOSPHERIC CORR    
BDSA   2.8871e-08  2.6077e-07 -1.9073e-06  2.8610E-06 U 05  IONOSPHERIC CORR    
BDSA   2.9802e-08  1.0431e-07 -1.1325e-06  1.7285E-06 W 10  IONOSPHERIC CORR    
BDSB   1.1264e+05  2.6214e+05 -3.9322e+05  6.5536e+04       IONOSPHERIC CORR    
BDSB   1.3312e+05 -5.5706e+05  3.6700e+06 -2.8180E+06 C 40  IONOSPHERIC CORR    
BDSB   1.3722e+05 -6.3898e+05  4.0632e+06 -3.0802E+06 E 44  IONOSPHERIC CORR    
BDSB   1.4950e+05 -5.5706e+05  3.2768e+06 -2.4904E+06 G 30  IONOSPHERIC CORR    
BDSB   1.5770e+05 -7.3728e+05  4.5875e+06 -3.6700E+06 H 20  IONOSPHERIC CORR    
BDSB   1.3722e+05 -7.3728e+05  4.5875e+06 -3.4734E+06 I 49  IONOSPHERIC CORR    
BDSB   1.5565e+05 -6.8813e+05  4.5220e+06 -3.6700E+06 J 31  IONOSPHERIC CORR    
BDSB   1.5360e+05 -6.8813e+05  4.5875e+06 -3.6700E+06 K 21  IONOSPHERIC CORR    
BDSB   1.4336e+05 -4.5875e+05  2.8836e+06 -2.2282E+06 M 08  IONOSPHERIC CORR    
BDSB   1.5770e+05 -8.0282e+05  5.0463e+06 -3.9322E+06 N  5  IONOSPHERIC CORR    
BDSB   1.3517e+05 -7.8643e+05  4.7186e+06 -3.4734E+06 O 47  IONOSPHERIC CORR    
BDSB   1.5974e+05 -8.5197e+05  5.1773e+06 -3.9977E+06 P 07  IONOSPHERIC CORR    
BDSB   1.5565e+05 -7.7005e+05  4.8497e+06 -3.7356E+06 Q 02  IONOSPHERIC CORR    
BDSB   1.5565e+05 -7.7005e+05  4.8497e+06 -3.7356E+06 R 19  IONOSPHERIC CORR    
BDSB   1.4950e+05 -7.2090e+05  4.3909e+06 -3.4079E+06 S 07  IONOSPHERIC CORR    
BDSB   1.5770e+05 -7.8643e+05  4.8497e+06 -3.8011E+06 T 20  IONOSPHERIC CORR    
BDSB   1.5770e+05 -8.5197e+05  3.8011e+06 -1.9661E+06 U 05  IONOSPHERIC CORR    
BDSB   1.4131e+05 -7.8643e+05  4.7186e+06 -3.4734E+06 W 10  IONOSPHERIC CORR    
GAL    8.2500e+01  1.0547e-01  8.6365e-03           0       IONOSPHERIC CORR    
GPSA   1.5832e-08  1.4901e-08 -1.1921e-07 -1.1921e-07       IONOSPHERIC CORR    
GPSB   1.0650e+05  6.5536e+04 -1.9661e+05 -1.9661e+05       IONOSPHERIC CORR    
IRNA   5.1223e-08  1.9372e-07  4.7684e-07 -7.5102E-06       IONOSPHERIC CORR    
IRNB   1.5974e+05  1.4090e+06 -8.3231e+06  8.3231E+06       IONOSPHERIC CORR    
QZSA   2.1420e-08  1.4900e-08 -5.9600e-07  -.1431E-05       IONOSPHERIC CORR    
QZSB   1.1060e+05 -1.1470e+05 -3.9320e+05   .8323E+07       IONOSPHERIC CORR    
BDUT  0.0000000000e+00 0.000000000e+00     14 1059          TIME SYSTEM CORR    
GAGP  7.2759576142E-10 0.000000000E+00 259200 2415          TIME SYSTEM CORR    
GAUT  9.3132257462E-10 0.000000000E+00 172800 2415          TIME SYSTEM CORR    
GLGP  3.7252902985E-09 0.000000000E+00  86400 2415          TIME SYSTEM CORR    
GLUT  5.1222741604e-09 0.000000000e+00 405504 2415          TIME SYSTEM CORR    
GPUT  4.6566128731E-09 1.154631946E-14 405504 2415          TIME SYSTEM CORR    
IRUT  1.3795215636E-08 0.000000000E+00 173088 1391          TIME SYSTEM CORR    
QZUT  -.9313225746E-09  .000000000E+00 442368 2415          TIME SYSTEM CORR    
    18                                                      LEAP SECONDS        
                                                            END OF HEADER
J02 2026 04 21 02 00 00-2.269633114338e-06-2.273736754432e-13 0.000000000000e+00
     1.970000000000e+02 7.201875000000e+02 1.778645516296e-09-2.394166894478e+00
     1.989491283894e-05 7.388468820136e-02 2.813898026943e-05 6.493892679214e+03
     1.800000000000e+05-1.111999154091e-06 6.441000731477e-01-5.830079317093e-07
     6.902666692689e-01-7.200000000000e+02-1.554581524206e+00-1.271838691472e-09
    -6.164542492224e-10 2.000000000000e+00 2.415000000000e+03 1.000000000000e+00
     2.800000000000e+00 1.000000000000e+00 1.396983861923e-09 9.650000000000e+02
     1.764000000000e+05 0.000000000000e+00                                      
J02 2026 04 21 16 00 00-2.279877662659e-06-2.273736754432e-13 0.000000000000e+00
     2.900000000000e+01 1.536562500000e+02 1.432202514126e-09 1.280400477134e+00
     6.264075636864e-06 7.387197646312e-02 1.848861575127e-05 6.493944061279e+03
     2.304000000000e+05 1.359730958939e-06 6.439827280998e-01-7.562339305878e-07
     6.902224701249e-01-4.123437500000e+02-1.554729650513e+00-1.391486532428e-09
    -5.893102614235e-10 2.000000000000e+00 2.415000000000e+03 1.000000000000e+00
     2.800000000000e+00 1.000000000000e+00 1.396983861923e-09 7.970000000000e+02
     2.268180000000e+05 0.000000000000e+00                                      
J02 2026 04 21 17 00 00-2.280808985233e-06-2.273736754432e-13 0.000000000000e+00
     3.300000000000e+01 1.356875000000e+02 2.047942447880e-09 1.542969304739e+00
     5.716457962990e-06 7.387184724212e-02 2.046115696430e-05 6.493923662186e+03
     2.340000000000e+05 6.295740604401e-07 6.439767988928e-01-2.235174179077e-08
     6.902165818797e-01-4.983125000000e+02-1.554841751000e+00-1.884007047884e-09
    -7.196728344051e-10 2.000000000000e+00 2.415000000000e+03 1.000000000000e+00
     2.800000000000e+00 1.000000000000e+00 1.396983861923e-09 8.010000000000e+02
     2.304180000000e+05 0.000000000000e+00                                      
J02 2026 04 21 18 00 00-2.281740307808e-06-2.273736754432e-13 0.000000000000e+00
     3.700000000000e+01 8.390625000000e+01 2.725827827385e-09 1.805519167075e+00
     4.328787326813e-06 7.387339067645e-02 2.172030508518e-05 6.493907844543e+03
     2.376000000000e+05 2.793967723846e-08 6.439666023538e-01-7.357448339462e-07
     6.902096476480e-01-5.553437500000e+02-1.554928240180e+00-2.508675924993e-09
    -6.318120317929e-10 2.000000000000e+00 2.415000000000e+03 1.000000000000e+00
     2.800000000000e+00 1.000000000000e+00 1.396983861923e-09 8.050000000000e+02
     2.340180000000e+05 0.000000000000e+00                                      
J02 2026 04 21 19 00 00-2.282671630383e-06-2.273736754432e-13 0.000000000000e+00
     4.100000000000e+01 5.709375000000e+01 3.247635277045e-09 2.068008047670e+00
     3.471970558167e-06 7.387418218423e-02 2.177245914936e-05 6.493903717041e+03
     2.412000000000e+05 1.048669219017e-06 6.439519585438e-01-1.922249794006e-06
     6.902033834328e-01-5.620000000000e+02-1.554948203160e+00-3.108700918443e-09
    -2.903692379014e-10 2.000000000000e+00 2.415000000000e+03 1.000000000000e+00
     2.800000000000e+00 1.000000000000e+00 1.396983861923e-09 8.090000000000e+02
     2.376180000000e+05 0.000000000000e+00                                      
J03 2026 04 21 09 00 00-2.850778400898e-06-4.547473508865e-13 0.000000000000e+00
     1.000000000000e+00-1.024000000000e+03-4.308036589873e-09-2.270292146849e+00
    -2.446211874485e-05 7.456001942046e-02-2.805329859257e-05 6.493735120773e+03
     2.052000000000e+05-8.093193173409e-06 2.394475296627e+00-1.005083322525e-05
     7.005017839682e-01 1.023968750000e+03-1.562821928161e+00 2.690112053965e-09
     2.925479000800e-09 2.000000000000e+00 2.415000000000e+03 1.000000000000e+00
     2.800000000000e+00 1.000000000000e+00 4.656612873077e-10 7.690000000000e+02
     2.017200000000e+05 0.000000000000e+00                                      
J03 2026 04 21 16 00 00-2.861954271793e-06-4.547473508865e-13 0.000000000000e+00
     2.900000000000e+01-7.175000000000e+01 2.847975772480e-09-4.339277338947e-01
    -1.853331923485e-06 7.461160095409e-02-1.274421811104e-05 6.493511953354e+03
     2.304000000000e+05 4.749745130539e-07 2.394458986554e+00 1.341104507446e-07
     7.004650105964e-01 5.095625000000e+02-1.561680847670e+00-3.520146628237e-09
     2.635824078367e-10 2.000000000000e+00 2.415000000000e+03 1.000000000000e+00
     2.800000000000e+00 1.000000000000e+00 4.656612873077e-10 7.970000000000e+02
     2.268180000000e+05 0.000000000000e+00                                      
J03 2026 04 21 17 00 00-2.863351255655e-06-4.547473508865e-13 0.000000000000e+00
     3.300000000000e+01-7.156250000000e+00 2.465816996890e-09-1.713679164016e-01
     3.352761268616e-08 7.462151173968e-02-1.069903373718e-05 6.493541206360e+03
     2.340000000000e+05-1.881271600723e-07 2.394451136535e+00 1.899898052216e-07
     7.004659205315e-01 4.413125000000e+02-1.561734781071e+00-3.273707791641e-09
    -1.142904749427e-11 2.000000000000e+00 2.415000000000e+03 1.000000000000e+00
     2.800000000000e+00 1.000000000000e+00 4.656612873077e-10 8.010000000000e+02
     2.304180000000e+05 0.000000000000e+00                                      
J03 2026 04 21 18 00 00-2.864748239517e-06-4.547473508865e-13 0.000000000000e+00
     3.700000000000e+01-6.250000000000e-01 2.398671342861e-09 9.114331611924e-02
     2.346932888031e-07 7.462569326162e-02-9.343028068542e-06 6.493552740097e+03
     2.376000000000e+05-2.831220626831e-07 2.394441048252e+00-2.793967723846e-08
     7.004656133187e-01 4.034375000000e+02-1.561741131598e+00-3.249063907982e-09
    -1.392915163365e-10 2.000000000000e+00 2.415000000000e+03 1.000000000000e+00
     2.800000000000e+00 1.000000000000e+00 4.656612873077e-10 8.050000000000e+02
     2.340180000000e+05 0.000000000000e+00                                      
J03 2026 04 21 19 00 00-2.866610884666e-06-4.547473508865e-13 0.000000000000e+00
     4.100000000000e+01 1.884375000000e+01 2.496532562031e-09 3.536634797549e-01
     6.482005119324e-07 7.462232478429e-02-9.845942258835e-06 6.493543041229e+03
     2.412000000000e+05-3.520399332047e-07 2.394428954308e+00-3.352761268616e-08
     7.004651759062e-01 4.286562500000e+02-1.561754883028e+00-3.224062866588e-09
    -1.125046862718e-10 2.000000000000e+00 2.415000000000e+03 1.000000000000e+00
     2.800000000000e+00 1.000000000000e+00 4.656612873077e-10 8.090000000000e+02
     2.376180000000e+05 0.000000000000e+00                                      
J04 2026 04 21 16 00 00 1.545995473862e-07 1.136868377216e-13 0.000000000000e+00
     2.900000000000e+01-1.187500000000e+01 2.369027250923e-09-2.198062885411e+00
    -2.643093466759e-06 7.492101087701e-02 2.212636172771e-05 6.493319574356e+03
     2.304000000000e+05 3.147870302200e-07-2.210796194593e+00-3.166496753693e-07
     6.515571429874e-01-5.846250000000e+02-1.554019772441e+00-1.883292732416e-09
     8.086051102199e-10 2.000000000000e+00 2.415000000000e+03 1.000000000000e+00
     2.800000000000e+00 1.600000000000e+01-3.259629011154e-09 7.970000000000e+02
     2.268180000000e+05 0.000000000000e+00                                      
J04 2026 04 21 17 00 00 1.545995473862e-07 1.136868377216e-13 0.000000000000e+00
     3.300000000000e+01-9.156250000000e+00 3.281208104059e-09-1.935514450883e+00
    -2.358108758926e-06 7.492023124360e-02 2.139247953892e-05 6.493323297501e+03
     2.340000000000e+05 4.693865776062e-07-2.210795223215e+00 1.655891537666e-06
     6.515526254964e-01-5.689687500000e+02-1.554041786432e+00-3.007982437399e-09
     4.489472718845e-10 2.000000000000e+00 2.415000000000e+03 1.000000000000e+00
     2.800000000000e+00 1.600000000000e+01-3.259629011154e-09 8.010000000000e+02
     2.304180000000e+05 0.000000000000e+00                                      
J04 2026 04 21 18 00 00 1.550652086735e-07 1.136868377216e-13 0.000000000000e+00
     3.700000000000e+01-7.475000000000e+01 3.641223100129e-09-1.672867974512e+00
    -3.654509782791e-06 7.491668278817e-02 1.942738890648e-05 6.493344699860e+03
     2.376000000000e+05-1.138076186180e-06-2.210803737398e+00 1.957640051842e-06
     6.515498869138e-01-4.979687500000e+02-1.554156940029e+00-3.735512741957e-09
     5.007351433429e-10 2.000000000000e+00 2.415000000000e+03 1.000000000000e+00
     2.800000000000e+00 1.600000000000e+01-3.259629011154e-09 8.050000000000e+02
     2.340180000000e+05 0.000000000000e+00                                      
J04 2026 04 21 19 00 00 1.555308699608e-07 1.136868377216e-13 0.000000000000e+00
     4.100000000000e+01-1.201250000000e+02 3.292279993820e-09-1.410176245695e+00
    -4.662200808525e-06 7.491502538323e-02 1.637823879719e-05 6.493373769760e+03
     2.412000000000e+05-1.600012183189e-06-2.210817166986e+00 5.308538675308e-07
     6.515525845347e-01-3.757500000000e+02-1.554317112004e+00-3.693010971588e-09
     7.153869415948e-10 2.000000000000e+00 2.415000000000e+03 1.000000000000e+00
     2.800000000000e+00 1.600000000000e+01-3.259629011154e-09 8.090000000000e+02
     2.376180000000e+05 0.000000000000e+00                                      
J07 2026 04 21 16 00 00-6.519258022308e-09 0.000000000000e+00 0.000000000000e+00
     2.900000000000e+01-5.223437500000e+02 0.000000000000e+00-2.617688146156e+00
    -1.720339059830e-05 1.367335207760e-04 2.907589077950e-06 6.493366588593e+03
     2.304000000000e+05 2.758577466011e-06 1.948429575913e-02-3.283843398094e-06
     1.136820473136e-03-9.584375000000e+01 2.766721718574e+00 1.191835359012e-09
     0.000000000000e+00 0.000000000000e+00 2.415000000000e+03 1.000000000000e+00
     2.800000000000e+00 1.000000000000e+00-4.656612873077e-09 7.970000000000e+02
     2.303160000000e+05 1.000000000000e+00 0.000000000000e+00 0.000000000000e+00
J07 2026 04 21 17 00 00-6.053596735001e-09 0.000000000000e+00 0.000000000000e+00
     3.300000000000e+01-4.885000000000e+02 0.000000000000e+00-2.327770800906e+00
    -1.612119376659e-05 1.321203308180e-04 1.221895217896e-06 6.493380987167e+03
     2.340000000000e+05 4.785135388374e-06 1.939254446303e-02-9.778887033463e-07
     1.133496723260e-03-4.343750000000e+01 2.739418966859e+00 1.106117502805e-09
     0.000000000000e+00 2.000000000000e+00 2.415000000000e+03 1.000000000000e+00
     2.800000000000e+00 1.000000000000e+00-4.656612873077e-09 8.010000000000e+02
     2.304180000000e+05 0.000000000000e+00                                      
J07 2026 04 21 18 00 00-5.122274160385e-09 0.000000000000e+00 0.000000000000e+00
     3.700000000000e+01-4.341250000000e+02 0.000000000000e+00-2.028706871967e+00
    -1.436658203602e-05 1.287690829486e-04 2.644956111908e-07 6.493395233154e+03
     2.376000000000e+05 4.563480615616e-06 1.858868707057e-02 2.512708306313e-06
     1.128995324330e-03-1.378125000000e+01 2.703679600228e+00 1.022899750738e-09
     0.000000000000e+00 2.000000000000e+00 2.415000000000e+03 1.000000000000e+00
     2.800000000000e+00 1.000000000000e+00-4.656612873077e-09 8.050000000000e+02
     2.340180000000e+05 0.000000000000e+00                                      
J07 2026 04 21 19 00 00-4.656612873077e-09 0.000000000000e+00 0.000000000000e+00
     4.100000000000e+01-3.928437500000e+02 0.000000000000e+00-1.737233663601e+00
    -1.304224133492e-05 1.275211106986e-04 2.272427082062e-07 6.493404777527e+03
     2.412000000000e+05 1.775100827217e-06 1.620844474678e-02 4.952773451805e-06
     1.123873648134e-03-1.275000000000e+01 2.677105639190e+00 9.657545132662e-10
     0.000000000000e+00 2.000000000000e+00 2.415000000000e+03 1.000000000000e+00
     2.800000000000e+00 1.000000000000e+00-4.656612873077e-09 8.090000000000e+02
     2.376180000000e+05 0.000000000000e+00                                      
J08 2026 04 21 16 00 00 7.124617695808e-08 1.136868377216e-13 0.000000000000e+00
     2.900000000000e+01 2.498750000000e+02 0.000000000000e+00 2.592721177221e+00
     8.363276720047e-06 1.967195421457e-04-1.542270183563e-05 6.493473396301e+03
     2.304000000000e+05-3.296881914139e-07 2.048000387117e+00-2.237036824226e-06
     1.104707958378e-04 4.744062500000e+02 1.173041799591e+00 1.193621147683e-09
     0.000000000000e+00 2.000000000000e+00 2.415000000000e+03 1.000000000000e+00
     2.800000000000e+00 1.600000000000e+01 9.313225746155e-10 7.970000000000e+02
     2.268180000000e+05 0.000000000000e+00                                      
J08 2026 04 21 17 00 00 7.124617695808e-08 1.136868377216e-13 0.000000000000e+00
     3.300000000000e+01 2.215312500000e+02 0.000000000000e+00 2.859963691619e+00
     7.491558790207e-06 1.986721763387e-04-1.542270183563e-05 6.493468141556e+03
     2.340000000000e+05 2.924352884293e-07 2.053834106503e+00-2.961605787277e-06
     1.118269208973e-04 4.741250000000e+02 1.162476938768e+00 1.231122709774e-09
     0.000000000000e+00 2.000000000000e+00 2.415000000000e+03 1.000000000000e+00
     2.800000000000e+00 1.600000000000e+01 9.313225746155e-10 8.010000000000e+02
     2.304180000000e+05 0.000000000000e+00                                      
J08 2026 04 21 18 00 00 7.124617695808e-08 1.136868377216e-13 0.000000000000e+00
     3.700000000000e+01 2.176562500000e+02 0.000000000000e+00 3.121510479304e+00
     7.372349500656e-06 1.969909062609e-04-1.543760299683e-05 6.493472278595e+03
     2.376000000000e+05 2.052634954453e-06 2.074283477616e+00-3.254041075706e-06
     1.142773086800e-04 4.742187500000e+02 1.142992234854e+00 1.208621772520e-09
     0.000000000000e+00 2.000000000000e+00 2.415000000000e+03 1.000000000000e+00
     2.800000000000e+00 1.600000000000e+01 9.313225746155e-10 8.050000000000e+02
     2.340180000000e+05 0.000000000000e+00                                      
J08 2026 04 21 19 00 00 7.171183824539e-08 1.136868377216e-13 0.000000000000e+00
     4.100000000000e+01 2.132187500000e+02 0.000000000000e+00-2.896148901552e+00
     7.212162017822e-06 1.921936636791e-04-1.469440758228e-05 6.493484046936e+03
     2.412000000000e+05 4.036352038383e-06 2.112589351152e+00-2.115964889526e-06
     1.166282180334e-04 4.500937500000e+02 1.101670732711e+00 1.138261698883e-09
     0.000000000000e+00 2.000000000000e+00 2.415000000000e+03 1.000000000000e+00
     2.800000000000e+00 1.600000000000e+01 9.313225746155e-10 8.090000000000e+02
     2.376180000000e+05 0.000000000000e+00                                      
