     3.05           NAVIGATION DATA     J                   RINEX VERSION / TYPE
ssrcrin-16.1.0x     BKG Frankfurt       20260328 092015 UTC PGM / RUN BY / DATE 
gfzrnx-2.2.0        FILE PROCESSING     20260421 091024 UTC COMMENT             
BDSA   3.3528e-08  6.7055e-08 -1.0133e-06  1.6093e-06       IONOSPHERIC CORR    
BDSA   3.1665e-08  1.4156e-07 -1.3709e-06  2.1458E-06 A 12  IONOSPHERIC CORR    
BDSA   3.1665e-08  1.4156e-07 -1.3709e-06  2.1458E-06 B     IONOSPHERIC CORR    
BDSA   3.3528e-08  1.0431e-07 -1.1921e-06  1.9073E-06 C     IONOSPHERIC CORR    
BDSA   3.3528e-08  1.0431e-07 -1.1921e-06  1.9073E-06 D     IONOSPHERIC CORR    
BDSA   3.2596e-08  1.1176e-07 -1.1921e-06  1.9073E-06 E     IONOSPHERIC CORR    
BDSA   3.2596e-08  1.1176e-07 -1.1921e-06  1.9073E-06 F     IONOSPHERIC CORR    
BDSA   3.1665e-08  1.5646e-07 -1.4305e-06  2.2054E-06 G     IONOSPHERIC CORR    
BDSA   3.1665e-08  1.5646e-07 -1.4305e-06  2.2054E-06 H     IONOSPHERIC CORR    
BDSA   2.8871e-08  2.2352e-07 -1.7881e-06  2.6226E-06 I     IONOSPHERIC CORR    
BDSA   3.3528e-08  1.3411e-07 -1.3709e-06  2.2054E-06 J 20  IONOSPHERIC CORR    
BDSA   2.9802e-08  9.6858e-08 -1.0133e-06  1.4305E-06 K 06  IONOSPHERIC CORR    
BDSA   2.7940e-08  2.7567e-07 -2.0266e-06  3.0398E-06 L     IONOSPHERIC CORR    
BDSA   2.7940e-08  2.2352e-07 -1.8477e-06  2.8610E-06 M 10  IONOSPHERIC CORR    
BDSA   3.4459e-08  1.0431e-07 -1.2517e-06  2.0266E-06 N 02  IONOSPHERIC CORR    
BDSA   1.5832e-08  0.0000e+00 -1.1921e-07  5.9605E-08 O 07  IONOSPHERIC CORR    
BDSA   2.7940e-08  2.6822e-07 -2.0266e-06  3.0398E-06 P     IONOSPHERIC CORR    
BDSA   2.8871e-08  2.6077e-07 -1.9670e-06  2.9802E-06 Q     IONOSPHERIC CORR    
BDSA   2.8871e-08  2.6077e-07 -1.9670e-06  2.9802E-06 R     IONOSPHERIC CORR    
BDSA   2.8871e-08  2.5332e-07 -1.9073e-06  2.9206E-06 S     IONOSPHERIC CORR    
BDSA   2.8871e-08  2.5332e-07 -1.9073e-06  2.9206E-06 T     IONOSPHERIC CORR    
BDSA   2.8871e-08  2.6077e-07 -1.9073e-06  2.8610E-06 U 05  IONOSPHERIC CORR    
BDSA   2.8871e-08  2.6077e-07 -1.9670e-06  2.9206E-06 V     IONOSPHERIC CORR    
BDSA   2.8871e-08  2.5332e-07 -1.9670e-06  2.9206E-06 W     IONOSPHERIC CORR    
BDSA   2.8871e-08  2.5332e-07 -1.9670e-06  2.9206E-06 X     IONOSPHERIC CORR    
BDSB   1.1878e+05  3.2768e+04  7.8643e+05 -7.8643e+05       IONOSPHERIC CORR    
BDSB   1.7613e+05 -1.0158e+06  4.2598e+06 -2.2282E+06 A 12  IONOSPHERIC CORR    
BDSB   1.7613e+05 -1.0158e+06  4.2598e+06 -2.2282E+06 B     IONOSPHERIC CORR    
BDSB   1.5565e+05 -7.0451e+05  2.9491e+06 -1.3763E+06 C     IONOSPHERIC CORR    
BDSB   1.5565e+05 -7.0451e+05  2.9491e+06 -1.3763E+06 D     IONOSPHERIC CORR    
BDSB   1.5770e+05 -6.8813e+05  2.8180e+06 -1.3107E+06 E     IONOSPHERIC CORR    
BDSB   1.5770e+05 -6.8813e+05  2.8180e+06 -1.3107E+06 F     IONOSPHERIC CORR    
BDSB   1.5974e+05 -7.5366e+05  3.1457e+06 -1.5073E+06 G     IONOSPHERIC CORR    
BDSB   1.5974e+05 -7.5366e+05  3.1457e+06 -1.5073E+06 H     IONOSPHERIC CORR    
BDSB   1.6589e+05 -8.8474e+05  3.7356e+06 -1.8350E+06 I     IONOSPHERIC CORR    
BDSB   1.5565e+05 -6.7174e+05  2.8836e+06 -1.3763E+06 J 20  IONOSPHERIC CORR    
BDSB   1.4541e+05 -4.2598e+05  8.5197e+05  3.9322E+05 K 06  IONOSPHERIC CORR    
BDSB   1.7408e+05 -1.1305e+06  5.3740e+06 -3.1457E+06 L     IONOSPHERIC CORR    
BDSB   1.9046e+05 -1.1633e+06  5.3740e+06 -3.2113E+06 M 10  IONOSPHERIC CORR    
BDSB   1.5360e+05 -6.3898e+05  2.6870e+06 -1.2452E+06 N 02  IONOSPHERIC CORR    
BDSB   1.3722e+05 -4.0960e+05  7.2090e+05  4.5875E+05 O 07  IONOSPHERIC CORR    
BDSB   1.6384e+05 -9.6666e+05  4.7186e+06 -2.7525E+06 P     IONOSPHERIC CORR    
BDSB   1.6179e+05 -9.1750e+05  4.3909e+06 -2.5559E+06 Q     IONOSPHERIC CORR    
BDSB   1.6179e+05 -9.1750e+05  4.3909e+06 -2.5559E+06 R     IONOSPHERIC CORR    
BDSB   1.4950e+05 -7.5366e+05  3.7356e+06 -2.0972E+06 S     IONOSPHERIC CORR    
BDSB   1.4950e+05 -7.5366e+05  3.7356e+06 -2.0972E+06 T     IONOSPHERIC CORR    
BDSB   1.5770e+05 -8.5197e+05  3.8011e+06 -1.9661E+06 U 05  IONOSPHERIC CORR    
BDSB   1.5360e+05 -8.3558e+05  4.1288e+06 -2.3593E+06 V     IONOSPHERIC CORR    
BDSB   1.5360e+05 -8.5197e+05  4.1943e+06 -2.4904E+06 W     IONOSPHERIC CORR    
BDSB   1.5360e+05 -8.5197e+05  4.1943e+06 -2.4904E+06 X     IONOSPHERIC CORR    
GAL    1.1720e+02  2.3440e-02  5.7980e-04   .0000E+00       IONOSPHERIC CORR    
GPSA   2.6080e-08  7.4510e-09 -1.1920e-07   .0000E+00       IONOSPHERIC CORR    
GPSB   1.2900e+05  0.0000e+00 -2.6210e+05   .2621E+06       IONOSPHERIC CORR    
IRNA   4.6566e-08  9.4622e-07 -1.7881e-06 -7.5102E-06 M     IONOSPHERIC CORR    
IRNB   2.3552e+05 -1.1469e+06 -5.8982e+06  8.3231E+06 M     IONOSPHERIC CORR    
QZSA   1.0245e-08 -1.4901e-08 -4.1723e-07  1.1921E-06       IONOSPHERIC CORR    
QZSB   1.0240e+05  0.0000e+00 -8.5197e+05  8.3231E+06       IONOSPHERIC CORR    
BDUT  0.0000000000e+00 0.000000000e+00     14 1055          TIME SYSTEM CORR    
GAGP  2.3574102670E-09-1.776356839E-15 518400 2411          TIME SYSTEM CORR    
GAUT  9.3132257462E-10-8.881784197E-16 432000 2411          TIME SYSTEM CORR    
GLGP -1.0782000000E+04 0.000000000E+00 429318 2411          TIME SYSTEM CORR    
GLUT   .4656612873E-09  .000000000E+00 431118 2411          TIME SYSTEM CORR    
GPUT -9.3132257462E-10-3.552713679E-15  61440 2412          TIME SYSTEM CORR    
IRUT  1.1204974726E-08 8.881784197E-15 430800 1387          TIME SYSTEM CORR    
QZUT   .0000000000E+00  .000000000E+00   8192 2412          TIME SYSTEM CORR    
    18                                                      LEAP SECONDS        
                                                            END OF HEADER
J02 2026 03 27 00 00 00 -.183749943972e-05 -.227373675443e-12  .000000000000e+00
      .290000000000e+02 -.377500000000e+02  .311370112672e-08  .296657801450e+01
     -.140629708767e-05  .743487217696e-01  .436045229435e-05  .649375373840e+04
      .432000000000e+06  .320374965668e-06  .113229670326e+01 -.428408384323e-07
      .690187632194e+00 -.443750000000e+01 -.156047994261e+01 -.301726853849e-08
     -.462876423518e-09  .200000000000e+01  .241100000000e+04  .100000000000e+01
      .280000000000e+01  .100000000000e+01  .139698386192e-08  .797000000000e+03
      .431976000000e+06  .100000000000e+01                                      
J02 2026 03 27 01 00 00 -.183749943972e-05 -.227373675443e-12  .000000000000e+00
      .330000000000e+02 -.392500000000e+02  .313405911757e-08 -.305412190846e+01
     -.146031379700e-05  .743515905924e-01  .327266752720e-05  .649374754143e+04
      .435600000000e+06  .219792127609e-06  .113228629167e+01 -.102445483208e-06
      .690185831342e+00  .298437500000e+02 -.156048147282e+01 -.299762486311e-08
     -.487520307178e-09  .200000000000e+01  .241100000000e+04  .100000000000e+01
      .280000000000e+01  .100000000000e+01  .139698386192e-08  .801000000000e+03
      .432006000000e+06  .100000000000e+01                                      
J02 2026 03 27 02 00 00 -.183843076229e-05 -.227373675443e-12  .000000000000e+00
      .370000000000e+02 -.292812500000e+02  .307012788315e-08 -.279164273433e+01
     -.111944973469e-05  .743540074909e-01  .245869159698e-05  .649374206734e+04
      .439200000000e+06 -.279396772385e-06  .113227212624e+01  .275671482086e-06
      .690184590787e+00  .553437500000e+02 -.156047291767e+01 -.288762028098e-08
     -.283226083217e-09  .200000000000e+01  .241100000000e+04  .100000000000e+01
      .280000000000e+01  .100000000000e+01  .139698386192e-08  .805000000000e+03
      .435606000000e+06  .100000000000e+01                                      
J02 2026 03 27 03 00 00 -.183889642358e-05 -.227373675443e-12  .000000000000e+00
      .410000000000e+02 -.164062500000e+02  .283583240952e-08 -.252916695124e+01
     -.646337866783e-06  .743558043614e-01  .212341547012e-05  .649373747063e+04
      .442800000000e+06 -.119209289551e-05  .113225726445e+01 -.100582838058e-06
      .690184530807e+00  .670000000000e+02 -.156045956416e+01 -.258332189144e-08
     -.689314426998e-10  .200000000000e+01  .241100000000e+04  .100000000000e+01
      .280000000000e+01  .100000000000e+01  .139698386192e-08  .809000000000e+03
      .439206000000e+06  .100000000000e+01                                      
J02 2026 03 27 04 00 00 -.183982774615e-05 -.227373675443e-12  .000000000000e+00
      .450000000000e+02 -.656250000000e+01  .257010705528e-08 -.226669142708e+01
     -.257045030594e-06  .743569137994e-01  .213645398617e-05  .649373422813e+04
      .446400000000e+06 -.120140612125e-05  .113224497155e+01 -.124983489513e-05
      .690185009182e+00  .690000000000e+02 -.156044735757e+01 -.225116519864e-08
     -.303584074067e-10  .200000000000e+01  .241100000000e+04  .100000000000e+01
      .280000000000e+01  .100000000000e+01  .139698386192e-08  .813000000000e+03
      .442806000000e+06  .100000000000e+01                                      
J02 2026 03 27 05 00 00 -.184122473001e-05 -.227373675443e-12  .000000000000e+00
      .490000000000e+02 -.218750000000e+00  .228580949885e-08 -.200421623355e+01
     -.931322574615e-08  .743576263776e-01  .236555933952e-05  .649373176575e+04
      .450000000000e+06 -.109896063805e-06  .113223454241e+01 -.222772359848e-05
      .690185939598e+00  .657812500000e+02 -.156043589122e+01 -.189972198819e-08
     -.100718481043e-09  .200000000000e+01  .241100000000e+04  .100000000000e+01
      .280000000000e+01  .100000000000e+01  .139698386192e-08  .817000000000e+03
      .446406000000e+06  .100000000000e+01                                      
J02 2026 03 27 06 00 00 -.184215605259e-05 -.227373675443e-12  .000000000000e+00
      .530000000000e+02  .446875000000e+01  .217294765485e-08 -.174173991064e+01
      .184401869774e-06  .743579920381e-01  .260211527348e-05  .649373020744e+04
      .453600000000e+06  .153668224812e-05  .113222723952e+01 -.181794166565e-05
      .690185405632e+00  .619687500000e+02 -.156042796074e+01 -.176614499560e-08
     -.315727437029e-09  .200000000000e+01  .241100000000e+04  .100000000000e+01
      .280000000000e+01  .100000000000e+01  .139698386192e-08  .821000000000e+03
      .450006000000e+06  .100000000000e+01                                      
J02 2026 03 27 07 00 00 -.184308737516e-05 -.227373675443e-12  .000000000000e+00
      .570000000000e+02  .800000000000e+01  .218473386008e-08 -.147926260904e+01
      .331550836563e-06  .743581402348e-01  .285729765892e-05  .649372908783e+04
      .457200000000e+06  .241957604885e-05  .113222090509e+01 -.232830643654e-06
      .690183260995e+00  .578750000000e+02 -.156042183404e+01 -.179543192980e-08
     -.575381109790e-09  .200000000000e+01  .241100000000e+04  .100000000000e+01
      .280000000000e+01  .100000000000e+01  .139698386192e-08  .825000000000e+03
      .453606000000e+06  .100000000000e+01                                      
J02 2026 03 27 08 00 00 -.184355303645e-05 -.227373675443e-12  .000000000000e+00
      .610000000000e+02  .124062500000e+02  .244260174417e-08 -.121678251473e+01
      .543892383575e-06  .743580803974e-01  .310316681862e-05  .649372830772e+04
      .460800000000e+06  .163540244102e-05  .113221337837e+01  .139325857162e-05
      .690178191983e+00  .548750000000e+02 -.156041793829e+01 -.215401829494e-08
     -.802176271004e-09  .200000000000e+01  .241100000000e+04  .100000000000e+01
      .280000000000e+01  .100000000000e+01  .139698386192e-08  .829000000000e+03
      .457206000000e+06  .100000000000e+01                                      
J02 2026 03 27 09 00 00 -.184448435903e-05 -.227373675443e-12  .000000000000e+00
      .650000000000e+02  .179062500000e+02  .289797785527e-08 -.954300109013e+00
      .771135091782e-06  .743578723632e-01  .341050326824e-05  .649372730446e+04
      .464400000000e+06  .428408384323e-07  .113220150094e+01  .153295695782e-05
      .690171238734e+00  .514375000000e+02 -.156041328328e+01 -.278725895767e-08
     -.865036032223e-09  .200000000000e+01  .241100000000e+04  .100000000000e+01
      .280000000000e+01  .100000000000e+01  .139698386192e-08  .833000000000e+03
      .460806000000e+06  .100000000000e+01                                      
J02 2026 03 27 10 00 00 -.184495002031e-05 -.227373675443e-12  .000000000000e+00
      .690000000000e+02  .189375000000e+02  .334371070754e-08 -.691818793167e+00
      .786036252975e-06  .743574112421e-01  .371597707272e-05  .649372522354e+04
      .468000000000e+06 -.542029738426e-06  .113218531083e+01  .543892383575e-06
      .690165207123e+00  .464375000000e+02 -.156040402740e+01 -.340549899556e-08
     -.718601361203e-09  .200000000000e+01  .241100000000e+04  .100000000000e+01
      .280000000000e+01  .100000000000e+01  .139698386192e-08  .837000000000e+03
      .464406000000e+06  .100000000000e+01                                      
J02 2026 03 27 11 00 00 -.184495002031e-05 -.227373675443e-12  .000000000000e+00
      .730000000000e+02  .161562500000e+02  .353764735721e-08 -.429334501745e+00
      .655651092529e-06  .743569271872e-01  .377744436264e-05  .649372343445e+04
      .471600000000e+06 -.270083546638e-06  .113216933284e+01  .104308128357e-06
      .690161884836e+00  .455312500000e+02 -.156039741208e+01 -.367336729621e-08
     -.560023327219e-09  .200000000000e+01  .241100000000e+04  .100000000000e+01
      .280000000000e+01  .100000000000e+01  .139698386192e-08  .841000000000e+03
      .468006000000e+06  .100000000000e+01                                      
J02 2026 03 27 12 00 00 -.184588134289e-05 -.227373675443e-12  .000000000000e+00
      .770000000000e+02  .145000000000e+02  .355586240166e-08 -.166846721264e+00
      .605359673500e-06  .743566523306e-01  .372901558876e-05  .649372262383e+04
      .475200000000e+06 -.230967998505e-06  .113215588277e+01  .689178705215e-07
      .690159892341e+00  .473437500000e+02 -.156039594917e+01 -.369122518292e-08
     -.552523014801e-09  .200000000000e+01  .241100000000e+04  .100000000000e+01
      .280000000000e+01  .100000000000e+01  .139698386192e-08  .845000000000e+03
      .471606000000e+06  .100000000000e+01                                      
J02 2026 03 27 13 00 00 -.184634700418e-05 -.227373675443e-12  .000000000000e+00
      .810000000000e+02  .144062500000e+02  .356264839861e-08  .956424446003e-01
      .603497028351e-06  .743568460457e-01  .385195016861e-05  .649372315407e+04
      .478800000000e+06 -.227242708206e-06  .113214322853e+01 -.223517417908e-07
      .690157836941e+00  .454062500000e+02 -.156039644802e+01 -.369229665612e-08
     -.602167939855e-09  .200000000000e+01  .241100000000e+04  .100000000000e+01
      .280000000000e+01  .100000000000e+01  .139698386192e-08  .849000000000e+03
      .475206000000e+06  .100000000000e+01                                      
J02 2026 03 27 14 00 00 -.184681266546e-05 -.227373675443e-12  .000000000000e+00
      .850000000000e+02  .987500000000e+01  .348014496201e-08  .358127817118e+00
      .396743416786e-06  .743577379035e-01  .412389636040e-05  .649372580910e+04
      .482400000000e+06 -.584870576859e-06  .113212753142e+01  .726431608200e-07
      .690156197010e+00  .397187500000e+02 -.156039094599e+01 -.357264881516e-08
     -.426446334630e-09  .200000000000e+01  .241100000000e+04  .100000000000e+01
      .280000000000e+01  .100000000000e+01  .139698386192e-08  .853000000000e+03
      .478806000000e+06  .100000000000e+01                                      
J02 2026 03 27 15 00 00 -.184774398804e-05 -.227373675443e-12  .000000000000e+00
      .890000000000e+02 -.171875000000e+01  .303941231801e-08  .620601948574e+00
     -.113621354103e-06  .743593706284e-01  .411830842495e-05  .649373154831e+04
      .486000000000e+06 -.135973095894e-05  .113210806437e+01 -.912696123123e-06
      .690157310291e+00  .392812500000e+02 -.156037194999e+01 -.296262340516e-08
     -.485734518507e-10  .200000000000e+01  .241100000000e+04  .100000000000e+01
      .280000000000e+01  .100000000000e+01  .139698386192e-08  .857000000000e+03
      .482406000000e+06  .100000000000e+01                                      
J02 2026 03 27 16 00 00 -.184774398804e-05 -.227373675443e-12  .000000000000e+00
      .930000000000e+02 -.116875000000e+02  .229973865049e-08  .883064983795e+00
     -.523403286934e-06  .743609415367e-01  .356324017048e-05  .649373827362e+04
      .489600000000e+06 -.335276126862e-06  .113209051227e+01 -.276975333691e-05
      .690162080867e+00  .501250000000e+02 -.156034438277e+01 -.195329564832e-08
      .156077929844e-09  .200000000000e+01  .241100000000e+04  .100000000000e+01
      .280000000000e+01  .100000000000e+01  .139698386192e-08  .861000000000e+03
      .486006000000e+06  .100000000000e+01                                      
J02 2026 03 27 17 00 00 -.184914097190e-05 -.227373675443e-12  .000000000000e+00
      .970000000000e+02 -.165625000000e+02  .163506810715e-08  .114551885676e+01
     -.638887286186e-06  .743619969580e-01  .272877514362e-05  .649374463654e+04
      .493200000000e+06  .238977372646e-05  .113208038157e+01 -.262446701527e-05
      .690167401500e+00  .693125000000e+02 -.156031402722e+01 -.107254467579e-08
     -.857178562071e-11  .200000000000e+01  .241100000000e+04  .100000000000e+01
      .280000000000e+01  .100000000000e+01  .139698386192e-08  .865000000000e+03
      .489606000000e+06  .100000000000e+01                                      
J02 2026 03 27 18 00 00 -.185007229447e-05 -.227373675443e-12  .000000000000e+00
      .101000000000e+03 -.145937500000e+02  .127005290280e-08  .140796176808e+01
     -.532716512680e-06  .743623785675e-01  .175647437572e-05  .649375144005e+04
      .496800000000e+06  .387243926525e-05  .113207649752e+01  .409781932831e-07
      .690169699744e+00  .969375000000e+02 -.156027782292e+01 -.631097716324e-09
     -.409302763389e-09  .200000000000e+01  .241100000000e+04  .100000000000e+01
      .280000000000e+01  .100000000000e+01  .139698386192e-08  .869000000000e+03
      .493206000000e+06  .100000000000e+01                                      
J02 2026 03 27 19 00 00 -.185100361705e-05 -.227373675443e-12  .000000000000e+00
      .105000000000e+03 -.165625000000e+01  .136077096729e-08  .167039512362e+01
     -.257045030594e-06  .743617926491e-01  .674277544022e-06  .649375943947e+04
      .500400000000e+06  .245682895184e-05  .113207357168e+01  .268965959549e-05
      .690166583728e+00  .129968750000e+03 -.156023302252e+01 -.814319633967e-09
     -.829677416538e-09  .200000000000e+01  .241100000000e+04  .100000000000e+01
      .280000000000e+01  .100000000000e+01  .139698386192e-08  .873000000000e+03
      .496806000000e+06  .100000000000e+01                                      
J02 2026 03 27 20 00 00 -.185146927834e-05 -.227373675443e-12  .000000000000e+00
      .109000000000e+03  .229375000000e+02  .179828919168e-08  .193282810027e+01
      .266358256340e-06  .743602153379e-01 -.325962901115e-06  .649376820183e+04
      .504000000000e+06 -.206753611565e-06  .113206619565e+01  .297464430332e-05
      .690159665589e+00  .157562500000e+03 -.156018515730e+01 -.144791745443e-08
     -.106754446751e-08  .200000000000e+01  .241100000000e+04  .100000000000e+01
      .280000000000e+01  .100000000000e+01  .139698386192e-08  .877000000000e+03
      .500406000000e+06  .100000000000e+01                                      
J02 2026 03 27 21 00 00 -.185240060091e-05 -.227373675443e-12  .000000000000e+00
      .113000000000e+03  .432500000000e+02  .250867592499e-08  .219527681206e+01
      .722706317902e-06  .743583596777e-01 -.102072954178e-05  .649377540588e+04
      .507600000000e+06 -.140070915222e-05  .113205120074e+01  .103935599327e-05
      .690151145554e+00  .171406250000e+03 -.156014822886e+01 -.238831376857e-08
     -.961468620456e-09  .200000000000e+01  .241100000000e+04  .100000000000e+01
      .280000000000e+01  .100000000000e+01  .139698386192e-08  .881000000000e+03
      .504006000000e+06  .100000000000e+01                                      
J02 2026 03 27 22 00 00 -.185286626220e-05 -.227373675443e-12  .000000000000e+00
      .117000000000e+03  .411562500000e+02  .319870466746e-08  .245775161645e+01
      .698491930962e-06  .743577675894e-01 -.148266553879e-05  .649377784157e+04
      .511200000000e+06 -.132247805595e-06  .113203025614e+01 -.441446900368e-06
      .690144329819e+00  .180437500000e+03 -.156013391421e+01 -.323120602127e-08
     -.508235455761e-09  .200000000000e+01  .241100000000e+04  .100000000000e+01
      .280000000000e+01  .100000000000e+01  .139698386192e-08  .885000000000e+03
      .507606000000e+06  .100000000000e+01                                      
J02 2026 03 27 23 00 00 -.185333192348e-05 -.227373675443e-12  .000000000000e+00
      .121000000000e+03  .192187500000e+02  .345121518554e-08  .272024632678e+01
      .165775418282e-06  .743597362889e-01 -.205822288990e-05  .649377338982e+04
      .514800000000e+06  .748783349991e-06  .113201303174e+01 -.165775418282e-06
      .690141670234e+00  .202375000000e+03 -.156014279704e+01 -.346443002170e-08
     -.205722854897e-09  .200000000000e+01  .241100000000e+04  .100000000000e+01
      .280000000000e+01  .100000000000e+01  .139698386192e-08  .889000000000e+03
      .511206000000e+06  .100000000000e+01                                      
J02 2026 03 28 00 00 00 -.185426324606e-05 -.227373675443e-12  .000000000000e+00
      .125000000000e+03 -.875000000000e+00  .348014496201e-08  .298274201726e+01
     -.383704900742e-06  .743635926628e-01 -.317767262459e-05  .649376476860e+04
      .518400000000e+06  .465661287308e-06  .113200222956e+01 -.236555933952e-06
      .690140805649e+00  .245187500000e+03 -.156015665088e+01 -.339692720994e-08
     -.286083345091e-09  .200000000000e+01  .241100000000e+04  .100000000000e+01
      .280000000000e+01  .100000000000e+01  .139698386192e-08  .893000000000e+03
      .514806000000e+06  .100000000000e+01                                      
J03 2026 03 26 10 00 00-1.908279955387e-06-3.410605131648e-13 0.000000000000e+00
     1.970000000000e+02 7.975312500000e+02 2.389028084038e-09-2.448907537891e+00
     2.419203519821e-05 7.444341026712e-02-1.418590545654e-05 6.493404748917e+03
     3.816000000000e+05 1.337379217148e-06 2.881930920699e+00 1.117587089539e-07
     7.010604226435e-01 6.584375000000e+02-1.567777473916e+00-2.726899300587e-09
    -2.878691337620e-10 2.000000000000e+00 2.411000000000e+03 1.000000000000e+00
     2.800000000000e+00 1.000000000000e+00 4.656612873077e-10 9.650000000000e+02
     3.780000000000e+05 0.000000000000e+00                                      
J03 2026 03 27 00 00 00 -.192690640688e-05 -.341060513165e-12  .000000000000e+00
      .290000000000e+02  .316343750000e+03  .296333772062e-08  .122627459871e+01
      .105798244476e-04  .744201363996e-01  .741519033909e-05  .649335888481e+04
      .432000000000e+06 -.132992863655e-05  .288178828765e+01  .186264514923e-07
      .701053345046e+00 -.986250000000e+02 -.156764226371e+01 -.340442752236e-08
     -.121433629627e-09  .200000000000e+01  .241100000000e+04  .100000000000e+01
      .280000000000e+01  .100000000000e+01  .465661287308e-09  .797000000000e+03
      .431976000000e+06  .100000000000e+01                                      
J03 2026 03 27 01 00 00 -.192830339074e-05 -.341060513165e-12  .000000000000e+00
      .330000000000e+02  .328031250000e+03  .238652797990e-08  .148892050162e+01
      .113584101200e-04  .744198970497e-01  .963732600212e-05  .649333792496e+04
      .435600000000e+06  .912696123123e-07  .288177704366e+01 -.566244125366e-06
      .701060889314e+00 -.188968750000e+03 -.156775819412e+01 -.234688347140e-08
      .178578867098e-10  .200000000000e+01  .241100000000e+04  .100000000000e+01
      .280000000000e+01  .100000000000e+01  .465661287308e-09  .801000000000e+03
      .432006000000e+06  .100000000000e+01                                      
J03 2026 03 27 02 00 00 -.193016603589e-05 -.341060513165e-12  .000000000000e+00
      .370000000000e+02  .340781250000e+03  .112647549365e-08  .175147476880e+01
      .123456120491e-04  .744204942603e-01  .103749334812e-04  .649333304024e+04
      .439200000000e+06  .146590173244e-05  .288177638827e+01  .192411243916e-05
      .701073160271e+00 -.213093750000e+03 -.156778826147e+01 -.637526555540e-09
     -.303941231801e-09  .200000000000e+01  .241100000000e+04  .100000000000e+01
      .280000000000e+01  .100000000000e+01  .465661287308e-09  .805000000000e+03
      .435606000000e+06  .100000000000e+01                                      
J03 2026 03 27 03 00 00 -.193156301975e-05 -.341060513165e-12  .000000000000e+00
      .410000000000e+02  .447250000000e+03 -.188222125921e-09  .201389445044e+01
      .154227018356e-04  .744165347423e-01  .958330929279e-05  .649335258293e+04
      .442800000000e+06 -.124797224998e-05  .288178583287e+01  .526010990143e-05
      .701081806117e+00 -.174437500000e+03 -.156769090135e+01  .765031866648e-09
     -.116254842481e-08  .200000000000e+01  .241100000000e+04  .100000000000e+01
      .280000000000e+01  .100000000000e+01  .465661287308e-09  .809000000000e+03
      .439206000000e+06  .100000000000e+01                                      
J03 2026 03 27 04 00 00 -.193296000361e-05 -.341060513165e-12  .000000000000e+00
      .450000000000e+02  .664375000000e+03 -.564309220030e-09  .227622568406e+01
      .208839774132e-04  .744041621219e-01  .909343361855e-05  .649339450264e+04
      .446400000000e+06 -.552274286747e-05  .288178928536e+01  .372529029846e-05
      .701079322082e+00 -.164781250000e+03 -.156750310509e+01  .669670751618e-09
     -.185222000954e-08  .200000000000e+01  .241100000000e+04  .100000000000e+01
      .280000000000e+01  .100000000000e+01  .465661287308e-09  .813000000000e+03
      .442806000000e+06  .100000000000e+01                                      
J03 2026 03 27 05 00 00 -.193435698748e-05 -.341060513165e-12  .000000000000e+00
      .490000000000e+02  .884687500000e+03  .650027076237e-10  .253857393434e+01
      .264849513769e-04  .743867208948e-01  .105462968349e-04  .649344287300e+04
      .450000000000e+06 -.468268990517e-05  .288177309963e+01 -.609084963799e-06
      .701069931611e+00 -.244312500000e+03 -.156732389909e+01 -.719315676671e-09
     -.152970657556e-08  .200000000000e+01  .241100000000e+04  .100000000000e+01
      .280000000000e+01  .100000000000e+01  .465661287308e-09  .817000000000e+03
      .446406000000e+06  .100000000000e+01                                      
J03 2026 03 27 06 00 00 -.193621963263e-05 -.341060513165e-12  .000000000000e+00
      .530000000000e+02  .981093750000e+03  .784318384295e-09  .280101820179e+01
      .291895121336e-04  .743751086993e-01  .126864761114e-04  .649347172928e+04
      .453600000000e+06 -.681728124619e-06  .288174616585e+01 -.108964741230e-05
      .701063319221e+00 -.333937500000e+03 -.156724002415e+01 -.190329356553e-08
     -.445732852277e-09  .200000000000e+01  .241100000000e+04  .100000000000e+01
      .280000000000e+01  .100000000000e+01  .465661287308e-09  .821000000000e+03
      .450006000000e+06  .100000000000e+01                                      
J03 2026 03 27 07 00 00 -.193761661649e-05 -.341060513165e-12  .000000000000e+00
      .570000000000e+02  .970562500000e+03  .113147570193e-08  .306353407469e+01
      .291317701340e-04  .743786272360e-01  .120010226965e-04  .649346462059e+04
      .457200000000e+06  .298023223877e-06  .288173149424e+01 -.195577740669e-06
      .701062249828e+00 -.284812500000e+03 -.156723987932e+01 -.211258799777e-08
     -.785747015231e-11  .200000000000e+01  .241100000000e+04  .100000000000e+01
      .280000000000e+01  .100000000000e+01  .465661287308e-09  .825000000000e+03
      .453606000000e+06  .100000000000e+01                                      
J03 2026 03 27 08 00 00 -.193854793906e-05 -.341060513165e-12  .000000000000e+00
      .610000000000e+02  .992125000000e+03  .161399580083e-08 -.295714812063e+01
      .296235084534e-04  .743948866148e-01  .760890543461e-05  .649343000984e+04
      .460800000000e+06  .266358256340e-06  .288172311611e+01 -.577419996262e-07
      .701062317122e+00 -.823750000000e+02 -.156722776489e+01 -.210615915855e-08
      .414302971667e-10  .200000000000e+01  .241100000000e+04  .100000000000e+01
      .280000000000e+01  .100000000000e+01  .465661287308e-09  .829000000000e+03
      .457206000000e+06  .100000000000e+01                                      
J03 2026 03 27 09 00 00 -.193994492292e-05 -.341060513165e-12  .000000000000e+00
      .650000000000e+02  .102396875000e+04  .159399496772e-08 -.269464541692e+01
      .305101275444e-04  .744039680576e-01  .509805977345e-05  .649341022301e+04
      .464400000000e+06 -.987201929092e-06  .288170818557e+01  .532716512680e-06
      .701063949739e+00  .237812500000e+02 -.156720354482e+01 -.181221834331e-08
      .482877256633e-09  .200000000000e+01  .241100000000e+04  .100000000000e+01
      .280000000000e+01  .100000000000e+01  .465661287308e-09  .833000000000e+03
      .460806000000e+06  .100000000000e+01                                      
J03 2026 03 27 10 00 00 -.194180756807e-05 -.341060513165e-12  .000000000000e+00
      .690000000000e+02  .102396875000e+04  .146898976075e-08 -.243211421118e+01
      .307317823172e-04  .744081466692e-01  .352412462234e-05  .649340284538e+04
      .468000000000e+06 -.128522515297e-05  .288169981475e+01 -.406056642532e-06
      .701065557486e+00  .914375000000e+02 -.156720879816e+01 -.158328023569e-08
      .491806199988e-09  .200000000000e+01  .241100000000e+04  .100000000000e+01
      .280000000000e+01  .100000000000e+01  .465661287308e-09  .837000000000e+03
      .464406000000e+06  .100000000000e+01                                      
J03 2026 03 27 11 00 00 -.194320455194e-05 -.341060513165e-12  .000000000000e+00
      .730000000000e+02  .100593750000e+04  .249081803828e-08 -.216955580833e+01
      .304784625769e-04  .744071057998e-01  .214017927647e-05  .649340983582e+04
      .471600000000e+06  .141374766827e-05  .288170902675e+01  .136531889439e-05
      .701057536306e+00  .133187500000e+03 -.156725769766e+01 -.291940731932e-08
     -.397873715894e-09  .200000000000e+01  .241100000000e+04  .100000000000e+01
      .280000000000e+01  .100000000000e+01  .465661287308e-09  .841000000000e+03
      .468006000000e+06  .100000000000e+01                                      
J03 2026 03 27 12 00 00 -.194460153580e-05 -.341060513165e-12  .000000000000e+00
      .770000000000e+02  .789906250000e+03  .289619206660e-08 -.190681017537e+01
      .256877392530e-04  .743950156029e-01 -.875443220139e-07  .649345760918e+04
      .475200000000e+06  .204890966415e-06  .288170627354e+01  .363774597645e-05
      .701048763186e+00  .204531250000e+03 -.156749318943e+01 -.412588614543e-08
     -.596810573842e-09  .200000000000e+01  .241100000000e+04  .100000000000e+01
      .280000000000e+01  .100000000000e+01  .465661287308e-09  .845000000000e+03
      .471606000000e+06  .100000000000e+01                                      
J03 2026 03 27 13 00 00 -.194599851966e-05 -.341060513165e-12  .000000000000e+00
      .810000000000e+02  .663812500000e+03  .210794494723e-08 -.164411980122e+01
      .225286930799e-04  .743898538640e-01 -.258162617683e-05  .649349028969e+04
      .478800000000e+06 -.112131237984e-05  .288168974695e+01  .173225998878e-05
      .701051914312e+00  .305656250000e+03 -.156766743468e+01 -.358622080906e-08
     -.196079596074e-09  .200000000000e+01  .241100000000e+04  .100000000000e+01
      .280000000000e+01  .100000000000e+01  .465661287308e-09  .849000000000e+03
      .475206000000e+06  .100000000000e+01                                      
J03 2026 03 27 14 00 00 -.194739550352e-05 -.341060513165e-12  .000000000000e+00
      .850000000000e+02  .637218750000e+03  .669670751618e-09 -.138161164229e+01
      .211559236050e-04  .743900451344e-01 -.233948230743e-05  .649348996162e+04
      .482400000000e+06  .129640102386e-05  .288167796753e+01  .473111867905e-06
      .701065374621e+00  .300125000000e+03 -.156766253244e+01 -.170364239212e-08
     -.953611150304e-10  .200000000000e+01  .241100000000e+04  .100000000000e+01
      .280000000000e+01  .100000000000e+01  .465661287308e-09  .853000000000e+03
      .478806000000e+06  .100000000000e+01                                      
J03 2026 03 27 15 00 00 -.194879248738e-05 -.341060513165e-12  .000000000000e+00
      .890000000000e+02  .588937500000e+03 -.222509268404e-09 -.111927119814e+01
      .191982835531e-04  .743883081013e-01  .774860382080e-06  .649345899200e+04
      .486000000000e+06  .244751572609e-05  .288167854392e+01  .327080488205e-05
      .701075691119e+00  .174687500000e+03 -.156749556668e+01 -.107504477993e-09
     -.638240871008e-09  .200000000000e+01  .241100000000e+04  .100000000000e+01
      .280000000000e+01  .100000000000e+01  .465661287308e-09  .857000000000e+03
      .482406000000e+06  .100000000000e+01                                      
J03 2026 03 27 16 00 00 -.195065513253e-05 -.341060513165e-12  .000000000000e+00
      .930000000000e+02  .464843750000e+03  .283226083217e-09 -.856977725362e+00
      .156555324793e-04  .743806695100e-01  .411830842495e-05  .649341248512e+04
      .489600000000e+06 -.767409801483e-06  .288167732531e+01  .443868339062e-05
      .701072695063e+00  .489062500000e+02 -.156727551308e+01 -.251081887140e-09
     -.118862093940e-08  .200000000000e+01  .241100000000e+04  .100000000000e+01
      .280000000000e+01  .100000000000e+01  .465661287308e-09  .861000000000e+03
      .486006000000e+06  .100000000000e+01                                      
J03 2026 03 27 17 00 00 -.195205211639e-05 -.341060513165e-12  .000000000000e+00
      .970000000000e+02  .333906250000e+03  .171292849320e-08 -.594613606809e+00
      .119600445032e-04  .743700659368e-01  .542216002941e-05  .649336937332e+04
      .493200000000e+06 -.208243727684e-05  .288165957865e+01  .130571424961e-05
      .701062403435e+00  .100937500000e+02 -.156710837615e+01 -.180436087316e-08
     -.842177937234e-09  .200000000000e+01  .241100000000e+04  .100000000000e+01
      .280000000000e+01  .100000000000e+01  .465661287308e-09  .865000000000e+03
      .489606000000e+06  .100000000000e+01                                      
J03 2026 03 27 18 00 00 -.195344910026e-05 -.341060513165e-12  .000000000000e+00
      .101000000000e+03  .282218750000e+03  .250331855898e-08 -.332134084501e+00
      .103563070297e-04  .743642409798e-01  .506825745106e-05  .649334986115e+04
      .496800000000e+06 -.482425093651e-06  .288163816300e+01  .745058059692e-07
      .701057518751e+00  .243437500000e+02 -.156704960634e+01 -.275868633893e-08
     -.116433421348e-09  .200000000000e+01  .241100000000e+04  .100000000000e+01
      .280000000000e+01  .100000000000e+01  .465661287308e-09  .869000000000e+03
      .493206000000e+06  .100000000000e+01                                      
J03 2026 03 27 19 00 00 -.195484608412e-05 -.341060513165e-12  .000000000000e+00
      .105000000000e+03  .294531250000e+03  .245260216072e-08 -.695951092014e-01
      .106822699308e-04  .743678390281e-01  .595860183239e-05  .649335985947e+04
      .500400000000e+06 -.342726707458e-06  .288162720720e+01  .968575477600e-07
      .701057183743e+00 -.718750000000e+01 -.156705777966e+01 -.280440252891e-08
     -.550022910662e-10  .200000000000e+01  .241100000000e+04  .100000000000e+01
      .280000000000e+01  .100000000000e+01  .465661287308e-09  .873000000000e+03
      .496806000000e+06  .100000000000e+01                                      
J03 2026 03 27 20 00 00 -.195670872927e-05 -.341060513165e-12  .000000000000e+00
      .109000000000e+03  .278656250000e+03  .223937899341e-08  .192921474674e+00
      .102110207081e-04  .743776157033e-01  .860542058945e-05  .649338689041e+04
      .504000000000e+06 -.471249222755e-06  .288161679269e+01  .100582838058e-06
      .701056921880e+00 -.943750000000e+02 -.156704669952e+01 -.276940107096e-08
     -.314298806093e-10  .200000000000e+01  .241100000000e+04  .100000000000e+01
      .280000000000e+01  .100000000000e+01  .465661287308e-09  .877000000000e+03
      .500406000000e+06  .100000000000e+01                                      
J03 2026 03 27 21 00 00 -.195810571313e-05 -.454747350886e-12  .000000000000e+00
      .113000000000e+03  .213406250000e+03  .184043380431e-08  .455394116879e+00
      .824965536594e-05  .743871505838e-01  .105071812868e-04  .649341517448e+04
      .507600000000e+06 -.117346644402e-05  .288160284230e+01 -.167638063431e-06
      .701057741115e+00 -.156750000000e+03 -.156699292412e+01 -.247474594024e-08
      .225366530278e-09  .200000000000e+01  .241100000000e+04  .100000000000e+01
      .280000000000e+01  .100000000000e+01  .465661287308e-09  .881000000000e+03
      .504006000000e+06  .100000000000e+01                                      
J03 2026 03 27 22 00 00 -.195857137442e-05 -.454747350886e-12  .000000000000e+00
      .117000000000e+03  .171468750000e+03  .178828877512e-08  .717876657187e+00
      .695139169693e-05  .743907225551e-01  .108182430267e-04  .649342726135e+04
      .511200000000e+06 -.612810254097e-06  .288159516637e+01 -.549480319023e-06
      .701057259815e+00 -.165281250000e+03 -.156695684417e+01 -.251474760647e-08
      .282154610015e-10  .200000000000e+01  .241100000000e+04  .100000000000e+01
      .280000000000e+01  .100000000000e+01  .465661287308e-09  .885000000000e+03
      .507606000000e+06  .100000000000e+01                                      
J03 2026 03 27 23 00 00 -.195950269699e-05 -.341060513165e-12  .000000000000e+00
      .121000000000e+03  .195718750000e+03  .242224375332e-08  .980440494779e+00
      .743195414543e-05  .743885125266e-01  .115483999252e-04  .649341642952e+04
      .514800000000e+06 -.668689608574e-06  .288159065619e+01  .547617673874e-06
      .701052299059e+00 -.188250000000e+03 -.156700463478e+01 -.325477843173e-08
     -.280368821344e-09  .200000000000e+01  .241100000000e+04  .100000000000e+01
      .280000000000e+01  .100000000000e+01  .465661287308e-09  .889000000000e+03
      .511206000000e+06  .100000000000e+01                                      
J03 2026 03 28 00 00 00 -.196089968085e-05 -.341060513165e-12  .000000000000e+00
      .125000000000e+03  .239500000000e+03  .304905557683e-08  .124309945130e+01
      .851228833199e-05  .743853170425e-01  .140126794577e-04  .649338944435e+04
      .518400000000e+06 -.196695327759e-05  .288158012026e+01  .216066837311e-06
      .701048170705e+00 -.282468750000e+03 -.156714095387e+01 -.375408494414e-08
     -.206437170365e-09  .200000000000e+01  .241100000000e+04  .100000000000e+01
      .280000000000e+01  .100000000000e+01  .465661287308e-09  .893000000000e+03
      .514806000000e+06  .100000000000e+01                                      
J04 2025 08 06 01 00 00-1.122243702412e-07-1.136868377216e-13 0.000000000000e+00
     6.500000000000e+01-7.460312500000e+02 1.752215816886e-09 1.900499610523e+00
    -2.393685281277e-05 7.416043826379e-02 4.615634679794e-06 6.492862272263e+03
     2.628000000000e+05 3.930181264877e-07 2.313918529092e+00-7.692724466324e-07
     6.426661120689e-01 4.778125000000e+01-1.590788742279e+00-2.133303146353e-09
     3.764442646492e-10 2.000000000000e+00 2.378000000000e+03 1.000000000000e+00
     2.800000000000e+00 6.300000000000e+01-3.259629011154e-09 8.330000000000e+02
     2.592000000000e+05 0.000000000000e+00 0.000000000000e+00 0.000000000000e+00
J04 2026 03 27 00 00 00-4.144385457039e-08 0.000000000000e+00 0.000000000000e+00
     2.900000000000e+01-2.920312500000e+02 2.307596120641e-09-5.507552979231e-01
    -1.058541238308e-05 7.502337300684e-02 1.627951860428e-06 6.493195894241e+03
     4.320000000000e+05-1.169741153717e-06-1.721735322216e+00 5.569308996201e-07
     6.503740021392e-01 7.253125000000e+01-1.565193698726e+00-2.756543392525e-09
    -1.435774091468e-10 2.000000000000e+00 2.411000000000e+03 1.000000000000e+00
     2.800000000000e+00 1.600000000000e+01-3.725290298462e-09 7.970000000000e+02
     4.284180000000e+05 0.000000000000e+00                                      
J04 2026 03 27 01 00 00-4.144385457039e-08 0.000000000000e+00 0.000000000000e+00
     3.300000000000e+01-3.281250000000e+02 2.651896176406e-09-2.882355834033e-01
    -1.175701618195e-05 7.501879532356e-02 9.071081876755e-07 6.493181602478e+03
     4.356000000000e+05-6.128102540970e-07-1.721750545341e+00-2.980232238770e-08
     6.503731887567e-01 9.553125000000e+01-1.565159731231e+00-3.117629861798e-09
     6.214544575012e-11 2.000000000000e+00 2.411000000000e+03 1.000000000000e+00
     2.800000000000e+00 1.600000000000e+01-3.725290298462e-09 8.010000000000e+02
     4.320180000000e+05 0.000000000000e+00                                      
J04 2026 03 27 02 00 00-4.190951585770e-08 0.000000000000e+00 0.000000000000e+00
     3.700000000000e+01-3.585937500000e+02 2.901906590343e-09-2.570450493581e-02
    -1.263804733753e-05 7.500952424016e-02-1.382082700729e-06 6.493155557632e+03
     4.392000000000e+05-3.818422555923e-07-1.721763332708e+00 7.450580596924e-09
     6.503736173917e-01 1.741875000000e+02-1.565135988070e+00-3.191561512776e-09
     1.496490906282e-10 2.000000000000e+00 2.411000000000e+03 1.000000000000e+00
     2.800000000000e+00 1.600000000000e+01-3.725290298462e-09 8.050000000000e+02
     4.356180000000e+05 0.000000000000e+00                                      
J04 2026 03 27 03 00 00-4.190951585770e-08 0.000000000000e+00 0.000000000000e+00
     4.100000000000e+01-3.404687500000e+02 3.098343344151e-09 2.368651316635e-01
    -1.220591366291e-05 7.500127656385e-02-3.227964043617e-06 6.493132656097e+03
     4.428000000000e+05-4.656612873077e-07-1.721775074089e+00-7.450580596924e-09
     6.503741220984e-01 2.466875000000e+02-1.565148005943e+00-3.165488998180e-09
     1.642925577302e-10 2.000000000000e+00 2.411000000000e+03 1.000000000000e+00
     2.800000000000e+00 1.600000000000e+01-3.725290298462e-09 8.090000000000e+02
     4.392180000000e+05 0.000000000000e+00                                      
J04 2026 03 27 04 00 00-4.190951585770e-08 0.000000000000e+00 0.000000000000e+00
     4.500000000000e+01-3.375937500000e+02 2.446530479243e-09 4.994206130674e-01
    -1.251883804798e-05 7.500132627320e-02-3.445893526077e-06 6.493133970261e+03
     4.464000000000e+05-2.559274435043e-06-1.721800493753e+00-7.282942533493e-07
     6.503788326947e-01 2.599687500000e+02-1.565133128066e+00-2.166161657899e-09
     1.050400896271e-09 2.000000000000e+00 2.411000000000e+03 1.000000000000e+00
     2.800000000000e+00 1.600000000000e+01-3.725290298462e-09 8.130000000000e+02
     4.428180000000e+05 0.000000000000e+00                                      
J04 2026 03 27 05 00 00-4.190951585770e-08 0.000000000000e+00 0.000000000000e+00
     4.900000000000e+01-4.272500000000e+02 5.646663777640e-10 7.618662805258e-01
    -1.535192131996e-05 7.501034182496e-02-4.326924681664e-06 6.493168252945e+03
     4.500000000000e+05-2.490356564522e-06-1.721827478740e+00-5.219131708145e-06
     6.503922037659e-01 2.785000000000e+02-1.565009537820e+00 1.257195224370e-10
     1.807218135032e-09 2.000000000000e+00 2.411000000000e+03 1.000000000000e+00
     2.800000000000e+00 1.600000000000e+01-3.725290298462e-09 8.170000000000e+02
     4.464180000000e+05 0.000000000000e+00                                      
J04 2026 03 27 06 00 00-4.190951585770e-08 0.000000000000e+00 0.000000000000e+00
     5.300000000000e+01-5.729687500000e+02-4.453756945425e-10 1.024187367343e+00
    -1.952052116394e-05 7.502032280900e-02-7.452443242073e-06 6.493219312668e+03
     4.536000000000e+05 2.350658178329e-06-1.721830504055e+00-5.537644028664e-06
     6.504000537843e-01 3.885937500000e+02-1.564784576130e+00 9.325388439860e-10
     1.220765135482e-09 2.000000000000e+00 2.411000000000e+03 1.000000000000e+00
     2.800000000000e+00 1.600000000000e+01-3.725290298462e-09 8.210000000000e+02
     4.500180000000e+05 0.000000000000e+00                                      
J04 2026 03 27 07 00 00-4.144385457039e-08 1.136868377216e-13 0.000000000000e+00
     5.700000000000e+01-6.686562500000e+02 3.196561721055e-10 1.286469637093e+00
    -2.280808985233e-05 7.502493739594e-02-1.196190714836e-05 6.493268115997e+03
     4.572000000000e+05 3.032386302948e-06-1.721824304208e+00-1.296401023865e-06
     6.503918146297e-01 5.699062500000e+02-1.564533120993e+00-6.564559154524e-10
     3.325138505366e-10 2.000000000000e+00 2.411000000000e+03 1.000000000000e+00
     2.800000000000e+00 1.600000000000e+01-3.725290298462e-09 8.250000000000e+02
     4.536180000000e+05 0.000000000000e+00                                      
J04 2026 03 27 08 00 00-4.051253199577e-08 1.136868377216e-13 0.000000000000e+00
     6.100000000000e+01-6.876875000000e+02 2.103659054415e-09 1.548870548035e+00
    -2.441555261612e-05 7.502436649520e-02-1.474097371101e-05 6.493292514801e+03
     4.608000000000e+05-3.986060619354e-07-1.721831416915e+00-6.929039955139e-07
     6.503748477058e-01 6.787500000000e+02-1.564395606693e+00-3.236920545019e-09
     1.282196265764e-10 2.000000000000e+00 2.411000000000e+03 1.000000000000e+00
     2.800000000000e+00 1.600000000000e+01-3.725290298462e-09 8.290000000000e+02
     4.572180000000e+05 0.000000000000e+00                                      
J04 2026 03 27 09 00 00-3.958120942116e-08 1.136868377216e-13 0.000000000000e+00
     6.500000000000e+01-7.510625000000e+02 3.254064116261e-09 1.811488620389e+00
    -2.637691795826e-05 7.502608851064e-02-1.374073326588e-05 6.493278167725e+03
     4.644000000000e+05-5.923211574554e-07-1.721849747279e+00-2.991408109665e-06
     6.503671878667e-01 6.326250000000e+02-1.564470863588e+00-4.462328731046e-09
     4.814486256963e-10 2.000000000000e+00 2.411000000000e+03 1.000000000000e+00
     2.800000000000e+00 1.600000000000e+01-3.725290298462e-09 8.330000000000e+02
     4.608180000000e+05 0.000000000000e+00                                      
J04 2026 03 27 10 00 00-3.958120942116e-08 1.136868377216e-13 0.000000000000e+00
     6.900000000000e+01-9.428437500000e+02 2.907263956356e-09 2.074253751120e+00
    -3.052875399590e-05 7.503616379108e-02-1.104176044464e-05 6.493232923508e+03
     4.680000000000e+05 8.009374141693e-07-1.721856328947e+00-1.449137926102e-06
     6.503748345395e-01 5.384375000000e+02-1.564701403385e+00-3.400855945015e-09
     3.757299363743e-10 2.000000000000e+00 2.411000000000e+03 1.000000000000e+00
     2.800000000000e+00 1.600000000000e+01-3.725290298462e-09 8.370000000000e+02
     4.644180000000e+05 0.000000000000e+00                                      
J04 2026 03 27 11 00 00-3.864988684654e-08 1.136868377216e-13 0.000000000000e+00
     7.300000000000e+01-1.024000000000e+03 1.503276903231e-09 2.336895673428e+00
    -3.196857869625e-05 7.504168187734e-02-9.294599294662e-06 6.493210901260e+03
     4.716000000000e+05-2.682209014893e-06-1.721842034775e+00 1.197680830956e-06
     6.503864340170e-01 4.934062500000e+02-1.564817247479e+00-1.422916413037e-09
    -7.961045895231e-10 2.000000000000e+00 2.411000000000e+03 1.000000000000e+00
     2.800000000000e+00 1.600000000000e+01-3.725290298462e-09 8.410000000000e+02
     4.680180000000e+05 0.000000000000e+00                                      
J04 2026 03 27 12 00 00-3.864988684654e-08 1.136868377216e-13 0.000000000000e+00
     7.700000000000e+01-1.024000000000e+03 1.760787629587e-09 2.599455713284e+00
    -3.160536289215e-05 7.503696449567e-02-7.437542080879e-06 6.493218505859e+03
     4.752000000000e+05-3.006309270859e-06-1.721850028159e+00-8.679926395416e-07
     6.503841621052e-01 4.123125000000e+02-1.564826289776e+00-1.777574043094e-09
    -9.564684121771e-10 2.000000000000e+00 2.411000000000e+03 1.000000000000e+00
     2.800000000000e+00 1.600000000000e+01-3.725290298462e-09 8.450000000000e+02
     4.716180000000e+05 0.000000000000e+00                                      
J04 2026 03 27 13 00 00-3.911554813385e-08 1.136868377216e-13 0.000000000000e+00
     8.100000000000e+01-1.024000000000e+03 2.274737609095e-09 2.862005653155e+00
    -3.124587237835e-05 7.502766896505e-02-4.690140485764e-06 6.493237985611e+03
     4.788000000000e+05-1.341104507446e-07-1.721875326402e+00-4.582107067108e-07
     6.503803453519e-01 2.952812500000e+02-1.564813141068e+00-2.581178945035e-09
    -9.750406143553e-11 2.000000000000e+00 2.411000000000e+03 1.000000000000e+00
     2.800000000000e+00 1.600000000000e+01-3.725290298462e-09 8.490000000000e+02
     4.752180000000e+05 0.000000000000e+00                                      
J04 2026 03 27 14 00 00-3.911554813385e-08 1.136868377216e-13 0.000000000000e+00
     8.500000000000e+01-1.024000000000e+03 2.056157075767e-09 3.124548831418e+00
    -3.117881715298e-05 7.501714816317e-02-1.609325408936e-06 6.493260122299e+03
     4.824000000000e+05 2.142041921616e-07-1.721888442925e+00 5.029141902924e-08
     6.503803160936e-01 1.608125000000e+02-1.564809644694e+00-2.657253542419e-09
     1.125046862718e-10 2.000000000000e+00 2.411000000000e+03 1.000000000000e+00
     2.800000000000e+00 1.600000000000e+01-3.725290298462e-09 8.530000000000e+02
     4.788180000000e+05 0.000000000000e+00                                      
J04 2026 03 27 15 00 00-3.911554813385e-08 1.136868377216e-13 0.000000000000e+00
     8.900000000000e+01-1.024000000000e+03 1.870077896251e-09-2.896097918857e+00
    -3.107078373432e-05 7.501618517563e-02-1.585111021996e-06 6.493261701584e+03
     4.860000000000e+05-3.147870302200e-07-1.721902722469e+00 7.152557373047e-07
     6.503811558086e-01 1.421562500000e+02-1.564805045280e+00-2.543320225210e-09
     3.907305612105e-10 2.000000000000e+00 2.411000000000e+03 1.000000000000e+00
     2.800000000000e+00 1.600000000000e+01-3.725290298462e-09 8.570000000000e+02
     4.824180000000e+05 0.000000000000e+00                                      
J04 2026 03 27 16 00 00-3.864988684654e-08 1.136868377216e-13 0.000000000000e+00
     9.300000000000e+01-1.024000000000e+03 6.896715847326e-10-2.633568887012e+00
    -3.051012754440e-05 7.501496514305e-02-9.331852197647e-07 6.493261930466e+03
     4.896000000000e+05-4.621222615242e-06-1.721935819527e+00 1.462176442146e-06
     6.503873863767e-01 9.431250000000e+01-1.564777404905e+00-1.367914121971e-09
     1.677569877519e-09 2.000000000000e+00 2.411000000000e+03 1.000000000000e+00
     2.800000000000e+00 1.600000000000e+01-3.725290298462e-09 8.610000000000e+02
     4.860180000000e+05 0.000000000000e+00                                      
J04 2026 03 27 17 00 00-3.818422555923e-08 1.136868377216e-13 0.000000000000e+00
     9.700000000000e+01-8.898125000000e+02-7.189585189367e-10-2.371135903054e+00
    -2.674385905266e-05 7.502786430996e-02-1.937150955200e-06 6.493226732254e+03
     4.932000000000e+05-7.793307304382e-06-1.721963645692e+00-3.159046173096e-06
     6.503994232666e-01 1.519062500000e+02-1.564652751119e+00 6.239545616406e-10
     2.473674467042e-09 2.000000000000e+00 2.411000000000e+03 1.000000000000e+00
     2.800000000000e+00 1.600000000000e+01-3.725290298462e-09 8.650000000000e+02
     4.896180000000e+05 0.000000000000e+00                                      
J04 2026 03 27 18 00 00-3.818422555923e-08 1.136868377216e-13 0.000000000000e+00
     1.010000000000e+02-6.763125000000e+02-6.521700226420e-10-2.108769477479e+00
    -2.128258347511e-05 7.504137174692e-02-2.028420567513e-06 6.493184833527e+03
     4.968000000000e+05-3.322958946228e-06-1.721962011612e+00-6.543472409248e-06
     6.504043796331e-01 1.688125000000e+02-1.564479079336e+00 1.061472786031e-09
     1.736858061396e-09 2.000000000000e+00 2.411000000000e+03 1.000000000000e+00
     2.800000000000e+00 1.600000000000e+01-3.725290298462e-09 8.690000000000e+02
     4.932180000000e+05 0.000000000000e+00                                      
J04 2026 03 27 19 00 00-3.771856427193e-08 1.136868377216e-13 0.000000000000e+00
     1.050000000000e+02-5.087187500000e+02 6.482412875659e-10-1.846383884751e+00
    -1.681223511696e-05 7.504880789202e-02-9.573996067047e-07 6.493153499603e+03
     5.004000000000e+05 1.318752765656e-06-1.721950773476e+00-4.138797521591e-06
     6.503988746723e-01 1.207187500000e+02-1.564328072543e+00-9.214669542259e-11
     6.968147394166e-10 2.000000000000e+00 2.411000000000e+03 1.000000000000e+00
     2.800000000000e+00 1.600000000000e+01-3.725290298462e-09 8.730000000000e+02
     4.968180000000e+05 0.000000000000e+00                                      
J04 2026 03 27 20 00 00-3.725290298462e-08 0.000000000000e+00 0.000000000000e+00
     1.090000000000e+02-4.418125000000e+02 1.962224591673e-09-1.583913047788e+00
    -1.465715467930e-05 7.505060150288e-02 4.470348358154e-08 6.493139055252e+03
     5.040000000000e+05 1.950189471245e-06-1.721947993931e+00-7.301568984985e-07
     6.503898543195e-01 7.471875000000e+01-1.564253071659e+00-1.523277736346e-09
     1.239337337660e-10 2.000000000000e+00 2.411000000000e+03 1.000000000000e+00
     2.800000000000e+00 1.600000000000e+01-3.725290298462e-09 8.770000000000e+02
     5.004180000000e+05 0.000000000000e+00                                      
J04 2026 03 27 21 00 00-3.771856427193e-08 0.000000000000e+00 0.000000000000e+00
     1.130000000000e+02-4.266562500000e+02 2.935479417358e-09-1.321337979373e+00
    -1.375190913677e-05 7.505035435315e-02-3.539025783539e-07 6.493142536163e+03
     5.076000000000e+05 4.060566425323e-07-1.721955346558e+00 6.146728992462e-07
     6.503810534043e-01 9.187500000000e+01-1.564274229843e+00-2.808331263984e-09
    -1.464346710204e-11 2.000000000000e+00 2.411000000000e+03 1.000000000000e+00
     2.800000000000e+00 1.600000000000e+01-3.725290298462e-09 8.810000000000e+02
     5.040180000000e+05 0.000000000000e+00                                      
J04 2026 03 27 22 00 00-3.725290298462e-08 0.000000000000e+00 0.000000000000e+00
     1.170000000000e+02-3.950312500000e+02 3.180132465282e-09-1.058692512415e+00
    -1.272186636925e-05 7.505180814769e-02-1.832842826843e-06 6.493159585953e+03
     5.112000000000e+05-2.924352884293e-07-1.721968252421e+00 3.483146429062e-07
     6.503774707179e-01 1.563125000000e+02-1.564362849032e+00-3.361568594254e-09
     5.178787145843e-11 2.000000000000e+00 2.411000000000e+03 1.000000000000e+00
     2.800000000000e+00 1.600000000000e+01-3.725290298462e-09 8.850000000000e+02
     5.076180000000e+05 0.000000000000e+00                                      
J04 2026 03 27 23 00 00-3.725290298462e-08 0.000000000000e+00 0.000000000000e+00
     1.210000000000e+02-3.302187500000e+02 2.931907840016e-09-7.960409626442e-01
    -1.108832657337e-05 7.505587977357e-02-3.013759851456e-06 6.493181449890e+03
     5.148000000000e+05-3.837049007416e-07-1.721980023060e+00 4.097819328308e-07
     6.503778730204e-01 2.055937500000e+02-1.564461053260e+00-3.325852820834e-09
     2.035799084918e-11 2.000000000000e+00 2.411000000000e+03 1.000000000000e+00
     2.800000000000e+00 1.600000000000e+01-3.725290298462e-09 8.890000000000e+02
     5.112180000000e+05 0.000000000000e+00                                      
J04 2026 03 28 00 00 00-3.678724169731e-08 0.000000000000e+00 0.000000000000e+00
     1.250000000000e+02-2.819375000000e+02 2.721184776840e-09-5.334404467701e-01
    -9.970739483833e-06 7.505960657727e-02-3.123655915260e-06 6.493195602417e+03
     5.184000000000e+05-8.195638656616e-07-1.721990558996e+00 3.129243850708e-07
     6.503784976864e-01 2.099375000000e+02-1.564511706798e+00-3.243706541969e-09
    -1.257195224370e-10 2.000000000000e+00 2.411000000000e+03 1.000000000000e+00
     2.800000000000e+00 1.600000000000e+01-3.725290298462e-09 8.930000000000e+02
     5.148180000000e+05 0.000000000000e+00                                      
J07 2026 03 27 00 00 00 -.465661287308e-08  .000000000000e+00  .000000000000e+00
      .290000000000e+02  .268656250000e+03  .000000000000e+00 -.701096268525e+00
      .899843871593e-05  .204242067412e-03  .348128378391e-05  .649335677147e+04
      .432000000000e+06  .331364572048e-05 -.202703835246e+00 -.160560011864e-05
      .124976213761e-02 -.109281250000e+03 -.307675281666e+01  .975754929824e-09
      .000000000000e+00  .000000000000e+00  .241100000000e+04  .100000000000e+01
      .280000000000e+01  .100000000000e+01 -.419095158577e-08  .797000000000e+03
      .431976000000e+06  .100000000000e+01                                      
J07 2026 03 27 01 00 00 -.512227416039e-08  .000000000000e+00  .000000000000e+00
      .330000000000e+02  .313156250000e+03  .000000000000e+00 -.452030341564e+00
      .104084610939e-04  .200020731427e-03  .439770519733e-05  .649334453392e+04
      .435600000000e+06  .319629907608e-05 -.203116274277e+00  .810250639915e-06
      .125281085889e-02 -.138187500000e+03 -.306288119190e+01  .105182952721e-08
      .000000000000e+00  .200000000000e+01  .241100000000e+04  .100000000000e+01
      .280000000000e+01  .100000000000e+01 -.419095158577e-08  .801000000000e+03
      .432006000000e+06  .100000000000e+01                                      
J07 2026 03 27 02 00 00 -.558793544769e-08  .000000000000e+00  .000000000000e+00
      .370000000000e+02  .341093750000e+03  .000000000000e+00 -.198715019404e+00
      .112950801849e-04  .194654217921e-03  .607781112194e-05  .649333073997e+04
      .439200000000e+06  .170804560184e-05 -.203146932651e+00  .216811895370e-05
      .125494086761e-02 -.191125000000e+03 -.305363883828e+01  .113754738341e-08
      .000000000000e+00  .200000000000e+01  .241100000000e+04  .100000000000e+01
      .280000000000e+01  .100000000000e+01 -.419095158577e-08  .805000000000e+03
      .435606000000e+06  .100000000000e+01                                      
J07 2026 03 27 03 00 00 -.558793544769e-08  .000000000000e+00  .000000000000e+00
      .410000000000e+02  .340375000000e+03  .000000000000e+00  .620982582303e-01
      .112708657980e-04  .190452090465e-03  .748410820961e-05  .649332051277e+04
      .442800000000e+06  .242143869400e-06 -.203142428326e+00  .211037695408e-05
      .125636574982e-02 -.235687500000e+03 -.305192784002e+01  .120219293330e-08
      .000000000000e+00  .200000000000e+01  .241100000000e+04  .100000000000e+01
      .280000000000e+01  .100000000000e+01 -.419095158577e-08  .809000000000e+03
      .439206000000e+06  .100000000000e+01                                      
J07 2026 03 27 04 00 00 -.465661287308e-08  .000000000000e+00  .000000000000e+00
      .450000000000e+02  .336843750000e+03  .000000000000e+00  .325130848422e+00
      .111646950245e-04  .189570011571e-03  .775232911110e-05  .649331839180e+04
      .446400000000e+06 -.301748514175e-06 -.203119173780e+00  .154972076416e-05
      .125719961312e-02 -.244562500000e+03 -.305245397119e+01  .121755071587e-08
      .000000000000e+00  .200000000000e+01  .241100000000e+04  .100000000000e+01
      .280000000000e+01  .100000000000e+01 -.419095158577e-08  .813000000000e+03
      .442806000000e+06  .100000000000e+01                                      
J07 2026 03 27 05 00 00 -.419095158577e-08  .000000000000e+00  .000000000000e+00
      .490000000000e+02  .366875000000e+03  .000000000000e+00  .580151047997e+00
      .121239572763e-04  .192347797565e-03  .730901956558e-05  .649332600594e+04
      .450000000000e+06 -.348314642906e-06 -.203136446454e+00  .157207250595e-05
      .125715426266e-02 -.230781250000e+03 -.304492756488e+01  .117183452590e-08
      .000000000000e+00  .200000000000e+01  .241100000000e+04  .100000000000e+01
      .280000000000e+01  .100000000000e+01 -.419095158577e-08  .817000000000e+03
      .446406000000e+06  .100000000000e+01                                      
J07 2026 03 27 06 00 00 -.372529029846e-08  .000000000000e+00  .000000000000e+00
      .530000000000e+02  .431031250000e+03  .000000000000e+00  .822272099071e+00
      .141430646181e-04  .196990557015e-03  .744126737118e-05  .649334087753e+04
      .453600000000e+06 -.107102096081e-05 -.203694709159e+00  .213272869587e-05
      .125588444977e-02 -.235031250000e+03 -.302396268338e+01  .107718772634e-08
      .000000000000e+00  .200000000000e+01  .241100000000e+04  .100000000000e+01
      .280000000000e+01  .100000000000e+01 -.419095158577e-08  .821000000000e+03
      .450006000000e+06  .100000000000e+01                                      
J07 2026 03 27 07 00 00 -.372529029846e-08  .000000000000e+00  .000000000000e+00
      .570000000000e+02  .485468750000e+03  .000000000000e+00  .105943050046e+01
      .158585608006e-04  .200673704967e-03  .862032175064e-05  .649335607719e+04
      .457200000000e+06 -.290386378765e-05 -.205662930847e+00  .193342566490e-05
      .125370323892e-02 -.272500000000e+03 -.299662741978e+01  .980040822634e-09
      .000000000000e+00  .200000000000e+01  .241100000000e+04  .100000000000e+01
      .280000000000e+01  .100000000000e+01 -.419095158577e-08  .825000000000e+03
      .453606000000e+06  .100000000000e+01                                      
J07 2026 03 27 08 00 00 -.372529029846e-08  .000000000000e+00  .000000000000e+00
      .610000000000e+02  .498687500000e+03  .000000000000e+00  .130802469193e+01
      .162888318300e-04  .201872782782e-03  .966340303421e-05  .649336348343e+04
      .460800000000e+06 -.461935997009e-05 -.209605271244e+00 -.212341547012e-06
      .125194920014e-02 -.304593750000e+03 -.297875550844e+01  .937539052265e-09
      .000000000000e+00  .200000000000e+01  .241100000000e+04  .100000000000e+01
      .280000000000e+01  .100000000000e+01 -.419095158577e-08  .829000000000e+03
      .457206000000e+06  .100000000000e+01                                      
J07 2026 03 27 09 00 00 -.419095158577e-08  .000000000000e+00  .000000000000e+00
      .650000000000e+02  .497781250000e+03  .000000000000e+00  .157788407858e+01
      .162553042173e-04  .201741931960e-03  .942498445511e-05  .649335985374e+04
      .464400000000e+06 -.419653952122e-05 -.215059751062e+00 -.372529029846e-05
      .125234857677e-02 -.294343750000e+03 -.298063690155e+01  .971826194748e-09
      .000000000000e+00  .200000000000e+01  .241100000000e+04  .100000000000e+01
      .280000000000e+01  .100000000000e+01 -.419095158577e-08  .833000000000e+03
      .460806000000e+06  .100000000000e+01                                      
J07 2026 03 27 10 00 00 -.465661287308e-08  .000000000000e+00  .000000000000e+00
      .690000000000e+02  .520468750000e+03  .000000000000e+00  .186145262708e+01
      .169035047293e-04  .202373368666e-03  .852718949318e-05  .649334939384e+04
      .468000000000e+06 -.933185219765e-06 -.220548710396e+00 -.622682273388e-05
      .125573815796e-02 -.262437500000e+03 -.299619182860e+01  .105540110455e-08
      .000000000000e+00  .200000000000e+01  .241100000000e+04  .100000000000e+01
      .280000000000e+01  .100000000000e+01 -.419095158577e-08  .837000000000e+03
      .464406000000e+06  .100000000000e+01                                      
J07 2026 03 27 11 00 00 -.465661287308e-08  .000000000000e+00  .000000000000e+00
      .730000000000e+02  .546281250000e+03  .000000000000e+00  .213760601980e+01
      .176392495632e-04  .203527044505e-03  .823289155960e-05  .649334210014e+04
      .471600000000e+06  .341981649399e-05 -.224556235497e+00 -.560656189919e-05
      .126133674545e-02 -.251562500000e+03 -.300581156828e+01  .111433213069e-08
      .000000000000e+00  .200000000000e+01  .241100000000e+04  .100000000000e+01
      .280000000000e+01  .100000000000e+01 -.419095158577e-08  .841000000000e+03
      .468006000000e+06  .100000000000e+01                                      
J07 2026 03 27 12 00 00 -.558793544769e-08  .000000000000e+00  .000000000000e+00
      .770000000000e+02  .531625000000e+03  .000000000000e+00  .239557452742e+01
      .171605497599e-04  .202577444725e-03  .817887485027e-05  .649334529495e+04
      .475200000000e+06  .602938234806e-05 -.226559406297e+00 -.208802521229e-05
      .126737274545e-02 -.249531250000e+03 -.299925040556e+01  .109575992851e-08
      .000000000000e+00  .200000000000e+01  .241100000000e+04  .100000000000e+01
      .280000000000e+01  .100000000000e+01 -.419095158577e-08  .845000000000e+03
      .471606000000e+06  .100000000000e+01                                      
J07 2026 03 27 13 00 00 -.605359673500e-08  .000000000000e+00  .000000000000e+00
      .810000000000e+02  .490312500000e+03  .000000000000e+00  .264419863264e+01
      .158976763487e-04  .198566587642e-03  .724382698536e-05  .649335716057e+04
      .478800000000e+06  .542029738426e-05 -.227120220332e+00  .195391476154e-05
      .127240810948e-02 -.218687500000e+03 -.298478838364e+01  .101289933418e-08
      .000000000000e+00  .200000000000e+01  .241100000000e+04  .100000000000e+01
      .280000000000e+01  .100000000000e+01 -.419095158577e-08  .849000000000e+03
      .475206000000e+06  .100000000000e+01                                      
J07 2026 03 27 14 00 00 -.698491930962e-08  .000000000000e+00  .000000000000e+00
      .850000000000e+02  .469718750000e+03  .000000000000e+00  .289807220434e+01
      .152736902237e-04  .194301945157e-03  .591017305851e-05  .649336831474e+04
      .482400000000e+06  .255927443504e-05 -.227152499619e+00  .406987965107e-05
      .127609320012e-02 -.174687500000e+03 -.297610620183e+01  .933967474923e-09
      .000000000000e+00  .200000000000e+01  .241100000000e+04  .100000000000e+01
      .280000000000e+01  .100000000000e+01 -.419095158577e-08  .853000000000e+03
      .478806000000e+06  .100000000000e+01                                      
J07 2026 03 27 15 00 00 -.745058059692e-08  .000000000000e+00  .000000000000e+00
      .890000000000e+02  .474750000000e+03  .000000000000e+00 -.312043658918e+01
      .153854489326e-04  .195380300283e-03  .616908073425e-05  .649336561775e+04
      .486000000000e+06 -.247731804848e-06 -.227151970043e+00  .366009771824e-05
      .127885957821e-02 -.187281250000e+03 -.297825986155e+01  .969683248342e-09
      .000000000000e+00  .200000000000e+01  .241100000000e+04  .100000000000e+01
      .280000000000e+01  .100000000000e+01 -.419095158577e-08  .857000000000e+03
      .482406000000e+06  .100000000000e+01                                      
J07 2026 03 27 16 00 00 -.884756445885e-08  .000000000000e+00  .000000000000e+00
      .930000000000e+02  .465031250000e+03  .000000000000e+00 -.286217378926e+01
      .149887055159e-04  .194038613699e-03  .581890344620e-05  .649336853981e+04
      .489600000000e+06 -.143237411976e-05 -.227076787757e+00  .209733843803e-05
      .128101738237e-02 -.164000000000e+03 -.297407650540e+01  .899323174706e-09
      .000000000000e+00  .200000000000e+01  .241100000000e+04  .100000000000e+01
      .280000000000e+01  .100000000000e+01 -.419095158577e-08  .861000000000e+03
      .486006000000e+06  .100000000000e+01                                      
J07 2026 03 27 17 00 00 -.931322574615e-08  .000000000000e+00  .000000000000e+00
      .970000000000e+02  .379531250000e+03  .000000000000e+00 -.261467232591e+01
      .125486403704e-04  .203206320293e-03  .736676156521e-05  .649334523582e+04
      .493200000000e+06 -.130012631416e-05 -.226827450925e+00  .102818012238e-05
      .128242178373e-02 -.221500000000e+03 -.295930173061e+01  .109575992851e-08
      .000000000000e+00  .200000000000e+01  .241100000000e+04  .100000000000e+01
      .280000000000e+01  .100000000000e+01 -.419095158577e-08  .865000000000e+03
      .489606000000e+06  .100000000000e+01                                      
J07 2026 03 27 18 00 00 -.838190317154e-08  .000000000000e+00  .000000000000e+00
      .101000000000e+03  .339562500000e+03  .000000000000e+00 -.236359782413e+01
      .112447887659e-04  .206217169762e-03  .721961259842e-05  .649333603096e+04
      .496800000000e+06 -.116042792797e-05 -.226719598753e+00  .873580574989e-06
      .128270705275e-02 -.216687500000e+03 -.294795743435e+01  .114826211544e-08
      .000000000000e+00  .200000000000e+01  .241100000000e+04  .100000000000e+01
      .280000000000e+01  .100000000000e+01 -.419095158577e-08  .869000000000e+03
      .493206000000e+06  .100000000000e+01                                      
J07 2026 03 27 19 00 00 -.698491930962e-08  .000000000000e+00  .000000000000e+00
      .105000000000e+03  .326781250000e+03  .000000000000e+00 -.210596819417e+01
      .108592212200e-04  .207104370929e-03  .702962279320e-05  .649333283615e+04
      .500400000000e+06 -.171549618244e-05 -.227355491206e+00  .739470124245e-06
      .128206775755e-02 -.210343750000e+03 -.294242347712e+01  .117183452590e-08
      .000000000000e+00  .200000000000e+01  .241100000000e+04  .100000000000e+01
      .280000000000e+01  .100000000000e+01 -.419095158577e-08  .873000000000e+03
      .496806000000e+06  .100000000000e+01                                      
J07 2026 03 27 20 00 00 -.558793544769e-08  .000000000000e+00  .000000000000e+00
      .109000000000e+03  .334968750000e+03  .000000000000e+00 -.183218227103e+01
      .111237168312e-04  .206200173125e-03  .786408782005e-05  .649333894730e+04
      .504000000000e+06 -.238604843616e-05 -.229105439664e+00 -.275671482086e-06
      .128138457481e-02 -.236437500000e+03 -.295193195163e+01  .113504727928e-08
      .000000000000e+00  .200000000000e+01  .241100000000e+04  .100000000000e+01
      .280000000000e+01  .100000000000e+01 -.419095158577e-08  .877000000000e+03
      .500406000000e+06  .100000000000e+01                                      
J07 2026 03 27 21 00 00 -.558793544769e-08  .000000000000e+00  .000000000000e+00
      .113000000000e+03  .326093750000e+03  .000000000000e+00 -.154490190583e+01
      .108424574137e-04  .205641030334e-03  .962615013123e-05  .649335143471e+04
      .507600000000e+06 -.205077230930e-05 -.231693409040e+00 -.195391476154e-05
      .128171226846e-02 -.291843750000e+03 -.297409820048e+01  .105790120869e-08
      .000000000000e+00  .200000000000e+01  .241100000000e+04  .100000000000e+01
      .280000000000e+01  .100000000000e+01 -.419095158577e-08  .881000000000e+03
      .504006000000e+06  .100000000000e+01                                      
J07 2026 03 27 22 00 00 -.512227416039e-08  .000000000000e+00  .000000000000e+00
      .117000000000e+03  .289000000000e+03  .000000000000e+00 -.125609003511e+01
      .965967774391e-05  .206583761610e-03  .111535191536e-04  .649336481857e+04
      .511200000000e+06 -.344589352608e-06 -.234328466824e+00 -.308454036713e-05
      .128352189812e-02 -.339531250000e+03 -.299775075800e+01  .976469245292e-09
      .000000000000e+00  .200000000000e+01  .241100000000e+04  .100000000000e+01
      .280000000000e+01  .100000000000e+01 -.419095158577e-08  .885000000000e+03
      .507606000000e+06  .100000000000e+01                                      
J07 2026 03 27 23 00 00 -.512227416039e-08  .000000000000e+00  .000000000000e+00
      .121000000000e+03  .251000000000e+03  .000000000000e+00 -.977149170482e+00
      .844150781631e-05  .208209850825e-03  .116974115372e-04  .649337399673e+04
      .514800000000e+06  .183098018169e-05 -.236244481354e+00 -.263564288616e-05
      .128641408717e-02 -.356406250000e+03 -.301225302626e+01  .921109796492e-09
      .000000000000e+00  .200000000000e+01  .241100000000e+04  .100000000000e+01
      .280000000000e+01  .100000000000e+01 -.419095158577e-08  .889000000000e+03
      .511206000000e+06  .100000000000e+01                                      
J07 2026 03 28 00 00 00 -.558793544769e-08  .000000000000e+00  .000000000000e+00
      .125000000000e+03  .242187500000e+03  .000000000000e+00 -.711712047675e+00
      .816024839878e-05  .208669691347e-03  .117179006338e-04  .649337584305e+04
      .518400000000e+06  .306032598019e-05 -.237192225517e+00 -.754371285439e-06
      .128951108474e-02 -.357062500000e+03 -.301422064961e+01  .910037906732e-09
      .000000000000e+00  .200000000000e+01  .241100000000e+04  .100000000000e+01
      .280000000000e+01  .100000000000e+01 -.419095158577e-08  .893000000000e+03
      .514806000000e+06  .100000000000e+01                                      
J08 2026 03 27 00 00 00 1.676380634308e-08 0.000000000000e+00 0.000000000000e+00
     2.900000000000e+01-2.711562500000e+02 0.000000000000e+00-1.452399392527e+00
    -8.964911103249e-06 2.263619098812e-04 3.939494490623e-06 6.493451539993e+03
     4.320000000000e+05 8.158385753632e-07-1.382048428664e+00 3.648921847343e-06
     6.740555971212e-04-1.144687500000e+02-1.782912119069e+00 9.593256740507e-10
     0.000000000000e+00 2.000000000000e+00 2.411000000000e+03 1.000000000000e+00
     2.800000000000e+00 1.600000000000e+01 1.396983861923e-09 7.970000000000e+02
     4.284180000000e+05 0.000000000000e+00                                      
J08 2026 03 27 01 00 00 1.676380634308e-08 0.000000000000e+00 0.000000000000e+00
     3.300000000000e+01-2.704687500000e+02 0.000000000000e+00-1.178691223483e+00
    -8.940696716309e-06 2.269569085911e-04 3.064051270485e-06 6.493457883835e+03
     4.356000000000e+05-1.819804310799e-06-1.382050241220e+00 3.350898623466e-06
     6.766391104492e-04-8.693750000000e+01-1.794106319935e+00 9.200383232891e-10
     0.000000000000e+00 2.000000000000e+00 2.411000000000e+03 1.000000000000e+00
     2.800000000000e+00 1.600000000000e+01 1.396983861923e-09 8.010000000000e+02
     4.320180000000e+05 0.000000000000e+00                                      
J08 2026 03 27 02 00 00 1.676380634308e-08 0.000000000000e+00 0.000000000000e+00
     3.700000000000e+01-2.764687500000e+02 0.000000000000e+00-9.189163792299e-01
    -9.128823876381e-06 2.265017246827e-04 3.250315785408e-06 6.493456027985e+03
     4.392000000000e+05-3.471970558167e-06-1.381878848664e+00 1.281499862671e-06
     6.795371511642e-04-9.265625000000e+01-1.791540756612e+00 9.314673707834e-10
     0.000000000000e+00 2.000000000000e+00 2.411000000000e+03 1.000000000000e+00
     2.800000000000e+00 1.600000000000e+01 1.396983861923e-09 8.050000000000e+02
     4.356180000000e+05 0.000000000000e+00                                      
J08 2026 03 27 03 00 00 1.722946763039e-08 0.000000000000e+00 0.000000000000e+00
     4.100000000000e+01-3.124062500000e+02 0.000000000000e+00-6.680195386094e-01
    -1.028552651405e-05 2.238331362605e-04 3.783032298088e-06 6.493446950912e+03
     4.428000000000e+05-3.201887011528e-06-1.380832152722e+00-1.179054379463e-06
     6.827702001194e-04-1.090937500000e+02-1.780971685511e+00 9.850410309128e-10
     0.000000000000e+00 2.000000000000e+00 2.411000000000e+03 1.000000000000e+00
     2.800000000000e+00 1.600000000000e+01 1.396983861923e-09 8.090000000000e+02
     4.392180000000e+05 0.000000000000e+00                                      
J08 2026 03 27 04 00 00 1.816079020500e-08 0.000000000000e+00 0.000000000000e+00
     4.500000000000e+01-3.711875000000e+02 0.000000000000e+00-4.185629686334e-01
    -1.215562224388e-05 2.189941005781e-04 3.680586814880e-06 6.493433240891e+03
     4.464000000000e+05-1.531094312668e-06-1.378409733007e+00-2.533197402954e-06
     6.857882001169e-04-1.057812500000e+02-1.770336386645e+00 1.069330256183e-09
     0.000000000000e+00 2.000000000000e+00 2.411000000000e+03 1.000000000000e+00
     2.800000000000e+00 1.600000000000e+01 1.396983861923e-09 8.130000000000e+02
     4.428180000000e+05 0.000000000000e+00                                      
J08 2026 03 27 05 00 00 1.816079020500e-08 0.000000000000e+00 0.000000000000e+00
     4.900000000000e+01-4.174687500000e+02 0.000000000000e+00-1.632236700525e-01
    -1.362711191177e-05 2.138821873814e-04 2.777203917503e-06 6.493420230865e+03
     4.500000000000e+05 1.471489667892e-07-1.375066638965e+00-2.374872565269e-06
     6.878245820833e-04-7.721875000000e+01-1.766502504068e+00 1.149333588643e-09
     0.000000000000e+00 2.000000000000e+00 2.411000000000e+03 1.000000000000e+00
     2.800000000000e+00 1.600000000000e+01 1.396983861923e-09 8.170000000000e+02
     4.464180000000e+05 0.000000000000e+00                                      
J08 2026 03 27 06 00 00 1.816079020500e-08 0.000000000000e+00 0.000000000000e+00
     5.300000000000e+01-4.315625000000e+02 0.000000000000e+00 9.854080423146e-02
    -1.407042145729e-05 2.110172063112e-04 2.022832632065e-06 6.493413232803e+03
     4.536000000000e+05 8.624047040939e-07-1.372156827611e+00-1.545995473862e-06
     6.885721332218e-04-5.318750000000e+01-1.768659019405e+00 1.193621147683e-09
     0.000000000000e+00 2.000000000000e+00 2.411000000000e+03 1.000000000000e+00
     2.800000000000e+00 1.600000000000e+01 1.396983861923e-09 8.210000000000e+02
     4.500180000000e+05 0.000000000000e+00                                      
J08 2026 03 27 07 00 00 1.769512891769e-08 0.000000000000e+00 0.000000000000e+00
     5.700000000000e+01-4.336562500000e+02 0.000000000000e+00 3.596408767147e-01
    -1.413561403751e-05 2.119664568454e-04 2.382323145866e-06 6.493415649414e+03
     4.572000000000e+05 8.624047040939e-07-1.371057596818e+00-1.164153218269e-06
     6.885765219760e-04-6.453125000000e+01-1.768340207130e+00 1.178263365113e-09
     0.000000000000e+00 2.000000000000e+00 2.411000000000e+03 1.000000000000e+00
     2.800000000000e+00 1.600000000000e+01 1.396983861923e-09 8.250000000000e+02
     4.536180000000e+05 0.000000000000e+00                                      
J08 2026 03 27 08 00 00 1.769512891769e-08 0.000000000000e+00 0.000000000000e+00
     6.100000000000e+01-4.629062500000e+02 0.000000000000e+00 6.114850679732e-01
    -1.505389809608e-05 2.161666052416e-04 3.648921847343e-06 6.493427289963e+03
     4.608000000000e+05 1.240521669388e-06-1.372135704537e+00-1.410022377968e-06
     6.889758986117e-04-1.048750000000e+02-1.756589207940e+00 1.103974556400e-09
     0.000000000000e+00 2.000000000000e+00 2.411000000000e+03 1.000000000000e+00
     2.800000000000e+00 1.600000000000e+01 1.396983861923e-09 8.290000000000e+02
     4.572180000000e+05 0.000000000000e+00                                      
J08 2026 03 27 09 00 00 1.769512891769e-08 0.000000000000e+00 0.000000000000e+00
     6.500000000000e+01-5.257187500000e+02 0.000000000000e+00 8.539620411639e-01
    -1.702085137367e-05 2.210185630247e-04 4.516914486885e-06 6.493443241119e+03
     4.644000000000e+05 2.572312951088e-06-1.374387618224e+00-1.210719347000e-06
     6.906992161090e-04-1.325625000000e+02-1.734299267909e+00 1.000755971217e-09
     0.000000000000e+00 2.000000000000e+00 2.411000000000e+03 1.000000000000e+00
     2.800000000000e+00 1.600000000000e+01 1.396983861923e-09 8.330000000000e+02
     4.608180000000e+05 0.000000000000e+00                                      
J08 2026 03 27 10 00 00 1.769512891769e-08 0.000000000000e+00 0.000000000000e+00
     6.900000000000e+01-5.783125000000e+02 0.000000000000e+00 1.098241545940e+00
    -1.868605613708e-05 2.238289453089e-04 4.358589649200e-06 6.493455268860e+03
     4.680000000000e+05 3.924593329430e-06-1.376288428646e+00 5.755573511124e-07
     6.937874361744e-04-1.276562500000e+02-1.714165062015e+00 9.253956893021e-10
     0.000000000000e+00 2.000000000000e+00 2.411000000000e+03 1.000000000000e+00
     2.800000000000e+00 1.600000000000e+01 1.396983861923e-09 8.370000000000e+02
     4.644180000000e+05 0.000000000000e+00                                      
J08 2026 03 27 11 00 00 1.862645149231e-08 0.000000000000e+00 0.000000000000e+00
     7.300000000000e+01-5.870625000000e+02 0.000000000000e+00 1.357321410479e+00
    -1.898966729641e-05 2.242018235847e-04 4.190951585770e-06 6.493457363129e+03
     4.716000000000e+05 3.518536686897e-06-1.377081353652e+00 3.593042492867e-06
     6.975471356381e-04-1.231250000000e+02-1.709940156065e+00 9.175382191497e-10
     0.000000000000e+00 2.000000000000e+00 2.411000000000e+03 1.000000000000e+00
     2.800000000000e+00 1.600000000000e+01 1.396983861923e-09 8.410000000000e+02
     4.680180000000e+05 0.000000000000e+00                                      
J08 2026 03 27 12 00 00 1.862645149231e-08 0.000000000000e+00 0.000000000000e+00
     7.700000000000e+01-5.725000000000e+02 0.000000000000e+00 1.635232431983e+00
    -1.857057213783e-05 2.240004250780e-04 5.155801773071e-06 6.493448970795e+03
     4.752000000000e+05 5.923211574554e-07-1.377153528178e+00 5.839392542839e-06
     7.013829068419e-04-1.564687500000e+02-1.725266616280e+00 9.846838731786e-10
     0.000000000000e+00 2.000000000000e+00 2.411000000000e+03 1.000000000000e+00
     2.800000000000e+00 1.600000000000e+01 1.396983861923e-09 8.450000000000e+02
     4.716180000000e+05 0.000000000000e+00                                      
J08 2026 03 27 13 00 00 1.909211277962e-08 0.000000000000e+00 0.000000000000e+00
     8.100000000000e+01-5.760312500000e+02 0.000000000000e+00 1.917485906367e+00
    -1.867301762104e-05 2.249053213745e-04 6.549060344696e-06 6.493437973022e+03
     4.788000000000e+05-3.494322299957e-06-1.377156761227e+00 5.310401320457e-06
     7.053971540514e-04-2.040937500000e+02-1.745002909918e+00 1.069687413917e-09
     0.000000000000e+00 2.000000000000e+00 2.411000000000e+03 1.000000000000e+00
     2.800000000000e+00 1.600000000000e+01 1.396983861923e-09 8.490000000000e+02
     4.752180000000e+05 0.000000000000e+00                                      
J08 2026 03 27 14 00 00 1.909211277962e-08 0.000000000000e+00 0.000000000000e+00
     8.500000000000e+01-5.825937500000e+02 0.000000000000e+00 2.185386581757e+00
    -1.885555684566e-05 2.254530554637e-04 6.910413503647e-06 6.493434743881e+03
     4.824000000000e+05-6.113201379776e-06-1.376878996971e+00 1.925975084305e-06
     7.101033615124e-04-2.168750000000e+02-1.750666260791e+00 1.097188559450e-09
     0.000000000000e+00 2.000000000000e+00 2.411000000000e+03 1.000000000000e+00
     2.800000000000e+00 1.600000000000e+01 1.396983861923e-09 8.530000000000e+02
     4.788180000000e+05 0.000000000000e+00                                      
J08 2026 03 27 15 00 00 1.862645149231e-08 0.000000000000e+00 0.000000000000e+00
     8.900000000000e+01-5.493125000000e+02 0.000000000000e+00 2.437131119036e+00
    -1.784414052963e-05 2.231473335996e-04 6.556510925293e-06 6.493442861557e+03
     4.860000000000e+05-5.604699254036e-06-1.375161071790e+00-2.184882760048e-06
     7.155424909312e-04-2.051562500000e+02-1.741613988505e+00 1.040043321979e-09
     0.000000000000e+00 2.000000000000e+00 2.411000000000e+03 1.000000000000e+00
     2.800000000000e+00 1.600000000000e+01 1.396983861923e-09 8.570000000000e+02
     4.824180000000e+05 0.000000000000e+00                                      
J08 2026 03 27 16 00 00 1.816079020500e-08 0.000000000000e+00 0.000000000000e+00
     9.300000000000e+01-4.925937500000e+02 0.000000000000e+00 2.686607978223e+00
    -1.612491905689e-05 2.187930513173e-04 6.813555955887e-06 6.493455562592e+03
     4.896000000000e+05-2.687796950340e-06-1.371094702272e+00-4.496425390244e-06
     7.207972926719e-04-2.132500000000e+02-1.732644141412e+00 9.496824152274e-10
     0.000000000000e+00 2.000000000000e+00 2.411000000000e+03 1.000000000000e+00
     2.800000000000e+00 1.600000000000e+01 1.396983861923e-09 8.610000000000e+02
     4.860180000000e+05 0.000000000000e+00                                      
J08 2026 03 27 17 00 00 1.816079020500e-08 0.000000000000e+00 0.000000000000e+00
     9.700000000000e+01-4.910625000000e+02 0.000000000000e+00 2.948378266144e+00
    -1.590698957443e-05 2.194882836193e-04 6.856396794319e-06 6.493454099655e+03
     4.932000000000e+05 3.967434167862e-07-1.365178696670e+00-4.177913069725e-06
     7.245584550537e-04-2.089062500000e+02-1.737818631876e+00 9.928985010651e-10
     0.000000000000e+00 2.000000000000e+00 2.411000000000e+03 1.000000000000e+00
     2.800000000000e+00 1.600000000000e+01 1.396983861923e-09 8.650000000000e+02
     4.896180000000e+05 0.000000000000e+00                                      
J08 2026 03 27 18 00 00 1.769512891769e-08 0.000000000000e+00 0.000000000000e+00
     1.010000000000e+02-4.509375000000e+02 0.000000000000e+00-3.073959959754e+00
    -1.497194170952e-05 2.109146444127e-04 8.910894393921e-06 6.493474962234e+03
     4.968000000000e+05 1.909211277962e-06-1.359228253975e+00-2.391636371613e-06
     7.261530357601e-04-2.975000000000e+02-1.742105076938e+00 7.439595603304e-10
     0.000000000000e+00 2.000000000000e+00 2.411000000000e+03 1.000000000000e+00
     2.800000000000e+00 1.600000000000e+01 1.396983861923e-09 8.690000000000e+02
     4.932180000000e+05 0.000000000000e+00                                      
J08 2026 03 27 19 00 00 1.816079020500e-08 0.000000000000e+00 0.000000000000e+00
     1.050000000000e+02-4.380312500000e+02 0.000000000000e+00-2.825864990540e+00
    -1.462362706661e-05 2.265006769449e-04 4.613772034645e-06 6.493436321259e+03
     5.004000000000e+05 1.814216375351e-06-1.355106710502e+00-8.959323167801e-07
     7.260740381838e-04-1.331875000000e+02-1.731809681236e+00 1.115046446160e-09
     0.000000000000e+00 2.000000000000e+00 2.411000000000e+03 1.000000000000e+00
     2.800000000000e+00 1.600000000000e+01 1.396983861923e-09 8.730000000000e+02
     4.968180000000e+05 0.000000000000e+00                                      
J08 2026 03 27 20 00 00 1.862645149231e-08 0.000000000000e+00 0.000000000000e+00
     1.090000000000e+02-4.257187500000e+02 0.000000000000e+00-2.566919481860e+00
    -1.409277319908e-05 2.277119783685e-04 4.041939973831e-06 6.493432813644e+03
     5.040000000000e+05 1.344829797745e-06-1.353495661727e+00-4.358589649200e-07
     7.255883493815e-04-1.241875000000e+02-1.729851278655e+00 1.090759720235e-09
     0.000000000000e+00 2.000000000000e+00 2.411000000000e+03 1.000000000000e+00
     2.800000000000e+00 1.600000000000e+01 1.396983861923e-09 8.770000000000e+02
     5.004180000000e+05 0.000000000000e+00                                      
J08 2026 03 27 21 00 00 1.909211277962e-08 0.000000000000e+00 0.000000000000e+00
     1.130000000000e+02-3.944687500000e+02 0.000000000000e+00-2.313753912772e+00
    -1.312047243118e-05 2.303785877302e-04 3.477558493614e-06 6.493424486160e+03
     5.076000000000e+05 1.491978764534e-06-1.353702673413e+00-3.855675458908e-07
     7.257946208307e-04-1.059062500000e+02-1.720293664725e+00 1.146119169035e-09
     0.000000000000e+00 2.000000000000e+00 2.411000000000e+03 1.000000000000e+00
     2.800000000000e+00 1.600000000000e+01 1.396983861923e-09 8.810000000000e+02
     5.040180000000e+05 0.000000000000e+00                                      
J08 2026 03 27 22 00 00 1.909211277962e-08 0.000000000000e+00 0.000000000000e+00
     1.170000000000e+02-3.994062500000e+02 0.000000000000e+00-2.049388392087e+00
    -1.328624784946e-05 2.301785862073e-04 3.401190042496e-06 6.493425601959e+03
     5.112000000000e+05 2.017244696617e-06-1.354401115854e+00 2.756714820862e-07
     7.269634923760e-04-1.035000000000e+02-1.721444047911e+00 1.140047487554e-09
     0.000000000000e+00 2.000000000000e+00 2.411000000000e+03 1.000000000000e+00
     2.800000000000e+00 1.600000000000e+01 1.396983861923e-09 8.850000000000e+02
     5.076180000000e+05 0.000000000000e+00                                      
J08 2026 03 27 23 00 00 1.862645149231e-08 0.000000000000e+00 0.000000000000e+00
     1.210000000000e+02-4.335937500000e+02 0.000000000000e+00-1.770660548811e+00
    -1.436844468117e-05 2.289259573445e-04 2.648681402206e-06 6.493435142517e+03
     5.148000000000e+05 1.884996891022e-06-1.354770824511e+00 1.661479473114e-06
     7.286999761361e-04-7.968750000000e+01-1.737286278913e+00 1.080402145943e-09
     0.000000000000e+00 2.000000000000e+00 2.411000000000e+03 1.000000000000e+00
     2.800000000000e+00 1.600000000000e+01 1.396983861923e-09 8.890000000000e+02
     5.112180000000e+05 0.000000000000e+00                                      
J08 2026 03 28 00 00 00 1.816079020500e-08 0.000000000000e+00 0.000000000000e+00
     1.250000000000e+02-4.598437500000e+02 0.000000000000e+00-1.484027252766e+00
    -1.520477235317e-05 2.286240924150e-04 9.890645742416e-07 6.493448583603e+03
     5.184000000000e+05 5.140900611877e-07-1.354811051833e+00 2.810731530190e-06
     7.305725112775e-04-2.756250000000e+01-1.761365164409e+00 9.978987093439e-10
     0.000000000000e+00 2.000000000000e+00 2.411000000000e+03 1.000000000000e+00
     2.800000000000e+00 1.600000000000e+01 1.396983861923e-09 8.930000000000e+02
     5.148180000000e+05 0.000000000000e+00                                      
