     3.05           NAVIGATION DATA     J                   RINEX VERSION / TYPE
BNC 2.12.12         BKG Frankfurt       20200515 091836 UTC PGM / RUN BY / DATE
gfzrnx-2.2.0        FILE PROCESSING     20260422 011228 UTC COMMENT             
Concatenated RINEX files (6)                                COMMENT             
                                                            END OF HEADER
J01 2020 05 14 00 00 00-3.049662336710e-04 6.934897101020e-12 0.000000000000e+00
     1.570000000000e+02-6.406250000000e+00 2.796545058760e-09-7.597243358540e-01
    -1.313164830210e-06 7.574336510150e-02 1.755170524120e-05 6.493194557190e+03
     3.456000000000e+05 4.209578037260e-07-1.467977537560e+00-1.035630702970e-06
     7.252413335100e-01-3.471875000000e+02-1.563363576510e+00-3.741584423440e-09
     1.073973306730e-09 2.000000000000e+00 2.105000000000e+03 1.000000000000e+00
     2.800000000000e+00 0.000000000000e+00-5.587935447690e-09 9.250000000000e+02
     3.455760000000e+05 1.000000000000e+00                                      
J01 2020 05 14 01 00 00-3.049410879610e-04 6.934897101020e-12 0.000000000000e+00
     1.610000000000e+02-3.684375000000e+01 2.404028708870e-09-4.971963236630e-01
    -1.957640051840e-06 7.574138196650e-02 1.715123653410e-05 6.493188169480e+03
     3.492000000000e+05 4.470348358150e-08-1.467982062360e+00 2.514570951460e-07
     7.252476635560e-01-3.376875000000e+02-1.563346785130e+00-3.037983687070e-09
     7.114582065190e-10 2.000000000000e+00 2.105000000000e+03 1.000000000000e+00
     2.800000000000e+00 0.000000000000e+00-5.587935447690e-09 9.290000000000e+02
     3.456060000000e+05 1.000000000000e+00                                      
J01 2020 05 14 02 00 00-3.049164079130e-04 6.934897101020e-12 0.000000000000e+00
     1.650000000000e+02-9.921875000000e+01 2.482603410400e-09-2.346922155530e-01
    -3.565102815630e-06 7.573341426910e-02 1.569278538230e-05 6.493164443970e+03
     3.528000000000e+05-5.196779966350e-07-1.467988674750e+00 1.769512891770e-07
     7.252505557450e-01-2.845625000000e+02-1.563302046170e+00-2.834760936310e-09
     4.278749655670e-10 2.000000000000e+00 2.105000000000e+03 1.000000000000e+00
     2.800000000000e+00 0.000000000000e+00-5.587935447690e-09 9.330000000000e+02
     3.492060000000e+05 1.000000000000e+00                                      
J01 2020 05 14 03 00 00-3.048912622030e-04 6.934897101020e-12 0.000000000000e+00
     1.690000000000e+02-1.185312500000e+02 2.661182277500e-09 2.784839090010e-02
    -4.095956683160e-06 7.572535565120e-02 1.367926597600e-05 6.493142011640e+03
     3.564000000000e+05-5.215406417850e-07-1.467997774100e+00-1.117587089540e-08
     7.252520493850e-01-2.138437500000e+02-1.563288544900e+00-2.835475251780e-09
     3.335853237390e-10 2.000000000000e+00 2.105000000000e+03 1.000000000000e+00
     2.800000000000e+00 0.000000000000e+00-5.587935447690e-09 9.370000000000e+02
     3.528060000000e+05 1.000000000000e+00                                      
J01 2020 05 14 04 00 00-3.048661164940e-04 6.934897101020e-12 0.000000000000e+00
     1.730000000000e+02-1.146250000000e+02 2.715113095360e-09 2.904079465310e-01
    -3.973022103310e-06 7.572340918700e-02 1.315586268900e-05 6.493136613850e+03
     3.600000000000e+05-4.228204488750e-07-1.468006734480e+00-1.862645149230e-07
     7.252529139690e-01-1.966562500000e+02-1.563292058830e+00-2.860833450910e-09
     2.271523189490e-10 2.000000000000e+00 2.105000000000e+03 1.000000000000e+00
     2.800000000000e+00 0.000000000000e+00-5.587935447690e-09 9.410000000000e+02
     3.564060000000e+05 1.000000000000e+00                                      
J01 2020 05 14 05 00 00-3.048409707840e-04 6.934897101020e-12 0.000000000000e+00
     1.770000000000e+02-1.571562500000e+02 2.322953903210e-09 5.529279741150e-01
    -5.183741450310e-06 7.572825602260e-02 1.366250216960e-05 6.493152135850e+03
     3.636000000000e+05-1.197680830960e-06-1.468022169720e+00-6.370246410370e-07
     7.252556613290e-01-2.155937500000e+02-1.563251837360e+00-2.459030999940e-09
     5.718095324480e-10 2.000000000000e+00 2.105000000000e+03 1.000000000000e+00
     2.800000000000e+00 0.000000000000e+00-5.587935447690e-09 9.450000000000e+02
     3.600060000000e+05 1.000000000000e+00                                      
J01 2020 05 14 06 00 00-3.048162907360e-04 6.934897101020e-12 0.000000000000e+00
     1.810000000000e+02-2.360000000000e+02 1.459703659660e-09 8.153912082940e-01
    -7.405877113340e-06 7.573497842530e-02 1.307576894760e-05 6.493178201680e+03
     3.672000000000e+05-8.549541234970e-07-1.468038495890e+00-2.581626176830e-06
     7.252625589880e-01-1.995000000000e+02-1.563157318220e+00-1.496848064020e-09
     8.878941272110e-10 2.000000000000e+00 2.105000000000e+03 1.000000000000e+00
     2.800000000000e+00 0.000000000000e+00-5.587935447690e-09 9.490000000000e+02
     3.636060000000e+05 1.000000000000e+00                                      
J01 2020 05 14 07 00 00-3.047916106880e-04 6.934897101020e-12 0.000000000000e+00
     1.850000000000e+02-2.887500000000e+02 8.596786662100e-10 1.077844695050e+00
    -8.888542652130e-06 7.573881989810e-02 1.151487231250e-05 6.493199270250e+03
     3.708000000000e+05 1.458451151850e-06-1.468046518530e+00-2.771615982060e-06
     7.252687032440e-01-1.474687500000e+02-1.563062502110e+00-8.775365529200e-10
     7.236015694810e-10 2.000000000000e+00 2.105000000000e+03 1.000000000000e+00
     2.800000000000e+00 0.000000000000e+00-5.587935447690e-09 9.530000000000e+02
     3.672060000000e+05 1.000000000000e+00                                      
J01 2020 05 14 08 00 00-3.047669306400e-04 6.934897101020e-12 0.000000000000e+00
     1.890000000000e+02-2.998125000000e+02 9.161095882130e-10 1.340349992510e+00
    -9.333714842800e-06 7.573940721340e-02 1.063197851180e-05 6.493206508640e+03
     3.744000000000e+05 2.311542630200e-06-1.468049539460e+00-8.177012205120e-07
     7.252694829790e-01-1.194687500000e+02-1.563025044100e+00-1.013256491910e-09
     3.728726745010e-10 2.000000000000e+00 2.105000000000e+03 1.000000000000e+00
     2.800000000000e+00 0.000000000000e+00-5.587935447690e-09 9.570000000000e+02
     3.708060000000e+05 1.000000000000e+00                                      
J01 2020 05 14 09 00 00-3.047422505920e-04 6.934897101020e-12 0.000000000000e+00
     1.930000000000e+02-3.164375000000e+02 1.525063525020e-09 1.602928952290e+00
    -9.959563612940e-06 7.573947217320e-02 1.109205186370e-05 6.493199977870e+03
     3.780000000000e+05 1.065433025360e-06-1.468054988830e+00 1.750886440280e-07
     7.252653897350e-01-1.457187500000e+02-1.563059410970e+00-1.702570918910e-09
     1.928651764660e-10 2.000000000000e+00 2.105000000000e+03 1.000000000000e+00
     2.800000000000e+00 0.000000000000e+00-5.587935447690e-09 9.610000000000e+02
     3.744060000000e+05 1.000000000000e+00                                      
J01 2020 05 14 10 00 00-3.047171048820e-04 6.934897101020e-12 0.000000000000e+00
     1.970000000000e+02-3.803750000000e+02 2.356169572490e-09 1.865562012240e+00
    -1.167505979540e-05 7.574153086170e-02 1.212768256660e-05 6.493184238430e+03
     3.816000000000e+05 2.719461917880e-07-1.468066288410e+00-8.754432201390e-07
     7.252601641910e-01-1.962500000000e+02-1.563141956120e+00-2.533319808650e-09
     3.246563803840e-10 2.000000000000e+00 2.105000000000e+03 1.000000000000e+00
     2.800000000000e+00 0.000000000000e+00-5.587935447690e-09 9.650000000000e+02
     3.780060000000e+05 1.000000000000e+00                                      
J01 2020 05 14 11 00 00-3.046928904950e-04 6.934897101020e-12 0.000000000000e+00
     2.010000000000e+02-4.773750000000e+02 3.094057451340e-09 2.128203685850e+00
    -1.413561403750e-05 7.574582635430e-02 1.258030533790e-05 6.493166372300e+03
     3.852000000000e+05 1.639127731320e-06-1.468082272250e+00-2.130866050720e-06
     7.252567453520e-01-2.196250000000e+02-1.563227076010e+00-3.203347718000e-09
     7.500312418120e-10 2.000000000000e+00 2.105000000000e+03 1.000000000000e+00
     2.800000000000e+00 0.000000000000e+00-5.587935447690e-09 9.690000000000e+02
     3.816060000000e+05 1.000000000000e+00                                      
J01 2020 05 14 12 00 00-3.046672791240e-04 6.934897101020e-12 0.000000000000e+00
     2.050000000000e+02-5.451562500000e+02 3.081556930640e-09 2.390813040670e+00
    -1.590140163900e-05 7.575019926300e-02 1.248717308040e-05 6.493152919770e+03
     3.888000000000e+05 2.780929207800e-06-1.468092382480e+00-8.940696716310e-07
     7.252592747370e-01-2.116875000000e+02-1.563282184130e+00-3.016911380750e-09
     9.346817903910e-10 2.000000000000e+00 2.105000000000e+03 1.000000000000e+00
     2.800000000000e+00 0.000000000000e+00-5.587935447690e-09 9.730000000000e+02
     3.852060000000e+05 1.000000000000e+00                                      
J01 2020 05 14 13 00 00-3.046430647370e-04 6.934897101020e-12 0.000000000000e+00
     2.090000000000e+02-5.488750000000e+02 2.586536311050e-09 2.653375150560e+00
    -1.628510653970e-05 7.575105095750e-02 1.257099211220e-05 6.493150032040e+03
     3.924000000000e+05 1.506879925730e-06-1.468093906840e+00 3.445893526080e-07
     7.252635991230e-01-2.156875000000e+02-1.563295016850e+00-2.435101431750e-09
     6.203829842990e-10 2.000000000000e+00 2.105000000000e+03 1.000000000000e+00
     2.800000000000e+00 0.000000000000e+00-5.587935447690e-09 9.770000000000e+02
     3.888060000000e+05 1.000000000000e+00                                      
J01 2020 05 14 14 00 00-3.046179190280e-04 6.934897101020e-12 0.000000000000e+00
     2.130000000000e+02-5.147500000000e+02 2.177233547660e-09 2.915909858530e+00
    -1.570768654350e-05 7.574623380790e-02 1.367926597600e-05 6.493160331730e+03
     3.960000000000e+05 4.079192876820e-07-1.468096014900e+00 4.470348358150e-08
     7.252657583900e-01-2.754687500000e+02-1.563280412540e+00-2.172233339380e-09
     2.792973481410e-10 2.000000000000e+00 2.105000000000e+03 1.000000000000e+00
     2.800000000000e+00 0.000000000000e+00-5.587935447690e-09 9.810000000000e+02
     3.924060000000e+05 1.000000000000e+00                                      
J01 2020 05 14 15 00 00-3.045937046410e-04 6.934897101020e-12 0.000000000000e+00
     2.170000000000e+02-5.003437500000e+02 1.895436095380e-09-3.104733393910e+00
    -1.540780067440e-05 7.573755655900e-02 1.596845686440e-05 6.493178724290e+03
     3.996000000000e+05 3.483146429060e-07-1.468102524890e+00-1.750886440280e-07
     7.252666551590e-01-3.842187500000e+02-1.563272517170e+00-2.160089976420e-09
     1.978653847450e-10 2.000000000000e+00 2.105000000000e+03 1.000000000000e+00
     2.800000000000e+00 0.000000000000e+00-5.587935447690e-09 9.850000000000e+02
     3.960060000000e+05 1.000000000000e+00                                      
J01 2020 05 14 16 00 00-3.045694902540e-04 6.934897101020e-12 0.000000000000e+00
     2.210000000000e+02-5.247500000000e+02 1.760787629590e-09-2.842172448510e+00
    -1.602433621880e-05 7.573002844580e-02 1.811049878600e-05 6.493194982530e+03
     4.032000000000e+05 7.078051567080e-07-1.468108405820e+00-3.837049007420e-07
     7.252672286230e-01-4.738750000000e+02-1.563287314590e+00-2.233664469660e-09
     8.000333245990e-11 2.000000000000e+00 2.105000000000e+03 1.000000000000e+00
     2.800000000000e+00 0.000000000000e+00-5.587935447690e-09 9.890000000000e+02
     3.996060000000e+05 1.000000000000e+00                                      
J01 2020 05 14 17 00 00-3.045452758670e-04 6.934897101020e-12 0.000000000000e+00
     1.000000000000e+00-5.395937500000e+02 2.030441718900e-09-2.579615834810e+00
    -1.661852002140e-05 7.572748349050e-02 1.873262226580e-05 6.493201196670e+03
     4.068000000000e+05 2.002343535420e-06-1.468110366130e+00-2.142041921620e-07
     7.252661943400e-01-4.941250000000e+02-1.563302691320e+00-2.594036623470e-09
    -2.510818871400e-10 2.000000000000e+00 2.105000000000e+03 1.000000000000e+00
     2.800000000000e+00 0.000000000000e+00-5.587935447690e-09 7.690000000000e+02
     4.032060000000e+05 1.000000000000e+00                                      
J01 2020 05 14 18 00 00-3.045215271410e-04 6.934897101020e-12 0.000000000000e+00
     5.000000000000e+00-4.872812500000e+02 2.140446301040e-09-2.317103962990e+00
    -1.571886241440e-05 7.573125243650e-02 1.844763755800e-05 6.493191011430e+03
     4.104000000000e+05 1.147389411930e-06-1.468122217230e+00 5.289912223820e-07
     7.252674173390e-01-4.741875000000e+02-1.563264680320e+00-2.511176029130e-09
     1.750072897560e-11 2.000000000000e+00 2.105000000000e+03 1.000000000000e+00
     2.800000000000e+00 0.000000000000e+00-5.587935447690e-09 7.730000000000e+02
     4.068060000000e+05 1.000000000000e+00                                      
J01 2020 05 14 19 00 00-3.044963814320e-04 6.934897101020e-12 0.000000000000e+00
     9.000000000000e+00-3.817812500000e+02 1.275767426550e-09-2.054655109300e+00
    -1.357309520240e-05 7.573854271320e-02 1.935474574570e-05 6.493166318890e+03
     4.140000000000e+05-4.470348358150e-07-1.468144348250e+00-2.158805727960e-06
     7.252781098070e-01-4.899375000000e+02-1.563151062780e+00-1.043614899320e-09
     7.464596644700e-10 2.000000000000e+00 2.105000000000e+03 1.000000000000e+00
     2.800000000000e+00 0.000000000000e+00-5.587935447690e-09 7.770000000000e+02
     4.104060000000e+05 1.000000000000e+00                                      
J01 2020 05 14 20 00 00-3.044707700610e-04 6.934897101020e-12 0.000000000000e+00
     1.300000000000e+01-3.039062500000e+02 3.107272287510e-10-1.792212530060e+00
    -1.201219856740e-05 7.574353879320e-02 2.127513289450e-05 6.493143827440e+03
     4.176000000000e+05 2.216547727580e-06-1.468155617110e+00-4.278495907780e-06
     7.252907113840e-01-5.452812500000e+02-1.563035044600e+00 4.860916762410e-10
     8.400349908290e-10 2.000000000000e+00 2.105000000000e+03 1.000000000000e+00
     2.800000000000e+00 0.000000000000e+00-5.587935447690e-09 7.810000000000e+02
     4.140060000000e+05 1.000000000000e+00                                      
J01 2020 05 14 21 00 00-3.044451586900e-04 6.934897101020e-12 0.000000000000e+00
     1.700000000000e+01-2.868125000000e+02 4.464471677450e-10-1.529684779730e+00
    -1.139193773270e-05 7.574420259330e-02 2.186931669710e-05 6.493139917370e+03
     4.212000000000e+05 4.250556230550e-06-1.468153596820e+00-1.313164830210e-06
     7.252905767950e-01-5.573437500000e+02-1.563014639820e+00 3.003696544590e-10
     3.121558596870e-10 2.000000000000e+00 2.105000000000e+03 1.000000000000e+00
     2.800000000000e+00 0.000000000000e+00-5.587935447690e-09 7.850000000000e+02
     4.176060000000e+05 1.000000000000e+00                                      
J01 2020 05 14 22 00 00-3.044204786420e-04 6.934897101020e-12 0.000000000000e+00
     2.100000000000e+01-2.684062500000e+02 1.670783880570e-09-1.267043401630e+00
    -1.014210283760e-05 7.574395055420e-02 2.031028270720e-05 6.493156761170e+03
     4.248000000000e+05 1.408159732820e-06-1.468156793300e+00 1.138076186180e-06
     7.252763864900e-01-4.825625000000e+02-1.563108358740e+00-1.647925785580e-09
     5.321650239520e-11 2.000000000000e+00 2.105000000000e+03 1.000000000000e+00
     2.800000000000e+00 0.000000000000e+00-5.587935447690e-09 7.890000000000e+02
     4.212060000000e+05 1.000000000000e+00                                      
J01 2020 05 14 23 00 00-3.043962642550e-04 6.934897101020e-12 0.000000000000e+00
     2.500000000000e+01-1.987187500000e+02 2.821903257880e-09-1.004354178790e+00
    -7.679685950280e-06 7.574643171390e-02 1.827999949460e-05 6.493183216090e+03
     4.284000000000e+05-6.910413503650e-07-1.468174226890e+00-7.636845111850e-07
     7.252631763400e-01-3.869687500000e+02-1.563243544080e+00-3.629436894900e-09
     4.885917803800e-10 2.000000000000e+00 2.105000000000e+03 1.000000000000e+00
     2.800000000000e+00 0.000000000000e+00-5.587935447690e-09 7.930000000000e+02
     4.248060000000e+05 1.000000000000e+00                                      
J02 2020 05 14 00 00 00-7.916241884230e-08-1.136868377220e-13 0.000000000000e+00
     1.570000000000e+02 1.686562500000e+02 2.016869725010e-09-3.033988811460e+00
     4.611909389500e-06 7.594350841830e-02 1.243501901630e-05 6.492907260890e+03
     3.456000000000e+05 6.090849637990e-07 8.147563530500e-01 1.136213541030e-07
     7.516249776830e-01-2.585625000000e+02-1.587564094860e+00-2.308310436110e-09
    -6.693135938830e-10 2.000000000000e+00 2.105000000000e+03 1.000000000000e+00
     2.800000000000e+00 0.000000000000e+00 9.313225746150e-10 9.250000000000e+02
     3.455760000000e+05 1.000000000000e+00                                      
J02 2020 05 14 01 00 00-7.916241884230e-08-1.136868377220e-13 0.000000000000e+00
     1.610000000000e+02 1.995937500000e+02 2.133303146350e-09-2.771424293610e+00
     5.396082997320e-06 7.595082221090e-02 1.036562025550e-05 6.492891201020e+03
     3.492000000000e+05 1.732259988780e-07 8.147449305850e-01 5.532056093220e-07
     7.516231256290e-01-1.733125000000e+02-1.587542249110e+00-2.220806791230e-09
    -4.632335812520e-10 2.000000000000e+00 2.105000000000e+03 1.000000000000e+00
     2.800000000000e+00 0.000000000000e+00 9.313225746150e-10 9.290000000000e+02
     3.456060000000e+05 1.000000000000e+00                                      
J02 2020 05 14 02 00 00-7.962808012960e-08-1.136868377220e-13 0.000000000000e+00
     1.650000000000e+02 2.496250000000e+02 2.069729069670e-09-2.508870929050e+00
     6.671994924550e-06 7.595662365200e-02 9.160488843920e-06 6.492877233510e+03
     3.528000000000e+05-7.804483175280e-07 8.147325148000e-01 3.483146429060e-07
     7.516225975150e-01-1.209687500000e+02-1.587505727360e+00-1.944723862700e-09
    -2.178662178600e-10 2.000000000000e+00 2.105000000000e+03 1.000000000000e+00
     2.800000000000e+00 0.000000000000e+00 9.313225746150e-10 9.330000000000e+02
     3.492060000000e+05 1.000000000000e+00                                      
J02 2020 05 14 03 00 00-7.962808012960e-08-1.136868377220e-13 0.000000000000e+00
     1.690000000000e+02 2.699375000000e+02 2.112945155500e-09-2.246297753650e+00
     7.258728146550e-06 7.595820922870e-02 8.892267942430e-06 6.492873062130e+03
     3.564000000000e+05-2.719461917880e-07 8.147264275970e-01-1.769512891770e-07
     7.516207118140e-01-1.103125000000e+02-1.587492536220e+00-1.953295648320e-09
    -3.600149960700e-10 2.000000000000e+00 2.105000000000e+03 1.000000000000e+00
     2.800000000000e+00 0.000000000000e+00 9.313225746150e-10 9.370000000000e+02
     3.528060000000e+05 1.000000000000e+00                                      
J02 2020 05 14 04 00 00-8.055940270420e-08-1.136868377220e-13 0.000000000000e+00
     1.730000000000e+02 2.300937500000e+02 2.320096641340e-09-1.983671483100e+00
     6.470829248430e-06 7.595578988550e-02 8.534640073780e-06 6.492881994250e+03
     3.600000000000e+05 4.135072231290e-07 8.147229517040e-01 5.364418029790e-07
     7.516159222200e-01-1.013125000000e+02-1.587535706940e+00-2.371884512800e-09
    -6.103825677410e-10 2.000000000000e+00 2.105000000000e+03 1.000000000000e+00
     2.800000000000e+00 0.000000000000e+00 9.313225746150e-10 9.410000000000e+02
     3.564060000000e+05 1.000000000000e+00                                      
J02 2020 05 14 05 00 00-8.195638656620e-08-1.136868377220e-13 0.000000000000e+00
     1.770000000000e+02 1.715000000000e+02 2.422958068790e-09-1.721008012010e+00
     5.235895514490e-06 7.595293398480e-02 7.411465048790e-06 6.492897342680e+03
     3.636000000000e+05-9.313225746150e-09 8.147160438050e-01 1.091510057450e-06
     7.516109687790e-01-5.987500000000e+01-1.587616022600e+00-2.747257291440e-09
    -6.696707516180e-10 2.000000000000e+00 2.105000000000e+03 1.000000000000e+00
     2.800000000000e+00 0.000000000000e+00 9.313225746150e-10 9.450000000000e+02
     3.600060000000e+05 1.000000000000e+00                                      
J02 2020 05 14 06 00 00-8.288770914080e-08-1.136868377220e-13 0.000000000000e+00
     1.810000000000e+02 1.397187500000e+02 2.403314393410e-09-1.458345402580e+00
     4.583969712260e-06 7.595169765410e-02 5.938112735750e-06 6.492911966320e+03
     3.672000000000e+05-5.215406417850e-07 8.147063007700e-01 8.549541234970e-07
     7.516072778370e-01-2.031250000000e+00-1.587695748710e+00-2.937979521500e-09
    -6.168114069570e-10 2.000000000000e+00 2.105000000000e+03 1.000000000000e+00
     2.800000000000e+00 0.000000000000e+00 9.313225746150e-10 9.490000000000e+02
     3.636060000000e+05 1.000000000000e+00                                      
J02 2020 05 14 07 00 00-8.288770914080e-08-1.136868377220e-13 0.000000000000e+00
     1.850000000000e+02 1.369062500000e+02 2.212949321080e-09-1.195722662050e+00
     4.492700099950e-06 7.595189590940e-02 5.124136805530e-06 6.492919639590e+03
     3.708000000000e+05-2.700835466380e-07 8.146961627480e-01 6.034970283510e-07
     7.516063225520e-01 3.009375000000e+01-1.587736384190e+00-2.782615907120e-09
    -5.878816304870e-10 2.000000000000e+00 2.105000000000e+03 1.000000000000e+00
     2.800000000000e+00 0.000000000000e+00 9.313225746150e-10 9.530000000000e+02
     3.672060000000e+05 1.000000000000e+00                                      
J02 2020 05 14 08 00 00-8.242204785350e-08 0.000000000000e+00 0.000000000000e+00
     1.890000000000e+02 1.290000000000e+02 2.098301688400e-09-9.331518814530e-01
     4.207715392110e-06 7.595156261230e-02 5.275011062620e-06 6.492917469020e+03
     3.744000000000e+05-3.185123205180e-07 8.146873706100e-01 9.853392839430e-07
     7.516054769850e-01 2.371875000000e+01-1.587725972600e+00-2.594393781200e-09
    -6.839570609860e-10 2.000000000000e+00 2.105000000000e+03 1.000000000000e+00
     2.800000000000e+00 0.000000000000e+00 9.313225746150e-10 9.570000000000e+02
     3.708060000000e+05 1.000000000000e+00                                      
J02 2020 05 14 09 00 00-8.288770914080e-08 0.000000000000e+00 0.000000000000e+00
     1.930000000000e+02 9.631250000000e+01 2.230807207790e-09-6.706086329700e-01
     3.252178430560e-06 7.594926224560e-02 5.654990673070e-06 6.492907468800e+03
     3.780000000000e+05-9.723007678990e-07 8.146774183790e-01 8.009374141690e-07
     7.516027822900e-01 9.875000000000e+00-1.587686223650e+00-2.675468586860e-09
    -7.778895450790e-10 2.000000000000e+00 2.105000000000e+03 1.000000000000e+00
     2.800000000000e+00 0.000000000000e+00 9.313225746150e-10 9.610000000000e+02
     3.744060000000e+05 1.000000000000e+00                                      
J02 2020 05 14 10 00 00-8.242204785350e-08 0.000000000000e+00 0.000000000000e+00
     1.970000000000e+02 5.428125000000e+01 2.572250001680e-09-4.080619963690e-01
     2.002343535420e-06 7.594521506690e-02 5.472451448440e-06 6.492893680570e+03
     3.816000000000e+05-7.059425115590e-07 8.146630261910e-01 3.725290298460e-08
     7.515990255160e-01 1.671875000000e+01-1.587645001550e+00-3.040126633480e-09
    -5.950247851710e-10 2.000000000000e+00 2.105000000000e+03 1.000000000000e+00
     2.800000000000e+00 0.000000000000e+00 9.313225746150e-10 9.650000000000e+02
     3.780060000000e+05 1.000000000000e+00                                      
J02 2020 05 14 11 00 00-8.428469300270e-08 0.000000000000e+00 0.000000000000e+00
     2.010000000000e+02 3.234375000000e+01 2.721541934570e-09-1.454907256900e-01
     1.331791281700e-06 7.594178523870e-02 4.759058356290e-06 6.492883560180e+03
     3.852000000000e+05-3.501772880550e-07 8.146495995290e-01 1.676380634310e-08
     7.515969042850e-01 3.968750000000e+01-1.587627376310e+00-3.165488998180e-09
    -4.432327481370e-10 2.000000000000e+00 2.105000000000e+03 1.000000000000e+00
     2.800000000000e+00 0.000000000000e+00 9.313225746150e-10 9.690000000000e+02
     3.816060000000e+05 1.000000000000e+00                                      
J02 2020 05 14 12 00 00-8.475035429000e-08 0.000000000000e+00 0.000000000000e+00
     2.050000000000e+02 3.037500000000e+01 2.746542975970e-09 1.170964059470e-01
     1.272186636920e-06 7.594057486860e-02 4.459172487260e-06 6.492880199430e+03
     3.888000000000e+05-3.688037395480e-07 8.146389129120e-01-9.126961231230e-08
     7.515952058370e-01 5.053125000000e+01-1.587626722390e+00-3.160845947640e-09
    -5.021637742800e-10 2.000000000000e+00 2.105000000000e+03 1.000000000000e+00
     2.800000000000e+00 0.000000000000e+00 9.313225746150e-10 9.730000000000e+02
     3.852060000000e+05 1.000000000000e+00                                      
J02 2020 05 14 13 00 00-8.568167686460e-08-1.136868377220e-13 0.000000000000e+00
     2.090000000000e+02 2.446875000000e+01 2.691183527170e-09 3.796799446570e-01
     1.028180122380e-06 7.594158488790e-02 4.770234227180e-06 6.492883174900e+03
     3.924000000000e+05-6.128102540970e-07 8.146263888700e-01-1.378357410430e-07
     7.515935556660e-01 4.359375000000e+01-1.587621059430e+00-3.080128299710e-09
    -4.225175995540e-10 2.000000000000e+00 2.105000000000e+03 1.000000000000e+00
     2.800000000000e+00 0.000000000000e+00 9.313225746150e-10 9.770000000000e+02
     3.888060000000e+05 1.000000000000e+00                                      
J02 2020 05 14 14 00 00-8.614733815190e-08-1.136868377220e-13 0.000000000000e+00
     2.130000000000e+02 6.656250000000e+00 2.357955361160e-09 6.422490619200e-01
     3.278255462650e-07 7.594361796510e-02 4.887580871580e-06 6.492890178680e+03
     3.960000000000e+05-1.179054379460e-06 8.146103903980e-01-1.039355993270e-06
     7.515940311140e-01 4.015625000000e+01-1.587599165400e+00-2.611537352440e-09
    -1.410773050070e-10 2.000000000000e+00 2.105000000000e+03 1.000000000000e+00
     2.800000000000e+00 0.000000000000e+00 9.313225746150e-10 9.810000000000e+02
     3.924060000000e+05 1.000000000000e+00                                      
J02 2020 05 14 15 00 00-8.568167686460e-08-1.136868377220e-13 0.000000000000e+00
     2.170000000000e+02-5.750000000000e+00 1.965796169020e-09 9.048147559550e-01
    -1.974403858180e-07 7.594489539040e-02 4.522502422330e-06 6.492895723340e+03
     3.996000000000e+05-1.732259988780e-07 8.145973075220e-01-2.244487404820e-06
     7.515960338490e-01 4.793750000000e+01-1.587576899780e+00-2.048299605610e-09
    -1.017899542460e-10 2.000000000000e+00 2.105000000000e+03 1.000000000000e+00
     2.800000000000e+00 0.000000000000e+00 9.313225746150e-10 9.850000000000e+02
     3.960060000000e+05 1.000000000000e+00                                      
J02 2020 05 14 16 00 00-8.568167686460e-08-1.136868377220e-13 0.000000000000e+00
     2.210000000000e+02-5.468750000000e+00 1.885078521090e-09 1.167396368000e+00
    -3.185123205180e-07 7.594496954700e-02 4.306435585020e-06 6.492896200180e+03
     4.032000000000e+05 1.346692442890e-06 8.145894443370e-01-1.648440957070e-06
     7.515958597620e-01 4.953125000000e+01-1.587574458170e+00-1.892578833510e-09
    -3.292994309290e-10 2.000000000000e+00 2.105000000000e+03 1.000000000000e+00
     2.800000000000e+00 0.000000000000e+00 9.313225746150e-10 9.890000000000e+02
     3.996060000000e+05 1.000000000000e+00                                      
J02 2020 05 14 17 00 00-8.614733815190e-08-1.136868377220e-13 0.000000000000e+00
     1.000000000000e+00-4.343750000000e+00 1.990082894940e-09 1.429997553890e+00
    -3.464519977570e-07 7.594478235110e-02 4.496425390240e-06 6.492892816540e+03
     4.068000000000e+05 1.685693860050e-06 8.145826344540e-01-3.036111593250e-07
     7.515937297530e-01 3.584375000000e+01-1.587591953210e+00-1.957581541130e-09
    -5.460941755860e-10 2.000000000000e+00 2.105000000000e+03 1.000000000000e+00
     2.800000000000e+00 0.000000000000e+00 9.313225746150e-10 7.690000000000e+02
     4.032060000000e+05 1.000000000000e+00                                      
J02 2020 05 14 18 00 00-8.754432201390e-08-1.136868377220e-13 0.000000000000e+00
     5.000000000000e+00-1.128125000000e+01 2.024727195160e-09 1.692606338180e+00
    -4.526227712630e-07 7.594504405280e-02 4.850327968600e-06 6.492888280870e+03
     4.104000000000e+05 1.292675733570e-06 8.145757426460e-01 8.158385753630e-07
     7.515919713250e-01 1.684375000000e+01-1.587616445390e+00-1.913651139820e-09
    -7.164584147970e-10 2.000000000000e+00 2.105000000000e+03 1.000000000000e+00
     2.800000000000e+00 0.000000000000e+00 9.313225746150e-10 7.730000000000e+02
     4.068060000000e+05 1.000000000000e+00                                      
J02 2020 05 14 19 00 00-8.847564458850e-08-1.136868377220e-13 0.000000000000e+00
     9.000000000000e+00-1.918750000000e+01 2.124374203000e-09 1.955202329250e+00
    -5.792826414110e-07 7.594530517240e-02 4.913657903670e-06 6.492886285780e+03
     4.140000000000e+05 3.352761268620e-07 8.145683241890e-01 1.188367605210e-06
     7.515889299190e-01 1.015625000000e+01-1.587626871600e+00-1.992582999080e-09
    -8.468209877790e-10 2.000000000000e+00 2.105000000000e+03 1.000000000000e+00
     2.800000000000e+00 0.000000000000e+00 9.313225746150e-10 7.770000000000e+02
     4.104060000000e+05 1.000000000000e+00                                      
J02 2020 05 14 20 00 00-8.894130587580e-08-1.136868377220e-13 0.000000000000e+00
     1.300000000000e+01-2.625000000000e+00 2.131874515420e-09 2.217773161050e+00
    -8.568167686460e-08 7.594432996120e-02 4.798173904420e-06 6.492889631270e+03
     4.176000000000e+05-6.258487701420e-07 8.145609671740e-01 9.890645742420e-07
     7.515860216370e-01 1.234375000000e+01-1.587612022980e+00-2.032227507580e-09
    -9.832552422420e-10 2.000000000000e+00 2.105000000000e+03 1.000000000000e+00
     2.800000000000e+00 0.000000000000e+00 9.313225746150e-10 7.810000000000e+02
     4.140060000000e+05 1.000000000000e+00                                      
J02 2020 05 14 21 00 00-8.847564458850e-08-1.136868377220e-13 0.000000000000e+00
     1.700000000000e+01 3.590625000000e+01 2.239378993410e-09 2.480329504110e+00
     8.996576070790e-07 7.594145438630e-02 4.928559064870e-06 6.492897808070e+03
     4.212000000000e+05-7.506459951400e-07 8.145506477500e-01 9.499490261080e-08
     7.515818830420e-01 3.093750000000e+00-1.587581124690e+00-2.276880555500e-09
    -9.621829359240e-10 2.000000000000e+00 2.105000000000e+03 1.000000000000e+00
     2.800000000000e+00 0.000000000000e+00 9.313225746150e-10 7.850000000000e+02
     4.176060000000e+05 1.000000000000e+00                                      
J02 2020 05 14 22 00 00-8.847564458850e-08-1.136868377220e-13 0.000000000000e+00
     2.100000000000e+01 6.928125000000e+01 2.378313352010e-09 2.742892323510e+00
     1.728534698490e-06 7.593797182200e-02 5.457550287250e-06 6.492906488420e+03
     4.248000000000e+05 2.067536115650e-07 8.145366607900e-01-1.396983861920e-07
     7.515777971120e-01-2.231250000000e+01-1.587555509000e+00-2.575107263550e-09
    -6.950289507460e-10 2.000000000000e+00 2.105000000000e+03 1.000000000000e+00
     2.800000000000e+00 0.000000000000e+00 9.313225746150e-10 7.890000000000e+02
     4.212060000000e+05 1.000000000000e+00                                      
J02 2020 05 14 23 00 00-8.847564458850e-08-1.136868377220e-13 0.000000000000e+00
     2.500000000000e+01 7.906250000000e+01 2.377956194280e-09 3.005470652770e+00
     1.957640051840e-06 7.593633932990e-02 5.837529897690e-06 6.492910150530e+03
     4.284000000000e+05 4.861503839490e-07 8.145253977840e-01 7.078051567080e-08
     7.515753262430e-01-3.962500000000e+01-1.587548741540e+00-2.633681131960e-09
    -5.785955293980e-10 2.000000000000e+00 2.105000000000e+03 1.000000000000e+00
     2.800000000000e+00 0.000000000000e+00 9.313225746150e-10 7.930000000000e+02
     4.248060000000e+05 1.000000000000e+00                                      
J03 2020 05 14 00 00 00-2.934131771330e-06-4.547473508860e-13 0.000000000000e+00
     1.570000000000e+02 2.892812500000e+02 1.792574667930e-09 1.541882735500e+00
     8.815899491310e-06 7.447817933280e-02-5.420297384260e-06 6.493586389540e+03
     3.456000000000e+05 1.015141606330e-06 2.511250359450e+00-1.583248376850e-07
     7.124927924250e-01 3.015312500000e+02-1.558893827810e+00-2.061871599510e-09
     1.482204596910e-10 2.000000000000e+00 2.105000000000e+03 1.000000000000e+00
     2.800000000000e+00 0.000000000000e+00 0.000000000000e+00 9.250000000000e+02
     3.455760000000e+05 1.000000000000e+00                                      
J03 2020 05 14 01 00 00-2.934597432610e-06-4.547473508860e-13 0.000000000000e+00
     1.610000000000e+02 3.027812500000e+02 2.496889719760e-09 1.804332797570e+00
     8.709728717800e-06 7.447695627340e-02-6.491318345070e-06 6.493595939640e+03
     3.492000000000e+05 9.872019290920e-08 2.511237197580e+00-1.538544893260e-06
     7.124857382340e-01 3.395312500000e+02-1.558839379460e+00-3.122272912340e-09
     3.271564845240e-10 2.000000000000e+00 2.105000000000e+03 1.000000000000e+00
     2.800000000000e+00 0.000000000000e+00 0.000000000000e+00 9.290000000000e+02
     3.456060000000e+05 1.000000000000e+00                                      
J03 2020 05 14 02 00 00-2.935994416480e-06-4.547473508860e-13 0.000000000000e+00
     1.650000000000e+02 3.113437500000e+02 2.494746773360e-09 2.066821997080e+00
     8.769333362580e-06 7.447655603760e-02-6.582587957380e-06 6.493598096850e+03
     3.528000000000e+05 1.216307282450e-06 2.511225311370e+00-1.808628439900e-06
     7.124862663470e-01 3.456250000000e+02-1.558827540060e+00-3.177989518880e-09
     5.135928217740e-10 2.000000000000e+00 2.105000000000e+03 1.000000000000e+00
     2.800000000000e+00 0.000000000000e+00 0.000000000000e+00 9.330000000000e+02
     3.492060000000e+05 1.000000000000e+00                                      
J03 2020 05 14 03 00 00-2.936925739050e-06-4.547473508860e-13 0.000000000000e+00
     1.690000000000e+02 3.006875000000e+02 1.825790337210e-09 2.329337871440e+00
     8.573755621910e-06 7.447795290500e-02-6.124377250670e-06 6.493593185420e+03
     3.564000000000e+05 4.470348358150e-07 2.511225154840e+00-1.061707735060e-07
     7.124925071560e-01 3.386562500000e+02-1.558852185840e+00-2.294381284480e-09
     1.150047904110e-10 2.000000000000e+00 2.105000000000e+03 1.000000000000e+00
     2.800000000000e+00 0.000000000000e+00 0.000000000000e+00 9.370000000000e+02
     3.528060000000e+05 1.000000000000e+00                                      
J03 2020 05 14 04 00 00-2.938788384200e-06-3.410605131650e-13 0.000000000000e+00
     1.730000000000e+02 2.850625000000e+02 1.619353166850e-09 2.591849263420e+00
     8.355826139450e-06 7.447942055300e-02-6.068497896190e-06 6.493588985440e+03
     3.600000000000e+05-8.046627044680e-07 2.511223842600e+00-3.091990947720e-07
     7.124946225350e-01 3.437812500000e+02-1.558870138780e+00-1.955438594720e-09
    -2.828689254830e-10 2.000000000000e+00 2.105000000000e+03 1.000000000000e+00
     2.800000000000e+00 0.000000000000e+00 0.000000000000e+00 9.410000000000e+02
     3.564060000000e+05 1.000000000000e+00                                      
J03 2020 05 14 05 00 00-2.940651029350e-06-3.410605131650e-13 0.000000000000e+00
     1.770000000000e+02 2.831250000000e+02 1.830433387750e-09 2.854348382980e+00
     8.570030331610e-06 7.447922648860e-02-5.843117833140e-06 6.493589700700e+03
     3.636000000000e+05-1.341104507450e-07 2.511213454420e+00-5.681067705150e-07
     7.124937930610e-01 3.456875000000e+02-1.558868040950e+00-2.147946613460e-09
    -1.571494030460e-10 2.000000000000e+00 2.105000000000e+03 1.000000000000e+00
     2.800000000000e+00 0.000000000000e+00 0.000000000000e+00 9.450000000000e+02
     3.600060000000e+05 1.000000000000e+00                                      
J03 2020 05 14 06 00 00-2.942513674500e-06-3.410605131650e-13 0.000000000000e+00
     1.810000000000e+02 2.884062500000e+02 1.913651139820e-09 3.116843693100e+00
     8.830800652500e-06 7.447669852990e-02-4.688277840610e-06 6.493595390320e+03
     3.672000000000e+05 3.091990947720e-07 2.511201673540e+00-1.862645149230e-08
     7.124936321400e-01 3.182812500000e+02-1.558861372970e+00-2.237950362470e-09
     7.893185925730e-11 2.000000000000e+00 2.105000000000e+03 1.000000000000e+00
     2.800000000000e+00 0.000000000000e+00 0.000000000000e+00 9.490000000000e+02
     3.636060000000e+05 1.000000000000e+00                                      
J03 2020 05 14 07 00 00-2.943910658360e-06-3.410605131650e-13 0.000000000000e+00
     1.850000000000e+02 2.776875000000e+02 1.910079562480e-09-2.903838070660e+00
     8.476898074150e-06 7.447222829800e-02-3.002583980560e-06 6.493605188370e+03
     3.708000000000e+05 5.960464477540e-07 2.511195742870e+00-3.259629011150e-07
     7.124937403960e-01 2.664062500000e+02-1.558868576380e+00-2.295452757680e-09
    -5.535944880040e-11 2.000000000000e+00 2.105000000000e+03 1.000000000000e+00
     2.800000000000e+00 0.000000000000e+00 0.000000000000e+00 9.530000000000e+02
     3.672060000000e+05 1.000000000000e+00                                      
J03 2020 05 14 08 00 00-2.945307642220e-06-3.410605131650e-13 0.000000000000e+00
     1.890000000000e+02 2.464062500000e+02 1.959010172070e-09-2.641322617620e+00
     7.553026080130e-06 7.446769357190e-02-1.769512891770e-06 6.493615659710e+03
     3.744000000000e+05 1.199543476100e-06 2.511189926310e+00-1.676380634310e-07
     7.124932766510e-01 2.217187500000e+02-1.558889507810e+00-2.460102473140e-09
    -1.771502361610e-10 2.000000000000e+00 2.105000000000e+03 1.000000000000e+00
     2.800000000000e+00 0.000000000000e+00 0.000000000000e+00 9.570000000000e+02
     3.708060000000e+05 1.000000000000e+00                                      
J03 2020 05 14 09 00 00-2.946704626080e-06-3.410605131650e-13 0.000000000000e+00
     1.930000000000e+02 2.085625000000e+02 1.521849105410e-09-2.378805770420e+00
     6.604939699170e-06 7.446491473820e-02-1.011416316030e-06 6.493622180940e+03
     3.780000000000e+05-2.849847078320e-07 2.511173856150e+00-8.381903171540e-08
     7.124962054130e-01 1.946875000000e+02-1.558905149330e+00-2.025798668360e-09
     2.921550265720e-10 2.000000000000e+00 2.105000000000e+03 1.000000000000e+00
     2.800000000000e+00 0.000000000000e+00 0.000000000000e+00 9.610000000000e+02
     3.744060000000e+05 1.000000000000e+00                                      
J03 2020 05 14 10 00 00-2.948567271230e-06-3.410605131650e-13 0.000000000000e+00
     1.970000000000e+02 1.918125000000e+02 6.546701267810e-10-2.116309515250e+00
     6.228685379030e-06 7.446482265370e-02-4.265457391740e-07 6.493621786120e+03
     3.816000000000e+05-1.028180122380e-06 2.511156819010e+00-2.244487404820e-06
     7.125036531290e-01 1.833125000000e+02-1.558899297660e+00-9.850410309130e-10
     7.253873581520e-10 2.000000000000e+00 2.105000000000e+03 1.000000000000e+00
     2.800000000000e+00 0.000000000000e+00 0.000000000000e+00 9.650000000000e+02
     3.780060000000e+05 1.000000000000e+00                                      
J03 2020 05 14 11 00 00-2.950429916380e-06-3.410605131650e-13 0.000000000000e+00
     2.010000000000e+02 2.008750000000e+02-5.821671067400e-11-1.853840420630e+00
     6.429851055150e-06 7.446606410670e-02 2.905726432800e-07 6.493616668700e+03
     3.852000000000e+05 1.180917024610e-06 2.511148200960e+00-3.671273589130e-06
     7.125113436890e-01 1.696250000000e+02-1.558872107860e+00-6.178828801590e-11
     6.911002156690e-10 2.000000000000e+00 2.105000000000e+03 1.000000000000e+00
     2.800000000000e+00 0.000000000000e+00 0.000000000000e+00 9.690000000000e+02
     3.816060000000e+05 1.000000000000e+00                                      
J03 2020 05 14 12 00 00-2.951826900240e-06-3.410605131650e-13 0.000000000000e+00
     2.050000000000e+02 2.250625000000e+02 2.285809498850e-11-1.591392238410e+00
     7.137656211850e-06 7.446711545340e-02 1.177191734310e-06 6.493608947750e+03
     3.888000000000e+05 3.285706043240e-06 2.511148094160e+00-1.629814505580e-06
     7.125119873730e-01 1.424375000000e+02-1.558830367880e+00-1.007184810430e-10
     2.689397738500e-10 2.000000000000e+00 2.105000000000e+03 1.000000000000e+00
     2.800000000000e+00 0.000000000000e+00 0.000000000000e+00 9.730000000000e+02
     3.852060000000e+05 1.000000000000e+00                                      
J03 2020 05 14 13 00 00-2.954155206680e-06-3.410605131650e-13 0.000000000000e+00
     2.090000000000e+02 2.418125000000e+02 6.539558113130e-10-1.328955876580e+00
     7.793307304380e-06 7.446719775910e-02 2.425163984300e-06 6.493598783490e+03
     3.924000000000e+05 2.581626176830e-06 2.511146679520e+00 1.067295670510e-06
     7.125066301670e-01 9.978125000000e+01-1.558775215870e+00-8.321775206770e-10
    -8.857511808060e-11 2.000000000000e+00 2.105000000000e+03 1.000000000000e+00
     2.800000000000e+00 0.000000000000e+00 0.000000000000e+00 9.770000000000e+02
     3.888060000000e+05 1.000000000000e+00                                      
J03 2020 05 14 14 00 00-2.954620867970e-06-3.410605131650e-13 0.000000000000e+00
     2.130000000000e+02 2.382812500000e+02 1.610781381220e-09-1.066518859350e+00
     7.994472980500e-06 7.446594862270e-02 3.783032298090e-06 6.493586811070e+03
     3.960000000000e+05 3.427267074580e-07 2.511137831790e+00 1.460313797000e-06
     7.124980720960e-01 5.512500000000e+01-1.558713935700e+00-1.996154576420e-09
    -1.232194182980e-10 2.000000000000e+00 2.105000000000e+03 1.000000000000e+00
     2.800000000000e+00 0.000000000000e+00 0.000000000000e+00 9.810000000000e+02
     3.924060000000e+05 1.000000000000e+00                                      
J03 2020 05 14 15 00 00-2.955552190540e-06-3.410605131650e-13 0.000000000000e+00
     2.170000000000e+02 2.399375000000e+02 2.578321683160e-09-8.040444426270e-01
     8.277595043180e-06 7.446505513510e-02 4.693865776060e-06 6.493580450060e+03
     3.996000000000e+05-1.881271600720e-07 2.511119545320e+00-3.799796104430e-07
     7.124902747430e-01 3.040625000000e+01-1.558681271660e+00-3.272636318440e-09
     3.307280618660e-10 2.000000000000e+00 2.105000000000e+03 1.000000000000e+00
     2.800000000000e+00 0.000000000000e+00 0.000000000000e+00 9.850000000000e+02
     3.960060000000e+05 1.000000000000e+00                                      
J03 2020 05 14 16 00 00-2.956949174400e-06-3.410605131650e-13 0.000000000000e+00
     2.210000000000e+02 1.913437500000e+02 2.744400029560e-09-5.415864296030e-01
     7.141381502150e-06 7.446108141450e-02 4.561617970470e-06 6.493566371920e+03
     4.032000000000e+05 3.669410943980e-07 2.511106918870e+00-1.154839992520e-07
     7.124910135160e-01 3.518750000000e+01-1.558634805000e+00-3.298708833040e-09
     4.889489381140e-10 2.000000000000e+00 2.105000000000e+03 1.000000000000e+00
     2.800000000000e+00 0.000000000000e+00 0.000000000000e+00 9.890000000000e+02
     3.996060000000e+05 1.000000000000e+00                                      
J03 2020 05 14 17 00 00-2.958811819550e-06-3.410605131650e-13 0.000000000000e+00
     1.000000000000e+00 2.271250000000e+02 2.482603410400e-09-2.790523170430e-01
     8.190050721170e-06 7.446516037450e-02 5.116686224940e-06 6.493579269410e+03
     4.068000000000e+05-1.471489667890e-07 2.511099142000e+00 1.396983861920e-07
     7.124930689160e-01 1.643750000000e+01-1.558668080530e+00-3.053341469640e-09
     2.760829285340e-10 2.000000000000e+00 2.105000000000e+03 1.000000000000e+00
     2.800000000000e+00 0.000000000000e+00 0.000000000000e+00 7.690000000000e+02
     4.032060000000e+05 1.000000000000e+00                                      
J03 2020 05 14 18 00 00-2.960208803420e-06-4.547473508860e-13 0.000000000000e+00
     5.000000000000e+00 2.375312500000e+02 2.375456090140e-09-1.654241724090e-02
     8.488073945050e-06 7.446855492890e-02 5.925074219700e-06 6.493588794710e+03
     4.104000000000e+05-3.129243850710e-07 2.511089864170e+00-2.607703208920e-08
     7.124939100940e-01-1.231250000000e+01-1.558677336410e+00-3.007268121930e-09
     1.528635102360e-10 2.000000000000e+00 2.105000000000e+03 1.000000000000e+00
     2.800000000000e+00 0.000000000000e+00 0.000000000000e+00 7.730000000000e+02
     4.068060000000e+05 1.000000000000e+00                                      
J03 2020 05 14 19 00 00-2.961605787280e-06-4.547473508860e-13 0.000000000000e+00
     9.000000000000e+00 2.335937500000e+02 2.337954528050e-09 2.459557572730e-01
     8.428469300270e-06 7.447043701540e-02 6.254762411120e-06 6.493593978880e+03
     4.140000000000e+05-1.676380634310e-07 2.511080536610e+00-1.993030309680e-07
     7.124941851230e-01-2.909375000000e+01-1.558675984680e+00-3.047626945900e-09
     3.250135381180e-11 2.000000000000e+00 2.105000000000e+03 1.000000000000e+00
     2.800000000000e+00 0.000000000000e+00 0.000000000000e+00 7.770000000000e+02
     4.104060000000e+05 1.000000000000e+00                                      
J03 2020 05 14 20 00 00-2.963468432430e-06-4.547473508860e-13 0.000000000000e+00
     1.300000000000e+01 2.421562500000e+02 2.405814497540e-09 5.084634290510e-01
     8.771196007730e-06 7.446948252620e-02 6.059184670450e-06 6.493590948100e+03
     4.176000000000e+05 1.862645149230e-08 2.511070676540e+00-6.332993507390e-08
     7.124940037210e-01-2.512500000000e+01-1.558684064370e+00-3.141559429990e-09
    -3.428714248280e-11 2.000000000000e+00 2.105000000000e+03 1.000000000000e+00
     2.800000000000e+00 0.000000000000e+00 0.000000000000e+00 7.810000000000e+02
     4.140060000000e+05 1.000000000000e+00                                      
J03 2020 05 14 21 00 00-2.964399755000e-06-4.547473508860e-13 0.000000000000e+00
     1.700000000000e+01 2.729375000000e+02 1.957581541130e-09 7.709878000390e-01
     9.611248970030e-06 7.446775387510e-02 5.764886736870e-06 6.493584955220e+03
     4.212000000000e+05-6.500631570820e-07 2.511052568540e+00-1.151114702220e-06
     7.124984963420e-01-2.121875000000e+01-1.558702489830e+00-2.407600286220e-09
     4.253748614280e-10 2.000000000000e+00 2.105000000000e+03 1.000000000000e+00
     2.800000000000e+00 0.000000000000e+00 0.000000000000e+00 7.850000000000e+02
     4.176060000000e+05 1.000000000000e+00                                      
J03 2020 05 14 22 00 00-2.965796738860e-06-4.547473508860e-13 0.000000000000e+00
     2.100000000000e+01 3.024062500000e+02 1.013970807380e-09 1.033508270890e+00
     1.047179102900e-05 7.446708611680e-02 5.461275577550e-06 6.493581344600e+03
     4.248000000000e+05 1.139938831330e-06 2.511036634430e+00-2.942979335780e-06
     7.125090147230e-01-2.650000000000e+01-1.558718311290e+00-9.789693494310e-10
     7.089581023790e-10 2.000000000000e+00 2.105000000000e+03 1.000000000000e+00
     2.800000000000e+00 0.000000000000e+00 0.000000000000e+00 7.890000000000e+02
     4.212060000000e+05 1.000000000000e+00                                      
J03 2020 05 14 23 00 00-2.966728061440e-06-4.547473508860e-13 0.000000000000e+00
     2.500000000000e+01 3.100625000000e+02 5.825242644740e-10 1.296002396040e+00
     1.072324812410e-05 7.446716364940e-02 5.047768354420e-06 6.493582044600e+03
     4.284000000000e+05 3.362074494360e-06 2.511032124260e+00-1.369044184680e-06
     7.125152964930e-01-2.359375000000e+01-1.558714950960e+00-3.382283742840e-10
     4.243033882250e-10 2.000000000000e+00 2.105000000000e+03 1.000000000000e+00
     2.800000000000e+00 0.000000000000e+00 0.000000000000e+00 7.930000000000e+02
     4.248060000000e+05 1.000000000000e+00                                      
J07 2020 05 14 00 00 00-5.774199962620e-08 0.000000000000e+00 0.000000000000e+00
     1.570000000000e+02 3.634687500000e+02 0.000000000000e+00-1.127984284090e+00
     1.176632940770e-05 1.973939361050e-04-1.266598701480e-07 6.493556806560e+03
     3.456000000000e+05 1.473352313040e-06-8.716856418690e-01 1.737847924230e-06
     7.548408592950e-04 8.812500000000e+00-1.998969217460e+00 9.821837690390e-10
     0.000000000000e+00 2.000000000000e+00 2.105000000000e+03 1.000000000000e+00
     2.800000000000e+00 0.000000000000e+00-6.053596735000e-09 9.250000000000e+02
     3.455760000000e+05 1.000000000000e+00                                      
J07 2020 05 14 01 00 00-5.820766091350e-08 0.000000000000e+00 0.000000000000e+00
     1.610000000000e+02 3.638437500000e+02 0.000000000000e+00-8.620447235310e-01
     1.177750527860e-05 1.977260690180e-04-3.632158041000e-07 6.493558626170e+03
     3.492000000000e+05 7.711350917820e-07-8.716796994950e-01 1.454725861550e-06
     7.555898733510e-04 1.703125000000e+01-2.002414965920e+00 9.675403019370e-10
     0.000000000000e+00 2.000000000000e+00 2.105000000000e+03 1.000000000000e+00
     2.800000000000e+00 0.000000000000e+00-6.053596735000e-09 9.290000000000e+02
     3.456060000000e+05 1.000000000000e+00                                      
J07 2020 05 14 02 00 00-5.820766091350e-08 0.000000000000e+00 0.000000000000e+00
     1.650000000000e+02 3.373125000000e+02 0.000000000000e+00-6.106478194760e-01
     1.095980405810e-05 1.952166203410e-04 3.483146429060e-07 6.493550554280e+03
     3.528000000000e+05 7.506459951400e-07-8.716963489660e-01 1.519918441770e-06
     7.555152645290e-04-6.031250000000e+00-1.991294987670e+00 1.022185435270e-09
     0.000000000000e+00 2.000000000000e+00 2.105000000000e+03 1.000000000000e+00
     2.800000000000e+00 0.000000000000e+00-6.053596735000e-09 9.330000000000e+02
     3.492060000000e+05 1.000000000000e+00                                      
J07 2020 05 14 03 00 00-5.727633833890e-08 0.000000000000e+00 0.000000000000e+00
     1.690000000000e+02 2.822187500000e+02 0.000000000000e+00-3.611090115600e-01
     9.262934327130e-06 1.904790988190e-04 7.506459951400e-07 6.493537525180e+03
     3.564000000000e+05 3.520399332050e-07-8.722345974890e-01 2.261251211170e-06
     7.543610221650e-04-1.912500000000e+01-1.977793680140e+00 1.110760553350e-09
     0.000000000000e+00 2.000000000000e+00 2.105000000000e+03 1.000000000000e+00
     2.800000000000e+00 0.000000000000e+00-6.053596735000e-09 9.370000000000e+02
     3.528060000000e+05 1.000000000000e+00                                      
J07 2020 05 14 04 00 00-5.727633833890e-08 0.000000000000e+00 0.000000000000e+00
     1.730000000000e+02 2.370625000000e+02 0.000000000000e+00-1.043227845940e-01
     7.878988981250e-06 1.861763885240e-04 3.967434167860e-07 6.493526731490e+03
     3.600000000000e+05-1.121312379840e-06-8.743370009480e-01 2.736225724220e-06
     7.522983076730e-04-7.531250000000e+00-1.969973816860e+00 1.185049362060e-09
     0.000000000000e+00 2.000000000000e+00 2.105000000000e+03 1.000000000000e+00
     2.800000000000e+00 0.000000000000e+00-6.053596735000e-09 9.410000000000e+02
     3.564060000000e+05 1.000000000000e+00                                      
J07 2020 05 14 05 00 00-5.727633833890e-08 0.000000000000e+00 0.000000000000e+00
     1.770000000000e+02 2.264687500000e+02 0.000000000000e+00 1.579517258380e-01
     7.566064596180e-06 1.848562387750e-04 1.955777406690e-07 6.493523511890e+03
     3.636000000000e+05-3.010034561160e-06-8.787978492520e-01 1.756474375720e-06
     7.502575369520e-04-3.750000000000e-01-1.965282730120e+00 1.209693245720e-09
     0.000000000000e+00 2.000000000000e+00 2.105000000000e+03 1.000000000000e+00
     2.800000000000e+00 0.000000000000e+00-6.053596735000e-09 9.450000000000e+02
     3.600060000000e+05 1.000000000000e+00                                      
J07 2020 05 14 06 00 00-5.727633833890e-08 0.000000000000e+00 0.000000000000e+00
     1.810000000000e+02 2.297812500000e+02 0.000000000000e+00 4.164810006770e-01
     7.675960659980e-06 1.870986307040e-04 1.091510057450e-06 6.493529256820e+03
     3.672000000000e+05-3.751367330550e-06-8.852357216210e-01-6.761401891710e-07
     7.495260779130e-04-2.800000000000e+01-1.954869563660e+00 1.176477576440e-09
     0.000000000000e+00 2.000000000000e+00 2.105000000000e+03 1.000000000000e+00
     2.800000000000e+00 0.000000000000e+00-6.053596735000e-09 9.490000000000e+02
     3.636060000000e+05 1.000000000000e+00                                      
J07 2020 05 14 07 00 00-5.774199962620e-08 0.000000000000e+00 0.000000000000e+00
     1.850000000000e+02 2.115000000000e+02 0.000000000000e+00 6.657924301610e-01
     7.087364792820e-06 1.911399886010e-04 2.712011337280e-06 6.493540813450e+03
     3.708000000000e+05-2.412125468250e-06-8.920330402770e-01-3.093853592870e-06
     7.508500187740e-04-7.800000000000e+01-1.934880360740e+00 1.108974764680e-09
     0.000000000000e+00 2.000000000000e+00 2.105000000000e+03 1.000000000000e+00
     2.800000000000e+00 0.000000000000e+00-6.053596735000e-09 9.530000000000e+02
     3.672060000000e+05 1.000000000000e+00                                      
J07 2020 05 14 08 00 00-5.774199962620e-08 0.000000000000e+00 0.000000000000e+00
     1.890000000000e+02 1.672187500000e+02 0.000000000000e+00 9.087165281710e-01
     5.658715963360e-06 1.948854187500e-04 3.943219780920e-06 6.493553771970e+03
     3.744000000000e+05 2.831220626830e-07-8.973586955290e-01-3.824010491370e-06
     7.538884996250e-04-1.159687500000e+02-1.909977303780e+00 1.032900167300e-09
     0.000000000000e+00 2.000000000000e+00 2.105000000000e+03 1.000000000000e+00
     2.800000000000e+00 0.000000000000e+00-6.053596735000e-09 9.570000000000e+02
     3.708060000000e+05 1.000000000000e+00                                      
J07 2020 05 14 09 00 00-5.820766091350e-08 0.000000000000e+00 0.000000000000e+00
     1.930000000000e+02 1.263437500000e+02 0.000000000000e+00 1.154375203360e+00
     4.319474101070e-06 1.968889264390e-04 4.211440682410e-06 6.493563169480e+03
     3.780000000000e+05 2.576038241390e-06-9.003750190220e-01-2.473592758180e-06
     7.575253139700e-04-1.240937500000e+02-1.890119783970e+00 9.807551381020e-10
     0.000000000000e+00 2.000000000000e+00 2.105000000000e+03 1.000000000000e+00
     2.800000000000e+00 0.000000000000e+00-6.053596735000e-09 9.610000000000e+02
     3.744060000000e+05 1.000000000000e+00                                      
J07 2020 05 14 10 00 00-5.774199962620e-08 0.000000000000e+00 0.000000000000e+00
     1.970000000000e+02 1.129062500000e+02 0.000000000000e+00 1.410651376620e+00
     3.864988684650e-06 1.973108155650e-04 4.088506102560e-06 6.493566337590e+03
     3.816000000000e+05 3.164634108540e-06-9.014817575110e-01-1.452863216400e-07
     7.607115495470e-04-1.205000000000e+02-1.882790280580e+00 9.653973555320e-10
     0.000000000000e+00 2.000000000000e+00 2.105000000000e+03 1.000000000000e+00
     2.800000000000e+00 0.000000000000e+00-6.053596735000e-09 9.650000000000e+02
     3.780660000000e+05 1.000000000000e+00                                      
J07 2020 05 14 11 00 00-5.774199962620e-08 0.000000000000e+00 0.000000000000e+00
     2.010000000000e+02 1.235000000000e+02 0.000000000000e+00 1.681720292230e+00
     4.185363650320e-06 1.973075559360e-04 4.529953002930e-06 6.493562221530e+03
     3.852000000000e+05 2.112239599230e-06-9.016576909650e-01 1.613050699230e-06
     7.630229601120e-04-1.349375000000e+02-1.891184210480e+00 9.939699742680e-10
     0.000000000000e+00 2.000000000000e+00 2.105000000000e+03 1.000000000000e+00
     2.800000000000e+00 0.000000000000e+00-6.053596735000e-09 9.690000000000e+02
     3.816360000000e+05 1.000000000000e+00                                      
J07 2020 05 14 12 00 00-5.774199962620e-08 0.000000000000e+00 0.000000000000e+00
     2.050000000000e+02 1.290625000000e+02 0.000000000000e+00 1.962801514260e+00
     4.358589649200e-06 1.982813701030e-04 5.766749382020e-06 6.493552959440e+03
     3.888000000000e+05 5.438923835750e-07-9.016531237350e-01 2.011656761170e-06
     7.646102262280e-04-1.747187500000e+02-1.909769954160e+00 1.055043946820e-09
     0.000000000000e+00 2.000000000000e+00 2.105000000000e+03 1.000000000000e+00
     2.800000000000e+00 0.000000000000e+00-6.053596735000e-09 9.730000000000e+02
     3.852060000000e+05 1.000000000000e+00                                      
J07 2020 05 14 13 00 00-5.774199962620e-08 0.000000000000e+00 0.000000000000e+00
     2.090000000000e+02 1.120312500000e+02 0.000000000000e+00 2.244833846640e+00
     3.831461071970e-06 2.005709102380e-04 7.150694727900e-06 6.493541971210e+03
     3.924000000000e+05-4.321336746220e-07-9.016433982550e-01 1.439824700360e-06
     7.657615427560e-04-2.192812500000e+02-1.929310455230e+00 1.127904124590e-09
     0.000000000000e+00 2.000000000000e+00 2.105000000000e+03 1.000000000000e+00
     2.800000000000e+00 0.000000000000e+00-6.053596735000e-09 9.770000000000e+02
     3.888060000000e+05 1.000000000000e+00                                      
J07 2020 05 14 14 00 00-5.820766091350e-08 0.000000000000e+00 0.000000000000e+00
     2.130000000000e+02 8.884375000000e+01 0.000000000000e+00 2.517348600760e+00
     3.110617399220e-06 2.026287838820e-04 7.763504981990e-06 6.493534935000e+03
     3.960000000000e+05-5.960464477540e-07-9.015367120280e-01 8.661299943920e-07
     7.664812984510e-04-2.390000000000e+02-1.939428969500e+00 1.174334630040e-09
     0.000000000000e+00 2.000000000000e+00 2.105000000000e+03 1.000000000000e+00
     2.800000000000e+00 0.000000000000e+00-6.053596735000e-09 9.810000000000e+02
     3.924360000000e+05 1.000000000000e+00                                      
J07 2020 05 14 15 00 00-6.007030606270e-08 0.000000000000e+00 0.000000000000e+00
     2.170000000000e+02 9.112500000000e+01 0.000000000000e+00 2.779712833420e+00
     3.194436430930e-06 2.024180721490e-04 7.795169949530e-06 6.493535388950e+03
     3.996000000000e+05-5.960464477540e-07-9.015252251960e-01 8.102506399150e-07
     7.665427410110e-04-2.400937500000e+02-1.939301239200e+00 1.172905999100e-09
     0.000000000000e+00 2.000000000000e+00 2.105000000000e+03 1.000000000000e+00
     2.800000000000e+00 0.000000000000e+00-6.053596735000e-09 9.850000000000e+02
     3.960060000000e+05 1.000000000000e+00                                      
J07 2020 05 14 16 00 00-6.146728992460e-08 0.000000000000e+00 0.000000000000e+00
     2.210000000000e+02 1.266875000000e+02 0.000000000000e+00 3.038280509860e+00
     4.313886165620e-06 1.987953437490e-04 8.290633559230e-06 6.493544399260e+03
     4.032000000000e+05-1.098960638050e-06-9.022811939650e-01 8.940696716310e-07
     7.658829649570e-04-2.558750000000e+02-1.934610196350e+00 1.115760761630e-09
     0.000000000000e+00 2.000000000000e+00 2.105000000000e+03 1.000000000000e+00
     2.800000000000e+00 0.000000000000e+00-6.053596735000e-09 9.890000000000e+02
     3.996360000000e+05 1.000000000000e+00                                      
J07 2020 05 14 17 00 00-6.239861249920e-08 0.000000000000e+00 0.000000000000e+00
     1.000000000000e+00 1.623125000000e+02 0.000000000000e+00-2.981467994090e+00
     5.431473255160e-06 1.931026345120e-04 9.801238775250e-06 6.493558271410e+03
     4.068000000000e+05-1.959502696990e-06-9.045371218990e-01 3.073364496230e-07
     7.649642524030e-04-3.040937500000e+02-1.933290040060e+00 1.026114170350e-09
     0.000000000000e+00 2.000000000000e+00 2.105000000000e+03 1.000000000000e+00
     2.800000000000e+00 0.000000000000e+00-6.053596735000e-09 7.690000000000e+02
     4.032060000000e+05 1.000000000000e+00                                      
J07 2020 05 14 18 00 00-6.146728992460e-08 0.000000000000e+00 0.000000000000e+00
     5.000000000000e+00 1.680312500000e+02 0.000000000000e+00-2.711388322700e+00
     5.608424544330e-06 1.881722128020e-04 1.151487231250e-05 6.493570821760e+03
     4.104000000000e+05-2.240762114520e-06-9.083778246000e-01-1.186504960060e-06
     7.646789833780e-04-3.590312500000e+02-1.937030006220e+00 9.439678914800e-10
     0.000000000000e+00 2.000000000000e+00 2.105000000000e+03 1.000000000000e+00
     2.800000000000e+00 0.000000000000e+00-6.053596735000e-09 7.730000000000e+02
     4.068060000000e+05 1.000000000000e+00                                      
J07 2020 05 14 19 00 00-6.053596735000e-08 0.000000000000e+00 0.000000000000e+00
     9.000000000000e+00 1.598437500000e+02 0.000000000000e+00-2.444857222440e+00
     5.340203642850e-06 1.868219114840e-04 1.207366585730e-05 6.493574617390e+03
     4.140000000000e+05-1.162290573120e-06-9.129018665760e-01-2.745538949970e-06
     7.657556910840e-04-3.762187500000e+02-1.936539280590e+00 9.221812696940e-10
     0.000000000000e+00 2.000000000000e+00 2.105000000000e+03 1.000000000000e+00
     2.800000000000e+00 0.000000000000e+00-6.053596735000e-09 7.770000000000e+02
     4.104060000000e+05 1.000000000000e+00                                      
J07 2020 05 14 20 00 00-6.007030606270e-08 0.000000000000e+00 0.000000000000e+00
     1.300000000000e+01 1.820312500000e+02 0.000000000000e+00-2.193734902250e+00
     5.984678864480e-06 1.887063262980e-04 1.162290573120e-05 6.493567701340e+03
     4.176000000000e+05 9.294599294660e-07-9.167262709060e-01-3.112480044360e-06
     7.681724317510e-04-3.607187500000e+02-1.921339138960e+00 9.750406143550e-10
     0.000000000000e+00 2.000000000000e+00 2.105000000000e+03 1.000000000000e+00
     2.800000000000e+00 0.000000000000e+00-6.053596735000e-09 7.810000000000e+02
     4.140060000000e+05 1.000000000000e+00                                      
J07 2020 05 14 21 00 00-6.007030606270e-08 0.000000000000e+00 0.000000000000e+00
     1.700000000000e+01 2.310625000000e+02 0.000000000000e+00-1.953488487070e+00
     7.446855306630e-06 1.910364953800e-04 1.148134469990e-05 6.493555971150e+03
     4.212000000000e+05 2.702698111530e-06-9.189817789830e-01-1.857057213780e-06
     7.711640992230e-04-3.558437500000e+02-1.896830508110e+00 1.061472786030e-09
     0.000000000000e+00 2.000000000000e+00 2.105000000000e+03 1.000000000000e+00
     2.800000000000e+00 0.000000000000e+00-6.053596735000e-09 7.850000000000e+02
     4.176060000000e+05 1.000000000000e+00                                      
J07 2020 05 14 22 00 00-6.053596735000e-08 0.000000000000e+00 0.000000000000e+00
     2.100000000000e+01 2.598750000000e+02 0.000000000000e+00-1.705863443720e+00
     8.299946784970e-06 1.918755006050e-04 1.182407140730e-05 6.493548746110e+03
     4.248000000000e+05 3.041699528690e-06-9.197992020140e-01 1.527369022370e-07
     7.738339247180e-04-3.673437500000e+02-1.881137069050e+00 1.115760761630e-09
     0.000000000000e+00 2.000000000000e+00 2.105000000000e+03 1.000000000000e+00
     2.800000000000e+00 0.000000000000e+00-6.053596735000e-09 7.890000000000e+02
     4.212060000000e+05 1.000000000000e+00                                      
J07 2020 05 14 23 00 00-6.053596735000e-08 0.000000000000e+00 0.000000000000e+00
     2.500000000000e+01 2.518437500000e+02 0.000000000000e+00-1.435520787930e+00
     8.057802915570e-06 1.919522183020e-04 1.141056418420e-05 6.493552419660e+03
     4.284000000000e+05 2.041459083560e-06-9.199125898690e-01 1.568347215650e-06
     7.757561990740e-04-3.535937500000e+02-1.888865031820e+00 1.089331089300e-09
     0.000000000000e+00 2.000000000000e+00 2.105000000000e+03 1.000000000000e+00
     2.800000000000e+00 0.000000000000e+00-6.053596735000e-09 7.930000000000e+02
     4.248060000000e+05 1.000000000000e+00                                      
